id,postcode,woonplaats,alternatieve_schrijfwijzen,gemeente,provincie,netnummer,latitude,longitude,soort
1,1000,Amsterdam,,Amsterdam,Noord-Holland,20,52.3362429,4.8694444,Postbus
89,1100,Amsterdam-Zuidoost,Amsterdam Zuidoost,Amsterdam,Noord-Holland,20,52.3768632,4.8200283,Postbus
99,1110,Diemen,,Diemen,Noord-Holland,20,52.3331508,4.9551377,Postbus
103,1115,Duivendrecht,,Ouder-Amstel,Noord-Holland,20,52.332886,4.9412022,Adres + Postbus
104,1117,Schiphol,,Haarlemmermeer,Noord-Holland,20,52.3052778,4.7992528,Adres + Postbus
105,1118,Luchthaven Schiphol,LUCHTH SCHIPHOL,Haarlemmermeer,Noord-Holland,20,52.3105386,4.7682744,Adres + Postbus
106,1119,Schiphol-Rijk,SCHIPHOL RYK,Haarlemmermeer,Noord-Holland,20,52.279722,4.753889,Adres
107,1120,Landsmeer,,Landsmeer,Noord-Holland,20,52.4324284,4.9150708,Postbus
109,1127,Den Ilp,,Landsmeer,Noord-Holland,20,52.454533,4.9073219,Adres
110,1130,Volendam,,Edam-Volendam,Noord-Holland,299,52.5180914,5.0024565,Postbus
113,1135,Edam,,Edam-Volendam,Noord-Holland,299,52.5126367,5.0491819,Adres + Postbus
114,1140,Monnickendam,,Waterland,Noord-Holland,299,52.4650634,4.954089,Postbus
116,1145,Katwoude,,Waterland,Noord-Holland,299,52.4694862,5.0471278,Adres
117,1150,Broek in Waterland,,Waterland,Noord-Holland,20,52.4144806,5.0219082,Postbus
119,1153,Zuiderwoude,,Waterland,Noord-Holland,20,52.4321039,5.033652,Adres
120,1154,Uitdam,,Waterland,Noord-Holland,20,52.4210268,5.0724962,Adres
121,1156,Marken,,Waterland,Noord-Holland,299,52.4589926,5.1032057,Adres
122,1160,Zwanenburg,,Haarlemmermeer,Noord-Holland,20,52.0370724,5.0887879,Postbus
124,1165,Halfweg,,Haarlemmerliede en Spaarnwoude,Noord-Holland,20,52.3819918,4.7538293,Adres
125,1170,Badhoevedorp,,Haarlemmermeer,Noord-Holland,20,52.337248,4.7798711,Postbus
127,1175,Lijnden,LYNDEN,Haarlemmermeer,Noord-Holland,23,52.3538766,4.7544953,Adres
128,1180,Amstelveen,,Amstelveen,Noord-Holland,20,52.3020525,4.8448473,Postbus
138,1190,Ouderkerk aan de Amstel,OUDERKERK AMSTEL,Ouder-Amstel,Noord-Holland,20,52.2954563,4.9023305,Postbus
140,1200,Hilversum,,Hilversum,Noord-Holland,35,52.2292024,5.1693338,Postbus
154,1230,Loosdrecht,,Wijdemeren,Noord-Holland,35,52.20618,5.06697,Postbus
156,1240,Kortenhoef,,Wijdemeren,Noord-Holland,35,52.2397632,5.1132094,Postbus
158,1243,'s-Graveland,S GRAVELAND,Wijdemeren,Noord-Holland,35,52.244167,5.121111,Adres + Postbus
159,1244,Ankeveen,,Wijdemeren,Noord-Holland,35,52.2642195,5.098253,Adres
160,1250,Laren,,Laren,Noord-Holland,35,52.255712,5.2293702,Postbus
163,1260,Blaricum,,Blaricum,Noord-Holland,35,52.2857057,5.2697832,Adres + Postbus
165,1270,Huizen,,Huizen,Noord-Holland,35,52.2974955,5.2351132,Postbus
173,1300,Almere,,Almere,Flevoland,36,52.3481373,5.2474067,Postbus
221,1380,Weesp,,Weesp,Noord-Holland,294,52.3066153,5.0432534,Postbus
225,1390,Abcoude,,Abcoude,Utrecht,294,52.2694313,4.9735943,Postbus
227,1393,Nigtevecht,,Loenen,Utrecht,294,52.2738533,5.0285536,Adres
228,1394,Nederhorst den Berg,NEDERHORST D BERG,Wijdemeren,Noord-Holland,294,52.2601767,5.0449932,Adres + Postbus
229,1396,Baambrugge,,Abcoude,Utrecht,294,52.2462306,4.9886094,Adres
230,1398,Muiden,,Muiden,Noord-Holland,294,52.3286972,5.0683449,Adres + Postbus
231,1399,Muiderberg,,Muiden,Noord-Holland,294,52.3263049,5.1165375,Adres
232,1400,Bussum,,Bussum,Noord-Holland,35,52.27475,5.1679387,Adres + Postbus
239,1410,Naarden,,Naarden,Noord-Holland,35,52.2857057,5.2697832,Postbus
242,1420,Uithoorn,,Uithoorn,Noord-Holland,297,52.3474444,4.9082811,Postbus
246,1424,De Kwakel,,Uithoorn,Noord-Holland,297,52.2390773,4.7939868,Adres
247,1426,De Hoef,,De Ronde Venen,Utrecht,297,52.2007451,4.8143176,Adres
248,1427,Amstelhoek,,De Ronde Venen,Utrecht,297,52.2317442,4.8349976,Adres
249,1428,Vrouwenakker,,Nieuwkoop,Zuid-Holland,297,52.213967,4.7850891,Adres
250,1430,Aalsmeer,,Aalsmeer,Noord-Holland,297,52.2666259,4.7510049,Postbus
253,1433,Kudelstaart,,Aalsmeer,Noord-Holland,297,52.2384184,4.7519489,Adres
254,1435,Rijsenhout,RYSENHOUT,Haarlemmermeer,Noord-Holland,297,52.2620371,4.7127066,Adres
255,1436,Aalsmeerderbrug,,Haarlemmermeer,Noord-Holland,297,52.2738103,4.7497732,Adres
256,1437,Rozenburg,,Haarlemmermeer,Noord-Holland,297,52.2817172,4.7377604,Adres
257,1438,Oude Meer,,Haarlemmermeer,Noord-Holland,20,52.2899333,4.7833671,Adres
258,1440,Purmerend,,Purmerend,Noord-Holland,299,52.4941495,4.9275193,Postbus
267,1451,Purmerland,,Landsmeer,Noord-Holland,299,52.4814429,4.925769,Adres
268,1452,Ilpendam,,Waterland,Noord-Holland,20,52.4631783,4.9513713,Adres
269,1454,Watergang,,Waterland,Noord-Holland,20,52.4398855,4.9521153,Adres
270,1456,Wijdewormer,WYDEWORMER,Wormerland,Noord-Holland,299,52.4873869,4.8597355,Adres
271,1458,Spijkerboor,SPYKERBOOR,Wormerland,Noord-Holland,75,52.5383425,4.8322711,Adres
272,1461,Zuidoostbeemster,,Beemster,Noord-Holland,299,52.5151991,4.9421222,Adres
273,1462,Middenbeemster,,Beemster,Noord-Holland,299,52.5481066,4.9109338,Adres + Postbus
274,1463,Noordbeemster,,Beemster,Noord-Holland,299,52.5797174,4.9322059,Adres
275,1464,Westbeemster,,Beemster,Noord-Holland,299,52.5752469,4.8995178,Adres
276,1471,Kwadijk,KWADYK,Zeevang,Noord-Holland,299,52.527382,4.9837605,Adres
277,1472,Middelie,,Zeevang,Noord-Holland,299,52.5355665,5.0158893,Adres
278,1473,Warder,,Zeevang,Noord-Holland,299,52.5635314,5.0324222,Adres
279,1474,Oosthuizen,,Zeevang,Noord-Holland,299,52.5739553,4.9975843,Adres + Postbus
280,1475,Beets,,Zeevang,Noord-Holland,299,52.5887299,4.978728,Adres
281,1476,Schardam,,Zeevang,Noord-Holland,299,52.5950121,5.0174519,Adres
282,1477,Hobrede,,Zeevang,Noord-Holland,299,52.5446616,4.9802415,Adres
283,1481,Purmer,,Waterland,Noord-Holland,299,52.5028767,5.0222838,Adres
285,1483,De Rijp,DE RYP,Graft-De Rijp,Noord-Holland,299,52.5563611,4.8468049,Adres + Postbus
286,1484,Graft,,Graft-De Rijp,Noord-Holland,299,52.5622696,4.832044,Adres
287,1485,Noordeinde,,Graft-De Rijp,Noord-Holland,299,52.5713907,4.8356906,Adres
288,1486,West-Graftdijk,WEST GRAFTDYK,Graft-De Rijp,Noord-Holland,75,52.5542536,4.7950025,Adres
289,1487,Oost-Graftdijk,OOST GRAFTDYK,Graft-De Rijp,Noord-Holland,75,52.5451072,4.8138621,Adres
290,1488,Starnmeer,,Graft-De Rijp,Noord-Holland,75,52.541944,4.793333,Adres
291,1489,De Woude,,Castricum,Noord-Holland,75,52.5469212,4.7757441,Adres
292,1500,Zaandam,,Zaanstad,Noord-Holland,75,52.4204677,4.8313093,Adres + Postbus
302,1510,Oostzaan,,Oostzaan,Noord-Holland,75,52.4409764,4.8751529,Postbus
304,1520,Wormerveer,,Zaanstad,Noord-Holland,75,52.4906967,4.8013431,Postbus
306,1525,Westknollendam,WEST-KNOLLENDAM,Wormerland,Noord-Holland,75,52.5178843,4.7866064,Adres
307,1530,Wormer,,Wormerland,Noord-Holland,75,52.4906967,4.8013431,Postbus
309,1534,Oostknollendam,OOST-KNOLLENDAM,Wormerland,Noord-Holland,75,52.5166916,4.7906888,Adres
310,1536,Markenbinnen,,Graft-De Rijp,Noord-Holland,75,52.5302023,4.7812856,Adres
311,1540,Koog aan de Zaan,,Zaanstad,Noord-Holland,75,52.4681691,4.8078729,Postbus
313,1544,Zaandijk,ZAANDYK,Zaanstad,Noord-Holland,75,52.4740433,4.8028179,Adres
314,1546,Jisp,,Wormerland,Noord-Holland,75,52.5078271,4.8483414,Adres
315,1550,Westzaan,,Zaanstad,Noord-Holland,75,52.4989308,4.8004434,Postbus
317,1560,Krommenie,,Zaanstad,Noord-Holland,75,52.4989308,4.8004434,Postbus
320,1566,Assendelft,,Zaanstad,Noord-Holland,75,52.4691062,4.7396672,Adres
322,1600,Enkhuizen,,Enkhuizen,Noord-Holland,228,52.7040983,5.2948557,Postbus
325,1606,Venhuizen,,Drechterland,Noord-Holland,228,52.6646778,5.2065474,Adres
326,1607,Hem,,Drechterland,Noord-Holland,228,52.661111,5.183056,Adres
327,1608,Wijdenes,WYDENES,Drechterland,Noord-Holland,229,52.6364914,5.157782,Adres
328,1609,Oosterleek,,Drechterland,Noord-Holland,229,52.6389783,5.1971095,Adres
329,1610,Bovenkarspel,,Stede Broec,Noord-Holland,228,52.3878721,4.9500197,Postbus
331,1613,Grootebroek,,Stede Broec,Noord-Holland,228,52.6982227,5.2229184,Adres
332,1614,Lutjebroek,,Stede Broec,Noord-Holland,228,52.6983506,5.2057581,Adres
333,1616,Hoogkarspel,,Drechterland,Noord-Holland,228,52.6925934,5.1652989,Adres + Postbus
334,1617,Westwoud,,Drechterland,Noord-Holland,228,52.6849913,5.1342075,Adres
335,1619,Andijk,ANDYK,Andijk,Noord-Holland,228,52.7454906,5.2208756,Adres + Postbus
336,1620,Hoorn,Hoorn Nh,Hoorn,Noord-Holland,229,52.6467478,5.0469633,Postbus
344,1631,Oudendijk,OUDENDYK,Koggenland,Noord-Holland,229,52.6010281,4.966909,Adres
345,1633,Avenhorn,,Koggenland,Noord-Holland,229,52.6194727,4.9527342,Adres + Postbus
346,1634,Scharwoude,,Koggenland,Noord-Holland,229,52.6221832,5.0124124,Adres
347,1636,Schermerhorn,,Schermer,Noord-Holland,72,52.6005503,4.8897767,Adres
348,1641,Spierdijk,SPIERDYK,Koggenland,Noord-Holland,229,52.6454451,4.9408649,Adres
351,1645,Ursem,,Koggenland,Noord-Holland,72,52.627698,4.891242,Adres
353,1647,Berkhout,,Koggenland,Noord-Holland,229,52.6404363,4.9985175,Adres
354,1648,De Goorn,,Koggenland,Noord-Holland,229,52.6275324,4.9449451,Adres
355,1652,Zuidermeer,,Koggenland,Noord-Holland,229,52.6644734,4.9761474,Adres
356,1654,Benningbroek,,Medemblik,Noord-Holland,229,52.7042382,5.0135027,Adres
357,1655,Sijbekarspel,SYBEKARSPEL,Medemblik,Noord-Holland,229,52.7121865,4.9764999,Adres
358,1657,Abbekerk,,Medemblik,Noord-Holland,229,52.7316774,5.0170886,Adres
359,1658,Lambertschaag,,Medemblik,Noord-Holland,229,52.7482137,5.0149131,Adres
360,1661,De Weere,,Opmeer,Noord-Holland,229,52.7350522,4.9771557,Adres
363,1670,Medemblik,,Medemblik,Noord-Holland,227,52.7739543,5.1063209,Postbus
365,1674,Opperdoes,,Medemblik,Noord-Holland,227,52.7602994,5.0765027,Adres
366,1676,Twisk,,Medemblik,Noord-Holland,227,52.7413549,5.0563358,Adres
367,1678,Oostwoud,,Medemblik,Noord-Holland,229,52.7252238,5.0905909,Adres
368,1679,Midwoud,,Medemblik,Noord-Holland,229,52.712653,5.0703139,Adres
369,1681,Zwaagdijk,Zwaagdijk-Oost,Wervershoof,Noord-Holland,228,52.7060522,5.1538239,Adres
375,1687,Wognum,,Medemblik,Noord-Holland,229,52.6818409,5.0228454,Adres + Postbus
376,1688,Nibbixwoud,,Medemblik,Noord-Holland,229,52.6929271,5.0567118,Adres
377,1689,Zwaag,,Hoorn,Noord-Holland,229,52.6671969,5.073672,Adres
378,1691,Hauwert,,Medemblik,Noord-Holland,229,52.7083673,5.1002922,Adres
380,1693,Wervershoof,,Wervershoof,Noord-Holland,228,52.7308539,5.1521926,Adres + Postbus
381,1695,Blokker,,Hoorn,Noord-Holland,229,52.6607893,5.0847617,Adres + Postbus
382,1696,Oosterblokker,,Drechterland,Noord-Holland,229,52.6686263,5.1179221,Adres
383,1697,Schellinkhout,,Drechterland,Noord-Holland,229,52.6359037,5.1215198,Adres
384,1700,Heerhugowaard,,Heerhugowaard,Noord-Holland,72,52.6657897,4.8186745,Postbus
390,1710,Hensbroek,,Koggenland,Noord-Holland,226,52.3922488,4.9441753,Postbus
392,1713,Obdam,,Koggenland,Noord-Holland,226,52.6760192,4.9081883,Adres + Postbus
393,1715,Spanbroek,,Opmeer,Noord-Holland,226,52.6984009,4.9587439,Adres + Postbus
394,1716,Opmeer,,Opmeer,Noord-Holland,226,52.7053787,4.9426672,Adres + Postbus
395,1718,Hoogwoud,,Opmeer,Noord-Holland,226,52.7165189,4.9345332,Adres
396,1719,Aartswoud,,Opmeer,Noord-Holland,229,52.7427274,4.9496928,Adres
397,1720,Broek op Langedijk,BROEK OP LANGEDYK,Langedijk,Noord-Holland,226,52.686419,4.7377074,Postbus
399,1722,Zuid-Scharwoude,ZUID SCHARWOUDE,Langedijk,Noord-Holland,226,52.6889687,4.7943409,Adres
400,1723,Noord-Scharwoude,NOORD SCHARWOUDE,Langedijk,Noord-Holland,226,52.6986574,4.8108679,Adres + Postbus
401,1724,Oudkarspel,,Langedijk,Noord-Holland,226,52.7095702,4.8076765,Adres + Postbus
402,1730,Winkel,,Niedorp,Noord-Holland,224,52.6336643,4.7510326,Postbus
404,1732,Lutjewinkel,,Niedorp,Noord-Holland,224,52.7675819,4.885082,Adres
405,1733,Nieuwe Niedorp,NIEUWE-NIEDORP,Niedorp,Noord-Holland,226,52.7377535,4.8913015,Adres + Postbus
406,1734,Oude-Niedorp,OUDE NIEDORP,Niedorp,Noord-Holland,226,52.718574,4.8760966,Adres
407,1735,'t Veld,T VELD,Niedorp,Noord-Holland,226,52.7398968,4.8548368,Adres
408,1736,Zijdewind,ZYDEWIND,Niedorp,Noord-Holland,226,52.7431992,4.8398995,Adres
409,1738,Waarland,,Harenkarspel,Noord-Holland,226,52.725898,4.8335986,Adres + Postbus
410,1740,Schagen,,Schagen,Noord-Holland,224,52.7856038,4.7971055,Postbus
413,1744,Sint Maarten,ST MAARTEN,Harenkarspel,Noord-Holland,224,52.7726894,4.7448499,Adres
414,1746,Dirkshorn,,Harenkarspel,Noord-Holland,224,52.7494753,4.7793944,Adres
415,1747,Tuitjenhorn,,Harenkarspel,Noord-Holland,226,52.7393604,4.7493132,Adres
416,1749,Warmenhuizen,,Harenkarspel,Noord-Holland,226,52.7226939,4.7384987,Adres + Postbus
417,1750,Schagerbrug,,Zijpe,Noord-Holland,224,52.7901423,4.792597,Postbus
419,1752,Sint Maartensbrug,ST MAARTENSBRUG,Zijpe,Noord-Holland,224,52.7809681,4.7274984,Adres
420,1753,Sint Maartensvlotbrug,ST MAARTENSVLOTBR,Zijpe,Noord-Holland,224,52.784475,4.7086508,Adres
421,1754,Burgerbrug,,Zijpe,Noord-Holland,226,52.7479569,4.7032325,Adres
422,1755,Petten,,Zijpe,Noord-Holland,226,52.7645968,4.6615332,Adres
423,1756,'t Zand,T ZAND,Zijpe,Noord-Holland,224,52.8366902,4.7563978,Adres
424,1757,Oudesluis,,Zijpe,Noord-Holland,224,52.834414,4.8090952,Adres
425,1759,Callantsoog,,Zijpe,Noord-Holland,224,52.835097,4.6943765,Adres
426,1760,Anna Paulowna,,Anna Paulowna,Noord-Holland,223,52.88009,4.79523,Postbus
428,1764,Breezand,,Anna Paulowna,Noord-Holland,223,52.8884709,4.8058095,Adres + Postbus
429,1766,Wieringerwaard,,Anna Paulowna,Noord-Holland,224,52.8356223,4.8624722,Adres
430,1767,Kolhorn,,Niedorp,Noord-Holland,224,52.7948147,4.8900181,Adres
431,1768,Barsingerhorn,,Niedorp,Noord-Holland,224,52.7852727,4.8451104,Adres
432,1769,Haringhuizen,,Niedorp,Noord-Holland,224,52.7730739,4.8287535,Adres
433,1770,Wieringerwerf,,Wieringermeer,Noord-Holland,227,52.7655418,5.0804324,Postbus
435,1773,Kreileroord,,Wieringermeer,Noord-Holland,227,52.8414013,5.0823533,Adres
436,1774,Slootdorp,,Wieringermeer,Noord-Holland,227,52.8451344,4.9686855,Adres
437,1775,Middenmeer,,Wieringermeer,Noord-Holland,227,52.8110945,4.9948975,Adres + Postbus
438,1777,Hippolytushoef,,Wieringen,Noord-Holland,227,52.9076257,4.9628723,Adres + Postbus
439,1778,Westerland,,Wieringen,Noord-Holland,227,52.89157,4.9271036,Adres
440,1779,Den Oever,,Wieringen,Noord-Holland,227,52.9343779,5.0282699,Adres
441,1780,Den Helder,,Den Helder,Noord-Holland,223,52.963775,4.7721863,Postbus
450,1789,Huisduinen,,Den Helder,Noord-Holland,223,52.9531094,4.7256959,Adres
451,1790,Den Burg,,Texel,Noord-Holland,222,52.428361,4.9168498,Postbus
453,1792,Oudeschild,,Texel,Noord-Holland,222,53.0389751,4.8479885,Adres
454,1793,De Waal,,Texel,Noord-Holland,222,53.0729311,4.8201727,Adres
455,1794,Oosterend,,Texel,Noord-Holland,222,53.0853623,4.8768743,Adres + Postbus
456,1795,De Cocksdorp,,Texel,Noord-Holland,222,53.1550263,4.8696559,Adres
457,1796,De Koog,,Texel,Noord-Holland,222,53.0962203,4.7618406,Adres
458,1797,Den Hoorn,DEN HOORN TEXEL,Texel,Noord-Holland,222,53.0255323,4.7511124,Adres
459,1800,Alkmaar,,Alkmaar,Noord-Holland,72,52.6199687,4.7346471,Adres + Postbus
477,1829,Oudorp,,Alkmaar,Noord-Holland,72,52.6303937,4.7736543,Adres
478,1830,Koedijk,KOEDYK,Alkmaar,Noord-Holland,72,52.686419,4.7377074,Postbus
481,1834,Sint Pancras,ST PANCRAS,Langedijk,Noord-Holland,72,52.6655556,4.7867781,Adres + Postbus
482,1840,Stompetoren,,Schermer,Noord-Holland,72,52.388662,4.9468127,Postbus
484,1842,Oterleek,,Schermer,Noord-Holland,72,52.6368592,4.8348999,Adres
485,1843,Grootschermer,,Schermer,Noord-Holland,299,52.5821507,4.849897,Adres
486,1844,Driehuizen,,Schermer,Noord-Holland,299,52.5779152,4.8073131,Adres
487,1846,Zuidschermer,,Schermer,Noord-Holland,72,52.5691903,4.7768957,Adres
489,1850,Heiloo,,Heiloo,Noord-Holland,72,52.6080899,4.6891213,Postbus
492,1860,Bergen,Bergen (NH.),Bergen,Noord-Holland,72,52.665,4.7045881,Postbus
495,1865,Bergen aan Zee,,Bergen,Noord-Holland,72,52.6610417,4.6318186,Adres
496,1870,Schoorl,,Bergen,Noord-Holland,72,52.3948682,4.9468386,Postbus
498,1873,Groet,,Bergen,Noord-Holland,72,52.7220044,4.6670183,Adres
499,1900,Castricum,,Castricum,Noord-Holland,251,52.5500063,4.6724068,Postbus
502,1906,Limmen,,Castricum,Noord-Holland,72,52.5715831,4.6942467,Adres + Postbus
503,1910,Uitgeest,,Uitgeest,Noord-Holland,251,52.5280686,4.7130762,Postbus
505,1920,Akersloot,,Castricum,Noord-Holland,251,52.5660965,4.7402604,Postbus
507,1930,Egmond aan Zee,,Bergen,Noord-Holland,72,52.6187,4.6281065,Postbus
509,1934,Egmond aan Den Hoef,EGMOND AD HOEF,Bergen,Noord-Holland,72,52.6209748,4.6531215,Adres
510,1935,Egmond-Binnen,EGMOND BINNEN,Bergen,Noord-Holland,72,52.5938149,4.6560387,Adres
511,1940,Beverwijk,BEVERWYK,Beverwijk,Noord-Holland,251,52.4919759,4.6653166,Adres + Postbus
520,1949,Wijk aan Zee,WYK AAN ZEE,Beverwijk,Noord-Holland,251,52.4916911,4.593325,Adres + Postbus
521,1950,Velsen-Noord,VELSEN NOORD,Velsen,Noord-Holland,251,52.4733264,4.6498059,Postbus
523,1960,Heemskerk,,Heemskerk,Noord-Holland,251,52.5069097,4.6701014,Postbus
533,1970,IJmuiden,YMUIDEN,Velsen,Noord-Holland,255,52.4617618,4.5746247,Postbus
540,1980,Velsen-Zuid,VELSEN ZUID,Velsen,Noord-Holland,255,52.4568392,4.6680944,Postbus
542,1985,Driehuis,,Velsen,Noord-Holland,255,52.4470055,4.6362986,Adres
543,1990,Velserbroek,,Velsen,Noord-Holland,23,52.4319909,4.6459886,Postbus
546,2000,Haarlem,,Haarlem,Noord-Holland,23,52.3720069,4.6313075,Postbus
569,2040,Zandvoort,,Zandvoort,Noord-Holland,23,52.3785082,4.5340065,Postbus
572,2050,Overveen,,Bloemendaal,Noord-Holland,23,52.400023,4.5989705,Postbus
574,2060,Bloemendaal,,Bloemendaal,Noord-Holland,23,52.3966448,4.6126387,Postbus
576,2063,Spaarndam-West,SPAARNDAM WEST,Haarlem,Noord-Holland,23,52.415,4.676944,Adres
577,2064,Spaarndam,,Haarlemmerliede en Spaarnwoude,Noord-Holland,23,52.4128782,4.6860272,Adres + Postbus
578,2065,Haarlemmerliede,,Haarlemmerliede en Spaarnwoude,Noord-Holland,23,52.3885691,4.6895554,Adres
579,2070,Santpoort-Noord,SANTPOORT NOORD,Velsen,Noord-Holland,23,52.4314485,4.6445616,Postbus
581,2080,Santpoort-Zuid,SANTPOORT ZUID,Velsen,Noord-Holland,23,52.4253297,4.6226263,Postbus
583,2100,Heemstede,,Heemstede,Noord-Holland,23,52.3463359,4.6197272,Postbus
590,2110,Aerdenhout,,Bloemendaal,Noord-Holland,23,52.3660029,4.5805322,Postbus
592,2114,Vogelenzang,,Bloemendaal,Noord-Holland,23,52.3196324,4.5780826,Adres
593,2116,Bentveld,,Zandvoort,Noord-Holland,23,52.3658414,4.5753075,Adres
594,2120,Bennebroek,,Bloemendaal,Noord-Holland,23,52.4518399,4.802687,Postbus
596,2130,Hoofddorp,,Haarlemmermeer,Noord-Holland,23,52.2866832,4.6652858,Postbus
602,2136,Zwaanshoek,,Haarlemmermeer,Noord-Holland,23,52.3128404,4.6175817,Adres
603,2140,Vijfhuizen,VYFHUIZEN,Haarlemmermeer,Noord-Holland,23,52.3560542,4.6726408,Postbus
605,2142,Cruquius,,Haarlemmermeer,Noord-Holland,23,52.3360142,4.6347871,Adres
606,2143,Boesingheliede,,Haarlemmermeer,Noord-Holland,23,52.3610933,4.7255443,Adres
607,2144,Beinsdorp,,Haarlemmermeer,Noord-Holland,252,52.2860513,4.5950793,Adres
608,2150,Nieuw Vennep,NIEUW-VENNEP,Haarlemmermeer,Noord-Holland,252,52.2866832,4.6652858,Postbus
612,2154,Burgerveen,,Haarlemmermeer,Noord-Holland,172,52.2404576,4.6805452,Adres
613,2155,Leimuiderbrug,,Haarlemmermeer,Noord-Holland,172,52.2309985,4.6680189,Adres
614,2156,Weteringbrug,,Haarlemmermeer,Noord-Holland,71,52.2220328,4.6461529,Adres
615,2157,Abbenes,,Haarlemmermeer,Noord-Holland,252,52.2328358,4.5915174,Adres
616,2158,Buitenkaag,,Haarlemmermeer,Noord-Holland,252,52.2208157,4.5596967,Adres
617,2159,Kaag,,Kaag en Braassem,Zuid-Holland,252,52.2160589,4.5594046,Adres
618,2160,Lisse,,Lisse,Zuid-Holland,252,52.2580113,4.5524081,Adres + Postbus
622,2165,Lisserbroek,,Haarlemmermeer,Noord-Holland,252,52.2605498,4.5709544,Adres
623,2170,Sassenheim,,Teylingen,Zuid-Holland,252,51.9578101,5.8635141,Postbus
626,2180,Hillegom,,Hillegom,Zuid-Holland,252,52.2912973,4.5787866,Postbus
629,2190,De Zilk,,Noordwijkerhout,Zuid-Holland,252,52.3025745,4.5356369,Postbus
631,2200,Noordwijk,Noordwijk Zh;Noordwijk aan Zee,Noordwijk,Zuid-Holland,71,52.2340226,4.4489376,Postbus
636,2210,Noordwijkerhout,NOORDWYKERHOUT,Noordwijkerhout,Zuid-Holland,252,52.2636557,4.4938581,Postbus
638,2215,Voorhout,,Teylingen,Zuid-Holland,252,52.2223012,4.4863318,Adres + Postbus
639,2220,Katwijk,KATWYK;Katwijk Zh,Katwijk,Zuid-Holland,71,52.2024122,4.3973005,Postbus
645,2230,Rijnsburg,RYNSBURG,Katwijk,Zuid-Holland,71,52.2024122,4.3973005,Postbus
647,2235,Valkenburg,,Katwijk,Zuid-Holland,71,52.1793927,4.4327928,Adres
648,2240,Wassenaar,,Wassenaar,Zuid-Holland,70,52.1181716,4.3704176,Postbus
654,2250,Voorschoten,,Voorschoten,Zuid-Holland,71,52.1243035,4.4461047,Postbus
659,2260,Leidschendam,,Leidschendam-Voorburg,Zuid-Holland,70,52.0767974,4.3976002,Postbus
667,2270,Voorburg,,Leidschendam-Voorburg,Zuid-Holland,70,52.0869388,4.3185376,Postbus
673,2280,Rijswijk,Rijswijk Zh,Rijswijk,Zuid-Holland,70,52.05558,4.33495,Postbus
683,2290,Wateringen,,Westland,Zuid-Holland,174,52.0216313,4.2354561,Postbus
686,2295,Kwintsheul,,Westland,Zuid-Holland,174,52.0151806,4.2561308,Adres
687,2300,Leiden,,Leiden,Zuid-Holland,71,52.1581881,4.4912006,Postbus
707,2340,Oegstgeest,,Oegstgeest,Zuid-Holland,71,52.1783182,4.462724,Postbus
711,2350,Leiderdorp,,Leiderdorp,Zuid-Holland,71,52.0851211,4.3936825,Adres + Postbus
715,2355,Hoogmade,,Kaag en Braassem,Zuid-Holland,71,52.1688532,4.5828795,Adres
716,2360,Warmond,,Teylingen,Zuid-Holland,71,52.2071287,4.5149711,Postbus
719,2370,Roelofarendsveen,,Kaag en Braassem,Zuid-Holland,71,52.1831065,4.5910855,Postbus
721,2374,Oud-Ade,OUD ADE,Kaag en Braassem,Zuid-Holland,71,52.1916423,4.5664685,Adres
722,2375,Rijpwetering,RYPWETERING,Kaag en Braassem,Zuid-Holland,71,52.193109,4.5823688,Adres
723,2376,Nieuwe Wetering,,Kaag en Braassem,Zuid-Holland,71,52.204891,4.6158037,Adres
724,2377,Oude Wetering,,Kaag en Braassem,Zuid-Holland,71,52.214167,4.644444,Adres
725,2380,Zoeterwoude,,Zoeterwoude,Zuid-Holland,71,52.1155235,4.4857634,Postbus
728,2390,Hazerswoude Dorp,,Rijnwoude,Zuid-Holland,172,52.0751101,4.5445181,Postbus
730,2394,Hazerswoude Rijndijk,HAZERSWOUDE RYNDYK,Rijnwoude,Zuid-Holland,71,52.129167,4.593056,Adres + Postbus
731,2396,Koudekerk aan den Rijn,KOUDEKERK AD RYN,Rijnwoude,Zuid-Holland,71,52.1322767,4.5983776,Adres + Postbus
732,2400,Alphen aan den Rijn,ALPHEN AAN DEN RYN;Alphen a/d Rijn,Alphen aan den Rijn,Zuid-Holland,172,52.1194105,4.6437515,Postbus
742,2410,Bodegraven,,Bodegraven,Zuid-Holland,172,52.0661976,4.7407101,Postbus
744,2415,Nieuwerbrug,,Bodegraven,Zuid-Holland,348,52.0778881,4.8127843,Adres
745,2420,Nieuwkoop,,Nieuwkoop,Zuid-Holland,172,52.1550943,4.788442,Postbus
747,2430,Noorden,,Nieuwkoop,Zuid-Holland,172,51.8725637,4.604099,Postbus
750,2435,Zevenhoven,,Nieuwkoop,Zuid-Holland,172,52.1802606,4.7817564,Adres
751,2440,Nieuwveen,,Nieuwkoop,Zuid-Holland,172,52.1888804,4.7612193,Postbus
753,2445,Aarlanderveen,,Alphen aan den Rijn,Zuid-Holland,172,52.1409426,4.728984,Adres
754,2450,Leimuiden,,Kaag en Braassem,Zuid-Holland,172,52.350925,4.8504867,Adres + Postbus
756,2460,Ter Aar,,Nieuwkoop,Zuid-Holland,172,52.16461,4.70899,Postbus
758,2465,Rijnsaterwoude,RYNSATERWOUDE,Kaag en Braassem,Zuid-Holland,172,52.198906,4.6716523,Adres
759,2470,Zwammerdam,,Alphen aan den Rijn,Zuid-Holland,172,52.073556,4.6594665,Postbus
761,2480,Woubrugge,,Kaag en Braassem,Zuid-Holland,172,52.1831065,4.5910855,Postbus
763,2490,Den Haag,S GRAVENHAGE;'s-Gravenhage,Den Haag,Zuid-Holland,70,52.0869351,4.3155204,Postbus
835,2600,Delft,,Delft,Zuid-Holland,15,52.0111076,4.3566778,Adres + Postbus
850,2630,Nootdorp,,Pijnacker-Nootdorp,Zuid-Holland,15,52.0457064,4.4729491,Postbus
854,2636,Schipluiden,,Midden-Delfland,Zuid-Holland,15,51.975149,4.3201488,Adres + Postbus
855,2640,Pijnacker,PYNACKER,Pijnacker-Nootdorp,Zuid-Holland,15,52.003371,4.4346532,Postbus
859,2645,Delfgauw,,Pijnacker-Nootdorp,Zuid-Holland,15,52.0091941,4.3967708,Adres
860,2650,Berkel en Rodenrijs,BERKEL EN RODENRYS,Lansingerland,Zuid-Holland,10,52.0463895,4.4876313,Postbus
863,2660,Bergschenhoek,,Lansingerland,Zuid-Holland,10,52.0415113,4.5039862,Postbus
866,2665,Bleiswijk,BLEISWYK,Lansingerland,Zuid-Holland,10,52.0094799,4.5384196,Adres + Postbus
867,2670,Naaldwijk,NAALDWYK,Westland,Zuid-Holland,174,51.9861935,4.206201,Postbus
871,2675,Honselersdijk,HONSELERSDYK,Westland,Zuid-Holland,174,52,4.233333,Adres + Postbus
872,2676,Maasdijk,,Westland,Zuid-Holland,174,51.9593107,4.2144274,Adres
873,2678,De Lier,,Westland,Zuid-Holland,174,51.9744488,4.2511633,Adres + Postbus
874,2680,Monster,,Westland,Zuid-Holland,174,51.9861935,4.206201,Postbus
876,2684,Ter Heijde,TER HEYDE,Westland,Zuid-Holland,174,52.0299823,4.1677757,Adres
877,2685,Poeldijk,POELDYK,Westland,Zuid-Holland,174,52.0230405,4.2187772,Adres + Postbus
878,2690,'s-Gravenzande,S GRAVENZANDE,Westland,Zuid-Holland,174,51.9861935,4.206201,Postbus
883,2700,Zoetermeer,,Zoetermeer,Zuid-Holland,79,52.0383667,4.4874537,Postbus
903,2730,Benthuizen,,Rijnwoude,Zuid-Holland,79,52.0751101,4.5445181,Postbus
905,2735,Gelderswoude,,Zoeterwoude,Zuid-Holland,79,52.0909366,4.5310052,Adres
906,2740,Waddinxveen,,Waddinxveen,Zuid-Holland,182,52.0431934,4.6579012,Adres + Postbus
910,2750,Moerkapelle,,Zuidplas,Zuid-Holland,79,52.0734433,4.6593099,Postbus
913,2760,Zevenhuizen,,Zuidplas,Zuid-Holland,180,52.0091493,4.5671016,Postbus
915,2770,Boskoop,,Boskoop,Zuid-Holland,172,52.0704702,4.6374051,Postbus
917,2800,Gouda,,Gouda,Zuid-Holland,182,52.012556,4.708884,Adres + Postbus
927,2810,Reeuwijk,REEUWYK,Reeuwijk,Zuid-Holland,182,52.0428988,4.7211643,Postbus
929,2820,Stolwijk,STOLWYK,Vlist,Zuid-Holland,182,51.8759325,4.5377609,Postbus
931,2825,Berkenwoude,,Bergambacht,Zuid-Holland,182,51.945159,4.7068241,Adres
932,2830,Gouderak,,Ouderkerk,Zuid-Holland,182,51.985302,4.6767453,Postbus
934,2840,Moordrecht,,Zuidplas,Zuid-Holland,182,52.016185,4.6603333,Postbus
936,2850,Haastrecht,,Vlist,Zuid-Holland,182,51.8802621,4.5363699,Postbus
938,2855,Vlist,,Vlist,Zuid-Holland,182,51.9809619,4.8171551,Adres
939,2860,Bergambacht,,Bergambacht,Zuid-Holland,182,51.9318964,4.7827097,Postbus
941,2865,Ammerstol,,Bergambacht,Zuid-Holland,182,51.9273544,4.8077745,Adres
942,2870,Schoonhoven,,Schoonhoven,Zuid-Holland,182,51.9454225,4.8519993,Postbus
944,2900,Capelle aan den IJssel,CAPELLE AD YSSEL;Capelle a/d Ijssel,Capelle aan den IJssel,Zuid-Holland,10,51.9224986,4.5629844,Postbus
954,2910,Nieuwerkerk aan den IJssel,NIEUWERKERK YSSEL,Zuidplas,Zuid-Holland,180,51.9678752,4.6170521,Postbus
959,2920,Krimpen aan den IJssel,KRIMPEN AD YSSEL;Krimpen a/d IJssel,Krimpen aan den IJssel,Zuid-Holland,180,51.924447,4.6044957,Postbus
966,2930,Krimpen aan de Lek,,Nederlek,Zuid-Holland,180,51.9118641,4.6425962,Postbus
968,2935,Ouderkerk aan den IJssel,OUDERKERK AD YSSEL,Ouderkerk,Zuid-Holland,180,51.9324481,4.6371786,Adres + Postbus
969,2940,Lekkerkerk,,Nederlek,Zuid-Holland,180,51.9227856,4.6854968,Postbus
971,2950,Alblasserdam,,Alblasserdam,Zuid-Holland,78,51.8505717,4.6795684,Postbus
976,2957,Nieuw-Lekkerland,NIEUW LEKKERLAND,Nieuw-Lekkerland,Zuid-Holland,184,51.8872759,4.6858964,Adres + Postbus
977,2959,Streefkerk,,Liesveld,Zuid-Holland,184,51.8998914,4.74488,Adres
978,2960,Kinderdijk,,Nieuw-Lekkerland,Zuid-Holland,78,51.8177474,3.9801001,Postbus
980,2964,Groot-Ammers,GROOT AMMERS,Liesveld,Zuid-Holland,184,51.9246393,4.8253021,Adres + Postbus
981,2965,Nieuwpoort,,Liesveld,Zuid-Holland,184,51.9347419,4.8692024,Adres
982,2967,Langerak,,Liesveld,Zuid-Holland,184,51.9323151,4.8776587,Adres
983,2968,Waal,,Liesveld,Zuid-Holland,184,51.9381851,4.9009372,Adres
984,2969,Oud-Alblas,OUD ALBLAS,Graafstroom,Zuid-Holland,184,51.8569169,4.7034111,Adres
985,2970,Bleskensgraaf,BLESKENSGRAAF CA,Graafstroom,Zuid-Holland,184,51.8708591,4.7805545,Postbus
987,2973,Molenaarsgraaf,,Graafstroom,Zuid-Holland,184,51.8776962,4.8287892,Adres
988,2974,Brandwijk,BRANDWYK,Graafstroom,Zuid-Holland,184,51.8895768,4.813418,Adres
989,2975,Ottoland,,Graafstroom,Zuid-Holland,184,51.8908145,4.8615678,Adres
990,2977,Goudriaan,,Graafstroom,Zuid-Holland,183,51.9025271,4.9006544,Adres + Postbus
991,2980,Ridderkerk,,Ridderkerk,Zuid-Holland,180,51.8718157,4.5996739,Postbus
1001,2990,Barendrecht,,Barendrecht,Zuid-Holland,180,51.8560474,4.5370848,Postbus
1006,2995,Heerjansdam,,Zwijndrecht,Zuid-Holland,78,51.8359184,4.5656402,Adres + Postbus
1007,3000,Rotterdam,,Rotterdam,Zuid-Holland,10,51.926789,4.421901,Postbus
1082,3100,Schiedam,,Schiedam,Zuid-Holland,10,51.9127229,4.4007511,Postbus
1100,3130,Vlaardingen,,Vlaardingen,Zuid-Holland,10,51.9059,4.34531,Postbus
1109,3140,Maassluis,,Maassluis,Zuid-Holland,10,51.9861935,4.206201,Postbus
1117,3150,Hoek van Holland,,Rotterdam,Zuid-Holland,174,51.9907783,4.1296864,Postbus
1119,3155,Maasland,,Midden-Delfland,Zuid-Holland,10,51.9350968,4.2728618,Adres + Postbus
1120,3160,Rhoon,,Albrandswaard,Zuid-Holland,10,51.857971,4.4722296,Postbus
1124,3170,Poortugaal,,Albrandswaard,Zuid-Holland,10,51.9037688,4.4041475,Postbus
1130,3190,Hoogvliet,Hoogvliet Rotterdam,Rotterdam,Zuid-Holland,10,51.8631527,4.3594075,Postbus
1135,3195,Pernis,Rotterdam Pernis,Rotterdam,Zuid-Holland,10,51.8887319,4.3890747,Adres + Postbus
1136,3196,Vondelingenplaat,Vondelingenplaat Rotterdam;Vondelingenplaat Rt,Rotterdam,Zuid-Holland,10,51.8869,4.33,Adres
1137,3197,Botlek,Botlek Rotterdam,Rotterdam,Zuid-Holland,10,51.8749478,4.282547,Adres
1138,3198,Europoort,Europoort Rotterdam,Rotterdam,Zuid-Holland,181,51.943333,4.1425,Adres
1139,3199,Maasvlakte,Maasvlakte Rotterdam,Rotterdam,Zuid-Holland,181,51.962398,4.0567997,Adres
1140,3200,Spijkenisse,SPYKENISSE,Spijkenisse,Zuid-Holland,181,51.847626,4.327577,Postbus
1149,3209,Hekelingen,,Spijkenisse,Zuid-Holland,181,51.8254264,4.3447884,Adres
1150,3211,Geervliet,,Bernisse,Zuid-Holland,181,51.8613451,4.2608302,Adres
1151,3212,Simonshaven,,Bernisse,Zuid-Holland,181,51.821815,4.2898095,Adres
1152,3214,Zuidland,,Bernisse,Zuid-Holland,181,51.8220118,4.2592753,Adres + Postbus
1153,3216,Abbenbroek,,Bernisse,Zuid-Holland,181,51.84872,4.2428247,Adres
1154,3218,Heenvliet,,Bernisse,Zuid-Holland,181,51.8651667,4.2431951,Adres
1155,3220,Hellevoetsluis,,Hellevoetsluis,Zuid-Holland,181,51.8302409,4.1434108,Postbus
1161,3227,Oudenhoorn,,Bernisse,Zuid-Holland,181,51.8272731,4.1915346,Adres
1162,3230,Brielle,,Brielle,Zuid-Holland,181,51.9047236,4.1678526,Postbus
1165,3233,Oostvoorne,,Westvoorne,Zuid-Holland,181,51.9113563,4.0946488,Adres + Postbus
1166,3234,Tinte,,Westvoorne,Zuid-Holland,181,51.8864771,4.1355882,Adres
1167,3235,Rockanje,,Westvoorne,Zuid-Holland,181,51.8719333,4.0683056,Adres + Postbus
1168,3237,Vierpolders,,Brielle,Zuid-Holland,181,51.8790302,4.179654,Adres
1169,3238,Zwartewaal,,Brielle,Zuid-Holland,181,51.8835357,4.2200928,Adres
1170,3240,Middelharnis,,Middelharnis,Zuid-Holland,187,51.7610442,4.1686425,Postbus
1172,3243,Stad aan 't Haringvliet,STAD AH HARINGVL,Middelharnis,Zuid-Holland,187,51.7385339,4.2412443,Adres
1173,3244,Nieuwe-Tonge,NIEUWE TONGE,Middelharnis,Zuid-Holland,187,51.7137696,4.1648577,Adres + Postbus
1174,3245,Sommelsdijk,SOMMELSDYK,Middelharnis,Zuid-Holland,187,51.7510552,4.1492498,Adres
1175,3247,Dirksland,,Dirksland,Zuid-Holland,187,51.7506355,4.0920971,Adres + Postbus
1176,3248,Melissant,,Dirksland,Zuid-Holland,187,51.7700572,4.0707187,Adres + Postbus
1177,3249,Herkingen,,Dirksland,Zuid-Holland,187,51.7102808,4.0879282,Adres
1178,3250,Stellendam,,Goedereede,Zuid-Holland,187,51.8122906,4.0230099,Postbus
1180,3252,Goedereede,,Goedereede,Zuid-Holland,187,51.8180728,3.9773845,Adres + Postbus
1181,3253,Ouddorp,,Goedereede,Zuid-Holland,187,51.8090723,3.9352037,Adres + Postbus
1182,3255,Oude-Tonge,OUDE TONGE,Oostflakkee,Zuid-Holland,187,51.6909767,4.2126832,Adres + Postbus
1183,3256,Achthuizen,,Oostflakkee,Zuid-Holland,187,51.6874623,4.280891,Adres
1184,3257,Ooltgensplaat,,Oostflakkee,Zuid-Holland,187,51.682876,4.330104,Adres + Postbus
1185,3258,Den Bommel,,Oostflakkee,Zuid-Holland,187,51.7152812,4.2788659,Adres + Postbus
1186,3260,Oud-Beijerland,OUD BEYERLAND,Oud-Beijerland,Zuid-Holland,186,51.8202877,4.4018179,Postbus
1190,3264,Nieuw-Beijerland,NIEUW BEYERLAND,Korendijk,Zuid-Holland,186,51.8116663,4.3417332,Adres + Postbus
1191,3265,Piershil,,Korendijk,Zuid-Holland,186,51.796384,4.315958,Adres + Postbus
1192,3267,Goudswaard,,Korendijk,Zuid-Holland,186,51.7935836,4.277584,Adres
1193,3270,Mijnsheerenland,MYNSHEERENLAND,Binnenmaas,Zuid-Holland,186,51.8016905,4.4615328,Postbus
1195,3273,Westmaas,,Binnenmaas,Zuid-Holland,186,51.7869707,4.475239,Adres
1196,3274,Heinenoord,,Binnenmaas,Zuid-Holland,186,51.827373,4.4833706,Adres + Postbus
1197,3280,Numansdorp,,Cromstrijen,Zuid-Holland,186,51.7302535,4.4389921,Postbus
1199,3284,Zuid-Beijerland,ZUID BEYERLAND,Korendijk,Zuid-Holland,186,51.7507077,4.3690917,Adres + Postbus
1200,3286,Klaaswaal,,Cromstrijen,Zuid-Holland,186,51.771621,4.446888,Adres + Postbus
1201,3290,Strijen,STRYEN,Strijen,Zuid-Holland,78,51.7502159,4.5541348,Postbus
1203,3292,Strijensas,STRYENSAS,Strijen,Zuid-Holland,78,51.7145472,4.5858807,Adres
1204,3293,Mookhoek,,Strijen,Zuid-Holland,78,51.7520703,4.5957148,Adres
1205,3295,'s-Gravendeel,S GRAVENDEEL,Binnenmaas,Zuid-Holland,78,51.7792843,4.6180902,Adres + Postbus
1206,3297,Puttershoek,,Binnenmaas,Zuid-Holland,78,51.8053785,4.5664733,Adres + Postbus
1207,3299,Maasdam,,Binnenmaas,Zuid-Holland,78,51.7876295,4.5566676,Adres + Postbus
1208,3300,Dordrecht,,Dordrecht,Zuid-Holland,78,51.811791,4.666947,Postbus
1221,3330,Zwijndrecht,ZWYNDRECHT,Zwijndrecht,Zuid-Holland,78,51.8177184,4.6475238,Postbus
1228,3340,Hendrik-Ido-Ambacht,HENDR IDO AMBACHT;Hendrik Ido Ambacht,Hendrik-Ido-Ambacht,Zuid-Holland,78,51.8448385,4.6379611,Postbus
1233,3350,Papendrecht,,Papendrecht,Zuid-Holland,78,51.8266761,4.6836174,Postbus
1240,3360,Sliedrecht,,Sliedrecht,Zuid-Holland,184,51.8239636,4.7725387,Postbus
1245,3366,Wijngaarden,WYNGAARDEN,Graafstroom,Zuid-Holland,184,51.8449757,4.7639776,Adres
1246,3370,Hardinxveld-Giessendam,HARDINXV GIESSEND,Hardinxveld-Giessendam,Zuid-Holland,184,51.8267159,4.8379184,Adres + Postbus
1250,3380,Giessenburg,,Giessenlanden,Zuid-Holland,184,52.1483652,4.6770504,Postbus
1252,3400,IJsselstein,YSSELSTEIN,IJsselstein,Utrecht,30,52.02848,5.062803,Postbus
1257,3405,Benschop,,Lopik,Utrecht,348,52.0073727,4.9803792,Adres
1258,3410,Lopik,,Lopik,Utrecht,348,52.0097032,5.0529213,Postbus
1260,3412,Lopikerkapel,,Lopik,Utrecht,30,51.9919862,5.0458469,Adres
1261,3413,Jaarsveld,,Lopik,Utrecht,348,51.9695221,4.9774626,Adres
1262,3415,Polsbroek,,Lopik,Utrecht,182,51.9765277,4.850949,Adres
1263,3417,Montfoort,,Montfoort,Utrecht,348,52.0362127,4.9518586,Adres + Postbus
1264,3420,Oudewater,,Oudewater,Utrecht,348,52.020443,4.8748371,Postbus
1266,3425,Snelrewaard,,Oudewater,Utrecht,348,52.0282894,4.9001637,Adres
1267,3430,Nieuwegein,,Nieuwegein,Utrecht,30,52.025367,5.0918255,Adres + Postbus
1277,3440,Woerden,,Woerden,Utrecht,348,52.0870197,4.8821429,Postbus
1287,3450,Vleuten,,Utrecht,Utrecht,30,52.106882,5.0109262,Postbus
1290,3453,De Meern,,Utrecht,Utrecht,30,52.0822001,5.01236,Adres
1292,3455,Haarzuilens,,Utrecht,Utrecht,30,52.1211155,4.998104,Adres
1293,3460,Linschoten,,Montfoort,Utrecht,348,52.0556292,4.9049101,Postbus
1295,3464,Papekop,,Oudewater,Utrecht,348,52.0459814,4.8532079,Adres
1296,3465,Driebruggen,,Reeuwijk,Zuid-Holland,348,52.0440942,4.8003904,Adres
1297,3466,Waarder,,Reeuwijk,Zuid-Holland,348,52.0615017,4.8200232,Adres
1298,3467,Hekendorp,,Oudewater,Utrecht,182,52.014957,4.8100511,Adres
1299,3470,Kamerik,,Woerden,Utrecht,348,52.1144343,4.8903322,Postbus
1301,3474,Zegveld,,Woerden,Utrecht,348,52.1116787,4.8439706,Adres
1302,3480,Harmelen,,Woerden,Utrecht,348,52.0878577,4.9645696,Postbus
1304,3500,Utrecht,,Utrecht,Utrecht,30,52.0927337,5.1493681,Adres + Postbus
1357,3600,Maarssen,Maarssenbroek,Maarssen,Utrecht,346,52.1361852,5.0318734,Postbus
1366,3611,Oud-Zuilen,OUD ZUILEN,Maarssen,Utrecht,30,52.1280085,5.0703357,Adres
1367,3612,Tienhoven,,Maarssen,Utrecht,346,52.1667429,5.082587,Adres
1368,3615,Westbroek,,De Bilt,Utrecht,346,52.1515898,5.1279711,Adres
1369,3620,Breukelen,,Breukelen,Utrecht,346,52.1706397,4.9906837,Postbus
1371,3625,Breukeleveen,,Wijdemeren,Noord-Holland,35,52.1758164,5.0706833,Adres
1372,3626,Nieuwer-Ter-Aa,NIEUWER TER AA,Breukelen,Utrecht,294,52.1908875,4.9819382,Adres
1373,3628,Kockengen,,Breukelen,Utrecht,346,52.1482984,4.9505617,Adres
1374,3630,Nieuwersluis,,Loenen,Utrecht,294,52.1961298,5.0071018,Postbus
1376,3632,Loenen aan de Vecht,LOENEN AD VECHT,Loenen,Utrecht,294,52.2110379,5.0231899,Adres + Postbus
1377,3633,Vreeland,,Loenen,Utrecht,294,52.2303508,5.0284187,Adres
1378,3634,Loenersloot,,Loenen,Utrecht,294,52.2294321,4.9993569,Adres
1379,3640,Mijdrecht,MYDRECHT,De Ronde Venen,Utrecht,297,52.0752405,5.1180832,Postbus
1383,3645,Vinkeveen,,De Ronde Venen,Utrecht,297,52.2150916,4.9348068,Adres + Postbus
1384,3646,Waverveen,,De Ronde Venen,Utrecht,297,52.2211049,4.8987891,Adres
1385,3648,Wilnis,,De Ronde Venen,Utrecht,297,52.1956103,4.9041875,Adres + Postbus
1386,3651,Woerdense Verlaat,,Nieuwkoop,Zuid-Holland,172,52.1473613,4.8525959,Adres
1389,3700,Zeist,,Zeist,Utrecht,30,52.075864,5.2646312,Postbus
1399,3710,Austerlitz,,Zeist,Utrecht,343,52.0950885,5.0133749,Postbus
1401,3712,Huis ter Heide,,Zeist,Utrecht,30,52.1119467,5.2539372,Adres
1402,3720,Bilthoven,,De Bilt,Utrecht,30,52.1294004,5.2065062,Postbus
1406,3730,De Bilt,,De Bilt,Utrecht,30,52.0970458,5.1472408,Postbus
1409,3734,Den Dolder,,Zeist,Utrecht,30,52.1390592,5.2428279,Adres + Postbus
1410,3735,Bosch en Duin,,Zeist,Utrecht,30,52.1230239,5.2421204,Adres
1411,3737,Groenekan,,De Bilt,Utrecht,346,52.1235451,5.1526802,Adres
1412,3738,Maartensdijk,MAARTENSDYK,De Bilt,Utrecht,346,52.1594706,5.1670032,Adres + Postbus
1413,3739,Hollandsche Rading,,De Bilt,Utrecht,35,52.1770657,5.1853519,Adres
1414,3740,Baarn,,Baarn,Utrecht,35,52.2111076,5.2916122,Postbus
1419,3749,Lage Vuursche,,Baarn,Utrecht,35,52.1803305,5.2150904,Adres
1420,3750,Bunschoten-Spakenburg,Bunschoten Spakenburg;Bunschoten,Bunschoten,Utrecht,33,52.243238,5.3741996,Postbus
1423,3754,Eemdijk,EEMDYK,Bunschoten,Utrecht,33,52.2540881,5.3304132,Adres
1424,3755,Eemnes,,Eemnes,Utrecht,35,52.2537461,5.2612754,Adres + Postbus
1425,3760,Soest,,Soest,Utrecht,35,52.1838726,5.3017128,Postbus
1433,3769,Soesterberg,,Soest,Utrecht,346,52.1210918,5.2853468,Adres + Postbus
1434,3770,Barneveld,,Barneveld,Gelderland,342,51.9598667,6.2046774,Postbus
1438,3774,Kootwijkerbroek,KOOTWYKERBROEK,Barneveld,Gelderland,342,52.150776,5.6671862,Adres
1439,3775,Kootwijk,KOOTWYK,Barneveld,Gelderland,577,52.1846413,5.7704693,Adres
1440,3776,Stroe,,Barneveld,Gelderland,342,52.1862224,5.6939179,Adres
1441,3780,Voorthuizen,,Barneveld,Gelderland,342,52.1861021,5.6071369,Postbus
1443,3784,Terschuur,,Barneveld,Gelderland,342,52.1647835,5.5149033,Adres
1444,3785,Zwartebroek,,Barneveld,Gelderland,342,52.1791133,5.5031896,Adres
1445,3790,Achterveld,,Leusden,Utrecht,3425,52.2133968,4.9315809,Postbus
1448,3794,De Glind,,Barneveld,Gelderland,342,52.1194102,5.5085534,Adres
1449,3800,Amersfoort,,Amersfoort,Utrecht,33,52.1566784,5.384757,Postbus
1466,3828,Hoogland,,Amersfoort,Utrecht,33,52.1842738,5.3746083,Adres + Postbus
1467,3829,Hooglanderveen,,Amersfoort,Utrecht,33,52.1893644,5.4283866,Adres
1468,3830,Leusden,,Leusden,Utrecht,33,52.1306041,5.4291558,Postbus
1473,3835,Stoutenburg,,Amersfoort,Utrecht,33,52.1540746,5.4325516,Adres
1474,3836,Stoutenburg Noord,Stoutenburg-Noord,Amersfoort,Utrecht,33,52.158056,5.464167,Adres
1475,3840,Harderwijk,HARDERWYK,Harderwijk,Gelderland,341,52.34788,5.6162,Postbus
1484,3849,Hierden,,Harderwijk,Gelderland,341,52.3567091,5.676924,Adres
1485,3850,Ermelo,,Ermelo,Gelderland,341,52.3010177,5.6174184,Postbus
1489,3860,Nijkerk,NYKERK,Nijkerk,Gelderland,33,52.2261723,5.4828346,Adres + Postbus
1493,3864,Nijkerkerveen,NYKERKERVEEN,Nijkerk,Gelderland,33,52.195124,5.4665941,Adres
1494,3870,Hoevelaken,,Nijkerk,Gelderland,33,52.168694,5.4484583,Postbus
1496,3880,Putten,,Putten,Gelderland,341,52.2616146,5.6075467,Postbus
1499,3886,Garderen,,Barneveld,Gelderland,577,52.2329632,5.7148144,Adres + Postbus
1500,3888,Uddel,,Apeldoorn,Gelderland,577,52.2577273,5.7824206,Adres + Postbus
1501,3890,Zeewolde,,Zeewolde,Flevoland,36,52.3318841,5.5447782,Postbus
1511,3900,Veenendaal,,Veenendaal,Utrecht,318,52.0274473,5.5591249,Postbus
1519,3910,Rhenen,,Rhenen,Utrecht,317,51.9617268,5.567923,Postbus
1522,3920,Elst,,Rhenen,Utrecht,318,51.9822999,5.507013,Postbus
1525,3925,Scherpenzeel,,Scherpenzeel,Gelderland,33,52.0789297,5.4880645,Adres + Postbus
1526,3927,Renswoude,,Renswoude,Utrecht,318,52.0746607,5.5381732,Adres + Postbus
1527,3930,Woudenberg,,Woudenberg,Utrecht,33,52.0813686,5.414863,Postbus
1529,3940,Doorn,,Utrechtse Heuvelrug,Utrecht,343,52.0314177,5.3386133,Postbus
1531,3945,Cothen,,Wijk bij Duurstede,Utrecht,343,51.9981708,5.3080065,Adres
1532,3947,Langbroek,,Wijk bij Duurstede,Utrecht,343,52.011957,5.3269077,Adres
1533,3950,Maarn,,Utrechtse Heuvelrug,Utrecht,343,52.0656472,5.3751391,Postbus
1535,3953,Maarsbergen,,Utrechtse Heuvelrug,Utrecht,343,52.0581194,5.4054317,Adres
1536,3956,Leersum,,Utrechtse Heuvelrug,Utrecht,343,52.0120583,5.4295484,Adres + Postbus
1537,3958,Amerongen,,Utrechtse Heuvelrug,Utrecht,343,52.0025516,5.4604852,Adres + Postbus
1538,3959,Overberg,,Utrechtse Heuvelrug,Utrecht,343,52.039517,5.4982362,Adres
1539,3960,Wijk bij Duurstede,WYK BY DUURSTEDE,Wijk bij Duurstede,Utrecht,343,51.9727537,5.3454837,Postbus
1542,3970,Driebergen-Rijsenburg,,Utrechtse Heuvelrug,Utrecht,343,52.0517336,5.2828748,Postbus
1545,3980,Bunnik,,Bunnik,Utrecht,30,52.0552506,5.226153,Postbus
1547,3984,Odijk,,Bunnik,Utrecht,30,52.0521446,5.2356248,Adres
1548,3985,Werkhoven,,Bunnik,Utrecht,343,52.0232139,5.2437838,Adres
1549,3989,Ossenwaard,,Vianen,Utrecht,347,51.991944,5.137222,Adres
1550,3990,Houten,,Houten,Utrecht,30,52.0345902,5.1670598,Postbus
1556,3997,'t Goy,T GOY,Houten,Utrecht,30,52.0016048,5.2219072,Adres
1557,3998,Schalkwijk,SCHALKWYK,Houten,Utrecht,30,51.9951885,5.187845,Adres
1558,3999,Tull en 't Waal,TULL EN T WAAL,Houten,Utrecht,30,52.0013657,5.1336144,Adres
1559,4000,Tiel,,Tiel,Gelderland,344,51.8857675,5.4342686,Postbus
1567,4010,Zoelen,,Buren,Gelderland,344,52.0498426,5.6665945,Postbus
1569,4012,Kerk-Avezaath,KERK AVEZAATH TIEL,Tiel,Gelderland,344,51.8964151,5.3833696,Adres
1570,4013,Kapel-Avezaath,KAPEL AVEZAATH,Tiel,Gelderland,344,51.8802626,5.3740616,Adres
1571,4014,Wadenoijen,WADENOYEN,Tiel,Gelderland,344,51.8741325,5.3728726,Adres
1574,4020,Maurik,,Buren,Gelderland,344,51.9623346,5.4228153,Postbus
1577,4024,Eck en Wiel,,Buren,Gelderland,344,51.9703135,5.4566052,Adres
1578,4030,Ingen,,Buren,Gelderland,344,51.9598754,5.4841425,Postbus
1580,4032,Ommeren,,Buren,Gelderland,344,51.94795,5.493864,Adres
1581,4033,Lienden,,Buren,Gelderland,344,51.9475664,5.5183547,Adres + Postbus
1582,4040,Kesteren,,Neder-Betuwe,Gelderland,488,51.8784375,5.4111072,Postbus
1584,4043,Opheusden,,Neder-Betuwe,Gelderland,488,51.9330254,5.629707,Adres + Postbus
1585,4050,Ochten,,Neder-Betuwe,Gelderland,344,51.8781289,5.4111066,Postbus
1587,4053,IJzendoorn,YZENDOORN,Neder-Betuwe,Gelderland,344,51.9069217,5.5329587,Adres
1588,4054,Echteld,,Neder-Betuwe,Gelderland,344,51.9090624,5.4987853,Adres + Postbus
1589,4060,Ophemert,,Neerijnen,Gelderland,344,51.8464741,5.3901313,Postbus
1591,4062,Zennewijnen,ZENNEWYNEN,Tiel,Gelderland,344,51.8581307,5.4121898,Adres
1592,4063,Heesselt,,Neerijnen,Gelderland,344,51.8134984,5.3471298,Adres
1593,4064,Varik,,Neerijnen,Gelderland,344,51.8231362,5.368234,Adres + Postbus
1594,4100,Culemborg,,Culemborg,Gelderland,345,51.9579813,5.2261052,Postbus
1602,4110,Zoelmond,,Buren,Gelderland,345,51.8794241,5.423533,Postbus
1604,4112,Beusichem,,Buren,Gelderland,345,51.9476422,5.2879361,Adres + Postbus
1605,4115,Asch,,Buren,Gelderland,345,51.9304493,5.310839,Adres
1606,4116,Buren,,Buren,Gelderland,344,51.9103889,5.3340584,Adres + Postbus
1607,4117,Erichem,,Buren,Gelderland,344,51.8999593,5.3486729,Adres
1608,4119,Ravenswaaij,RAVENSWAAY,Buren,Gelderland,345,51.95201,5.3271725,Adres
1609,4121,Everdingen,,Vianen,Utrecht,347,51.9651631,5.1556903,Adres
1610,4122,Zijderveld,ZYDERVELD,Vianen,Utrecht,345,51.9434316,5.1390481,Adres
1611,4124,Hagestein,,Vianen,Utrecht,347,51.9806962,5.1222922,Adres
1612,4126,Hei- en Boeicop,HEI EN BOEICOP,Zederik,Zuid-Holland,345,51.9446455,5.0819124,Adres
1613,4128,Lexmond,,Zederik,Zuid-Holland,347,51.9633397,5.0363307,Adres
1614,4130,Vianen,,Vianen,Utrecht,347,51.9924967,5.0928772,Postbus
1618,4140,Leerdam,,Leerdam,Zuid-Holland,345,51.8909084,5.0895432,Postbus
1622,4145,Schoonrewoerd,,Leerdam,Zuid-Holland,345,51.9220123,5.1184369,Adres
1623,4147,Asperen,,Lingewaal,Gelderland,345,51.8812375,5.1127984,Adres + Postbus
1624,4151,Acquoy,,Geldermalsen,Gelderland,345,51.8794348,5.1346229,Adres
1625,4152,Rhenoy,,Geldermalsen,Gelderland,345,51.8824694,5.1547505,Adres
1626,4153,Beesd,,Geldermalsen,Gelderland,345,51.8874751,5.1940016,Adres + Postbus
1627,4155,Gellicum,,Geldermalsen,Gelderland,345,51.8769615,5.1557083,Adres
1628,4156,Rumpt,,Geldermalsen,Gelderland,345,51.8829567,5.1797875,Adres
1629,4157,Enspijk,ENSPYK,Geldermalsen,Gelderland,345,51.8834486,5.2113753,Adres
1630,4158,Deil,,Geldermalsen,Gelderland,345,51.8852281,5.2444122,Adres
1631,4161,Heukelum,,Lingewaal,Gelderland,345,51.8715098,5.0740528,Adres
1632,4163,Oosterwijk,OOSTERWYK,Leerdam,Zuid-Holland,345,51.878744,5.0786707,Adres
1633,4170,Herwijnen,HERWYNEN,Lingewaal,Gelderland,418,51.8791273,5.4075345,Postbus
1635,4174,Hellouw,,Neerijnen,Gelderland,418,51.8277306,5.1774625,Adres
1636,4175,Haaften,,Neerijnen,Gelderland,418,51.8176296,5.2116242,Adres + Postbus
1637,4176,Tuil,,Neerijnen,Gelderland,418,51.8226459,5.2398093,Adres
1638,4180,Waardenburg,,Neerijnen,Gelderland,418,51.8328712,5.2799598,Postbus
1640,4182,Neerijnen,NEERYNEN,Neerijnen,Gelderland,418,51.8319019,5.2793557,Adres
1641,4184,Opijnen,OPYNEN,Neerijnen,Gelderland,418,51.826866,5.2979789,Adres
1642,4185,Est,,Neerijnen,Gelderland,345,51.8519987,5.3127915,Adres
1643,4190,Geldermalsen,,Geldermalsen,Gelderland,345,51.8817861,5.2824223,Postbus
1645,4194,Meteren,,Geldermalsen,Gelderland,345,51.863947,5.2813551,Adres
1646,4196,Tricht,,Geldermalsen,Gelderland,345,51.8901708,5.2655795,Adres + Postbus
1647,4197,Buurmalsen,,Geldermalsen,Gelderland,345,51.8927468,5.2935555,Adres
1648,4200,Gorinchem,,Gorinchem,Zuid-Holland,183,51.8294989,4.9743846,Postbus
1656,4209,Schelluinen,,Giessenlanden,Zuid-Holland,183,51.8419281,4.9253392,Adres
1657,4211,Spijk,Spijk Lingewaal,Lingewaal,Gelderland,316,51.8557688,5.0077464,Adres
1659,4213,Dalem,,Gorinchem,Zuid-Holland,183,51.8264014,5.0070217,Adres
1660,4214,Vuren,,Lingewaal,Gelderland,183,51.8244417,5.0477201,Adres + Postbus
1661,4221,Hoogblokland,,Giessenlanden,Zuid-Holland,183,51.8744633,4.9753367,Adres
1662,4223,Hoornaar,,Giessenlanden,Zuid-Holland,183,51.8818928,4.9446089,Adres + Postbus
1663,4225,Noordeloos,,Giessenlanden,Zuid-Holland,183,51.9041025,4.944463,Adres
1664,4230,Meerkerk,,Zederik,Zuid-Holland,183,52.3004603,4.9667026,Postbus
1666,4233,Ameide,,Zederik,Zuid-Holland,183,51.9543595,4.9624281,Adres
1668,4240,Arkel,,Giessenlanden,Zuid-Holland,183,52.0662691,4.5306763,Postbus
1670,4243,Nieuwland,,Zederik,Zuid-Holland,183,51.9011115,5.0150939,Adres
1671,4245,Leerbroek,,Zederik,Zuid-Holland,345,51.9085296,5.0509421,Adres
1672,4247,Kedichem,,Leerdam,Zuid-Holland,183,51.859547,5.0500158,Adres
1673,4250,Werkendam,,Werkendam,Noord-Brabant,183,51.8065547,4.8967858,Postbus
1675,4254,Sleeuwijk,SLEEUWYK,Werkendam,Noord-Brabant,183,51.810891,4.9511788,Adres + Postbus
1676,4255,Nieuwendijk,NIEUWENDYK,Werkendam,Noord-Brabant,183,51.7704114,4.9219419,Adres + Postbus
1677,4260,Wijk en Aalburg,WYK EN AALBURG,Aalburg,Noord-Brabant,416,51.7606454,5.1310032,Postbus
1679,4264,Veen,,,Noord-Brabant,416,51.7793516,5.1077955,Adres + Postbus
1680,4265,Genderen,,Aalburg,Noord-Brabant,416,51.7359282,5.0894323,Adres
1681,4266,Eethen,,Aalburg,Noord-Brabant,416,51.7330603,5.0525521,Adres
1682,4267,Drongelen,,Aalburg,Noord-Brabant,416,51.715221,5.0535523,Adres
1683,4268,Meeuwen,,Aalburg,Noord-Brabant,416,51.728317,5.0090627,Adres
1684,4269,Babylonienbroek,BABYLONIENBROEK,Aalburg,Noord-Brabant,416,51.75,5.05,Adres
1685,4271,Dussen,,Werkendam,Noord-Brabant,416,51.7300853,4.9636688,Adres
1686,4273,Hank,,Werkendam,Noord-Brabant,162,51.734558,4.8959349,Adres
1687,4280,Andel,,Woudrichem,Noord-Brabant,183,51.6892054,5.0452106,Postbus
1689,4283,Giessen,,Woudrichem,Noord-Brabant,183,51.7906305,5.030891,Adres
1691,4285,Woudrichem,,Woudrichem,Noord-Brabant,183,51.8170069,5.0037508,Adres + Postbus
1692,4286,Almkerk,,Woudrichem,Noord-Brabant,183,51.7719653,4.9609986,Adres + Postbus
1693,4287,Waardhuizen,,Woudrichem,Noord-Brabant,183,51.7768855,5.0074388,Adres
1694,4288,Uitwijk,UITWYK,Woudrichem,Noord-Brabant,183,51.7856212,5.0071044,Adres
1695,4300,Zierikzee,,Schouwen-Duiveland,Zeeland,111,51.6471762,3.9188477,Postbus
1699,4305,Ouwerkerk,,Schouwen-Duiveland,Zeeland,111,51.6260288,3.9834204,Adres
1700,4306,Nieuwerkerk,,Schouwen-Duiveland,Zeeland,111,51.6496411,4.0004632,Adres
1701,4307,Oosterland,,Schouwen-Duiveland,Zeeland,111,51.6501195,4.0375444,Adres
1702,4308,Sirjansland,,Schouwen-Duiveland,Zeeland,111,51.6762875,4.0312695,Adres
1703,4310,Bruinisse,,Schouwen-Duiveland,Zeeland,111,51.6237543,4.1903715,Postbus
1705,4315,Dreischor,,Schouwen-Duiveland,Zeeland,111,51.689295,3.9831787,Adres
1706,4316,Zonnemaire,,Schouwen-Duiveland,Zeeland,111,51.7130521,3.9518196,Adres
1707,4317,Noordgouwe,,Schouwen-Duiveland,Zeeland,111,51.6934407,3.9382807,Adres
1708,4318,Brouwershaven,,Schouwen-Duiveland,Zeeland,111,51.7253972,3.9121993,Adres + Postbus
1709,4321,Kerkwerve,,Schouwen-Duiveland,Zeeland,111,51.685601,3.8995116,Adres
1710,4322,Scharendijke,SCHARENDYKE,Schouwen-Duiveland,Zeeland,111,51.7357017,3.8446523,Adres + Postbus
1711,4323,Ellemeet,,Schouwen-Duiveland,Zeeland,111,51.7297274,3.8158588,Adres
1712,4325,Renesse,,Schouwen-Duiveland,Zeeland,111,51.73129,3.771445,Adres
1713,4326,Noordwelle,,Schouwen-Duiveland,Zeeland,111,51.7180023,3.7923999,Adres
1714,4327,Serooskerke,SEROOSKERKE WALCH,Schouwen-Duiveland,Zeeland,118,51.7017905,3.8147897,Adres
1715,4328,Burgh-Haamstede,Burgh Haamstede;Burgh,Schouwen-Duiveland,Zeeland,111,51.695833,3.743333,Adres + Postbus
1716,4330,Middelburg,,Middelburg,Zeeland,118,51.496765,3.5971822,Postbus
1725,4339,Nieuw en Sint Joosland,NIEUW EN ST JOOSL,Middelburg,Zeeland,118,51.4834686,3.6583794,Adres
1726,4340,Arnemuiden,,Middelburg,Zeeland,118,51.513446,3.7308001,Postbus
1728,4351,Veere,,Veere,Zeeland,118,51.5482937,3.6660061,Adres
1729,4352,Gapinge,,Veere,Zeeland,118,51.5438497,3.6242172,Adres
1731,4354,Vrouwenpolder,,Veere,Zeeland,118,51.5772562,3.6187496,Adres
1732,4356,Oostkapelle,,Veere,Zeeland,118,51.567147,3.5525823,Adres
1733,4357,Domburg,,Veere,Zeeland,118,51.5634575,3.4998639,Adres + Postbus
1734,4360,Westkapelle,,Veere,Zeeland,118,51.5184166,3.4519334,Adres + Postbus
1736,4363,Aagtekerke,,Veere,Zeeland,118,51.5466135,3.511869,Adres
1737,4364,Grijpskerke,GRYPSKERKE,Veere,Zeeland,118,51.5336858,3.5624386,Adres
1738,4365,Meliskerke,,Veere,Zeeland,118,51.5140606,3.5097681,Adres
1739,4370,Koudekerke,,Veere,Zeeland,118,51.4687704,3.5243139,Postbus
1741,4373,Biggekerke,,Veere,Zeeland,118,51.4997479,3.5243893,Adres
1742,4374,Zoutelande,,Veere,Zeeland,118,51.5023416,3.4867275,Adres + Postbus
1743,4380,Vlissingen,,Vlissingen,Zeeland,118,51.4483479,3.5696039,Postbus
1751,4388,Oost-Souburg,OOST SOUBURG,Vlissingen,Zeeland,118,51.467957,3.6055656,Adres
1752,4389,Ritthem,,Vlissingen,Zeeland,118,51.4513474,3.6260148,Adres
1753,4400,Yerseke,,Reimerswaal,Zeeland,113,51.4927155,4.0497668,Postbus
1755,4411,Rilland,,Reimerswaal,Zeeland,113,51.4168703,4.1808409,Adres
1756,4413,Krabbendijke,KRABBENDYKE,Reimerswaal,Zeeland,113,51.4308295,4.1121385,Adres + Postbus
1757,4414,Waarde,,Reimerswaal,Zeeland,113,51.4184562,4.0681591,Adres
1758,4415,Oostdijk,OOSTDYK,Reimerswaal,Zeeland,113,51.4435618,4.0789366,Adres
1759,4416,Kruiningen,,Reimerswaal,Zeeland,113,51.4488556,4.034088,Adres + Postbus
1760,4417,Hansweert,,Reimerswaal,Zeeland,113,51.4491458,4.0043985,Adres
1761,4420,Kapelle,,Kapelle,Zeeland,113,51.4864301,3.957104,Onbekend
1763,4423,Schore,,Kapelle,Zeeland,113,51.4626485,3.998334,Adres
1764,4424,Wemeldinge,,Kapelle,Zeeland,113,51.5167534,3.9964784,Adres
1765,4430,'s-Gravenpolder,S GRAVENPOLDER,Borsele,Zeeland,113,51.4585553,3.9041631,Postbus
1767,4433,Hoedekenskerke,,Borsele,Zeeland,113,51.424627,3.9130838,Adres
1768,4434,Kwadendamme,,Borsele,Zeeland,113,51.4332889,3.8775952,Adres
1769,4435,Baarland,,Borsele,Zeeland,113,51.4083744,3.8829049,Adres
1770,4436,Oudelande,,Borsele,Zeeland,113,51.411102,3.8528273,Adres
1771,4437,Ellewoutsdijk,ELLEWOUTSDYK,Borsele,Zeeland,113,51.3891882,3.8160041,Adres
1772,4438,Driewegen,,Borsele,Zeeland,113,51.4183279,3.8029224,Adres
1773,4441,Ovezande,,Borsele,Zeeland,113,51.4297919,3.8216803,Adres
1774,4443,Nisse,,Borsele,Zeeland,113,51.4557231,3.8518473,Adres
1775,4444,'s-Heer-Abtskerke,S HEER ABTSKERKE,Borsele,Zeeland,113,51.470885,3.8817753,Adres
1776,4450,Heinkenszand,,Borsele,Zeeland,113,51.482204,3.797621,Postbus
1778,4453,'s-Heerenhoek,S HEERENHOEK,Borsele,Zeeland,113,51.4530498,3.7697674,Adres + Postbus
1779,4454,Borssele,,Borsele,Zeeland,113,51.4256645,3.7336697,Adres
1780,4455,Nieuwdorp,,Borsele,Zeeland,113,51.4705122,3.7403466,Adres
1781,4456,Lewedorp,,Borsele,Zeeland,113,51.4951309,3.7501853,Adres
1782,4458,'s-Heer-Arendskerke,S HEER ARENDSKERKE,Goes,Zeeland,113,51.4916391,3.8231764,Adres
1783,4460,Goes,,Goes,Zeeland,113,51.4997323,3.8861125,Postbus
1789,4471,Wolphaartsdijk,WOLPHAARTSDYK,Goes,Zeeland,113,51.5299685,3.8218161,Adres
1790,4472,'s-Heer-Hendrikskinderen,,Goes,Zeeland,113,51.5023009,3.8613904,Adres
1791,4474,Kattendijke,KATTENDYKE,Goes,Zeeland,113,51.5233235,3.9444848,Adres
1792,4475,Wilhelminadorp,,Goes,Zeeland,113,51.5292075,3.8968798,Adres
1793,4481,Kloetinge,,Goes,Zeeland,113,51.5070314,3.9338321,Adres
1795,4484,Kortgene,,Noord-Beveland,Zeeland,113,51.5578335,3.8031359,Adres
1796,4485,Kats,,Noord-Beveland,Zeeland,113,51.5679227,3.8860162,Adres
1797,4486,Colijnsplaat,COLYNSPLAAT,Noord-Beveland,Zeeland,113,51.5993241,3.8500147,Adres
1798,4490,Wissenkerke,,Noord-Beveland,Zeeland,113,51.5691895,3.7553825,Postbus
1800,4493,Kamperland,,Noord-Beveland,Zeeland,113,51.5706508,3.7022927,Adres + Postbus
1801,4494,Geersdijk,GEERSDYK,Noord-Beveland,Zeeland,113,51.5646664,3.7706136,Adres
1802,4500,Oostburg,,Sluis,Zeeland,117,51.3254841,3.4908192,Postbus
1804,4503,Groede,,Sluis,Zeeland,117,51.3787644,3.5065781,Adres
1805,4504,Nieuwvliet,,Sluis,Zeeland,117,51.3719096,3.4733429,Adres
1806,4505,Zuidzande,,Sluis,Zeeland,117,51.341308,3.4517718,Adres
1807,4506,Cadzand,,Sluis,Zeeland,117,51.3692317,3.4077694,Adres
1808,4507,Schoondijke,SCHOONDYKE,Sluis,Zeeland,117,51.3540194,3.5556505,Adres
1809,4508,Waterlandkerkje,,Sluis,Zeeland,117,51.3191569,3.5598595,Adres
1810,4510,Breskens,,Sluis,Zeeland,117,51.403198,3.5408837,Postbus
1812,4513,Hoofdplaat,,Sluis,Zeeland,117,51.3697876,3.6615801,Adres
1813,4515,IJzendijke,,Sluis,Zeeland,117,51.3217174,3.6167632,Adres
1814,4520,Biervliet,,Terneuzen,Zeeland,115,51.3269506,3.6889172,Postbus
1817,4524,Sluis,,Sluis,Zeeland,117,51.3086558,3.3879195,Adres + Postbus
1818,4525,Retranchement,,Sluis,Zeeland,117,51.3481316,3.3852526,Adres
1819,4527,Aardenburg,,Sluis,Zeeland,117,51.2742727,3.4453328,Adres + Postbus
1820,4528,Sint Kruis,ST KRUIS,Sluis,Zeeland,117,51.272565,3.4950273,Adres
1821,4529,Eede,,Sluis,Zeeland,117,51.2468297,3.4431473,Adres
1822,4530,Terneuzen,,Terneuzen,Zeeland,115,51.3379494,3.8313925,Postbus
1830,4539,Spui,,Terneuzen,Zeeland,115,51.2977464,3.8782696,Adres
1831,4540,Sluiskil,,Terneuzen,Zeeland,115,51.2963197,3.8511559,Postbus
1833,4542,Hoek,,Terneuzen,Zeeland,115,51.3116932,3.7807246,Adres
1834,4543,Zaamslag,,Terneuzen,Zeeland,115,51.3127295,3.911686,Adres + Postbus
1835,4550,Sas van Gent,,Terneuzen,Zeeland,115,51.2258071,3.7976272,Postbus
1837,4553,Philippine,,Terneuzen,Zeeland,115,51.2826839,3.7587171,Adres
1838,4554,Westdorpe,,Terneuzen,Zeeland,115,51.2335278,3.8303218,Adres
1839,4560,Hulst,,Hulst,Zeeland,114,51.2796743,4.0543421,Postbus
1842,4564,Sint Jansteen,ST JANSTEEN,Hulst,Zeeland,114,51.2631795,4.0486905,Adres + Postbus
1843,4565,Kapellebrug,,Hulst,Zeeland,114,51.2543768,4.0650501,Adres
1844,4566,Heikant,,Hulst,Zeeland,114,51.2522521,4.0342834,Adres
1845,4567,Clinge,,Hulst,Zeeland,114,51.2693961,4.0888417,Adres + Postbus
1846,4568,Nieuw-Namen,NIEUW NAMEN,Hulst,Zeeland,114,51.2937002,4.1613557,Adres
1847,4569,Graauw,,Hulst,Zeeland,114,51.3301724,4.1047304,Adres
1848,4570,Axel,,Terneuzen,Zeeland,115,51.2588941,3.9100399,Postbus
1850,4574,Zuiddorpe,,Terneuzen,Zeeland,115,51.2345512,3.903091,Adres
1851,4575,Overslag,,Terneuzen,Zeeland,115,51.2031259,3.8914575,Adres
1852,4576,Koewacht,,Terneuzen,Zeeland,114,51.2293853,3.9680779,Adres
1853,4581,Vogelwaarde,,Hulst,Zeeland,114,51.3247316,3.9775618,Adres
1854,4583,Ter Hole,TERHOLE,Hulst,Zeeland,114,51.3161628,4.0368113,Adres
1855,4584,Kuitaart,,Hulst,Zeeland,114,51.3419995,4.0344976,Adres
1856,4585,Hengstdijk,HENGSTDYK,Hulst,Zeeland,114,51.344126,3.9959942,Adres
1857,4586,Lamswaarde,,Hulst,Zeeland,114,51.3436222,4.0559661,Adres
1858,4587,Kloosterzande,,Hulst,Zeeland,114,51.3693216,4.0131792,Adres + Postbus
1859,4588,Walsoorden,,Hulst,Zeeland,114,51.3814114,4.0276265,Adres
1860,4589,Ossenisse,,Hulst,Zeeland,114,51.3884661,3.9804612,Adres
1861,4600,Bergen op Zoom,,Bergen op Zoom,Noord-Brabant,164,51.4932152,4.2902202,Postbus
1876,4630,Hoogerheide,,Woensdrecht,Noord-Brabant,164,51.4058609,4.3345061,Postbus
1878,4634,Woensdrecht,,Woensdrecht,Noord-Brabant,164,51.4292475,4.3047078,Adres
1879,4635,Huijbergen,HUYBERGEN,Woensdrecht,Noord-Brabant,164,51.4330637,4.3779637,Adres
1880,4640,Ossendrecht,,Woensdrecht,Noord-Brabant,164,51.4058609,4.3345061,Adres + Postbus
1882,4645,Putte,,Woensdrecht,Noord-Brabant,164,51.358896,4.3957354,Adres + Postbus
1883,4650,Steenbergen,,Steenbergen,Noord-Brabant,167,51.627894,4.399958,Postbus
1886,4655,De Heen,,Steenbergen,Noord-Brabant,167,51.6103141,4.2724967,Adres
1887,4660,Halsteren,,Bergen op Zoom,Noord-Brabant,164,51.5284213,4.2788105,Postbus
1889,4664,Lepelstraat,,Bergen op Zoom,Noord-Brabant,164,51.5495719,4.2767692,Adres
1890,4670,Dinteloord,,Steenbergen,Noord-Brabant,167,51.627894,4.399958,Postbus
1892,4675,Sint Philipsland,ST PHILIPSLAND,Tholen,Zeeland,167,51.6167888,4.16795,Adres + Postbus
1893,4681,Nieuw-Vossemeer,NIEUW VOSSEMEER,Steenbergen,Noord-Brabant,167,51.5896321,4.2179697,Adres
1894,4690,Tholen,,Tholen,Zeeland,166,51.538619,4.1901932,Postbus
1896,4693,Poortvliet,,Tholen,Zeeland,166,51.5446862,4.143358,Adres
1897,4694,Scherpenisse,,Tholen,Zeeland,166,51.5463105,4.1040252,Adres
1898,4695,Sint Maartensdijk,ST MAARTENSDYK,Tholen,Zeeland,166,51.5491448,4.0767226,Adres
1899,4696,Stavenisse,,Tholen,Zeeland,166,51.5861025,4.0122135,Adres
1900,4697,Sint Annaland,ST ANNALAND,Tholen,Zeeland,166,51.5998713,4.1033185,Adres + Postbus
1901,4698,Oud-Vossemeer,OUD VOSSEMEER,Tholen,Zeeland,166,51.5705615,4.198129,Adres + Postbus
1902,4700,Roosendaal,,Roosendaal,Noord-Brabant,165,51.5488875,4.4293118,Postbus
1911,4709,Nispen,,Roosendaal,Noord-Brabant,165,51.4864749,4.4532481,Adres
1912,4711,Sint Willebrord,ST WILLEBRORD,Rucphen,Noord-Brabant,165,51.5517785,4.5897498,Adres
1913,4714,Sprundel,,Rucphen,Noord-Brabant,165,51.5353221,4.5930928,Adres + Postbus
1914,4715,Rucphen,,Rucphen,Noord-Brabant,165,51.5335666,4.5603199,Adres
1915,4721,Schijf,SCHYF,Rucphen,Noord-Brabant,165,51.4960157,4.5313899,Adres
1917,4724,Wouw,,Roosendaal,Noord-Brabant,165,51.5218976,4.3887158,Adres
1918,4725,Wouwse Plantage,,Roosendaal,Noord-Brabant,165,51.4842696,4.3888071,Adres
1919,4726,Heerle,,Roosendaal,Noord-Brabant,165,51.5195961,4.3606999,Adres
1920,4727,Moerstraten,,Roosendaal,Noord-Brabant,165,51.5410276,4.3420642,Adres
1921,4730,Oudenbosch,,Halderberge,Noord-Brabant,165,51.5896718,4.5515809,Postbus
1923,4735,Zegge,,Rucphen,Noord-Brabant,165,51.5568408,4.5184235,Adres
1924,4741,Hoeven,,Halderberge,Noord-Brabant,165,51.5791978,4.5839864,Adres
1925,4744,Bosschenhoofd,,Halderberge,Noord-Brabant,165,51.5608187,4.5423737,Adres
1926,4750,Oud Gastel,,Halderberge,Noord-Brabant,165,51.5488875,4.4293118,Postbus
1928,4754,Stampersgat,,Halderberge,Noord-Brabant,165,51.6139275,4.4427261,Adres
1929,4756,Kruisland,,Steenbergen,Noord-Brabant,167,51.5703451,4.4074783,Adres
1930,4758,Standdaarbuiten,,Moerdijk,Noord-Brabant,165,51.6133003,4.5135592,Adres
1931,4759,Noordhoek,,Moerdijk,Noord-Brabant,168,51.6429953,4.5336613,Adres
1932,4760,Zevenbergen,,Moerdijk,Noord-Brabant,168,51.7299368,5.5726323,Postbus
1935,4765,Zevenbergschen Hoek,ZEVENBERGS HOEK,Moerdijk,Noord-Brabant,168,51.6731202,4.6782725,Adres
1937,4771,Langeweg,,Moerdijk,Noord-Brabant,168,51.6496658,4.6467815,Adres
1939,4780,Moerdijk,MOERDYK,Moerdijk,Noord-Brabant,168,51.5949267,4.5463626,Postbus
1942,4790,Klundert,,Moerdijk,Noord-Brabant,168,51.4390553,5.4358209,Postbus
1944,4793,Fijnaart,FYNAART,Moerdijk,Noord-Brabant,168,51.6364799,4.4731556,Adres + Postbus
1945,4794,Heijningen,HEYNINGEN,Moerdijk,Noord-Brabant,168,51.6558653,4.4125141,Adres
1946,4796,Oudemolen,,Moerdijk,Noord-Brabant,168,51.6648557,4.4590927,Adres
1947,4797,Willemstad,,Moerdijk,Noord-Brabant,168,51.6919469,4.4379073,Adres + Postbus
1948,4800,Breda,,Breda,Noord-Brabant,76,51.5896,4.77717,Postbus
1974,4840,Prinsenbeek,,Breda,Noord-Brabant,76,51.602582,4.721368,Postbus
1976,4844,Terheijden,TERHEYDEN,Drimmelen,Noord-Brabant,76,51.6443817,4.7512386,Adres + Postbus
1977,4845,Wagenberg,,Drimmelen,Noord-Brabant,76,51.6646838,4.747925,Adres
1978,4847,Teteringen,,Breda,Noord-Brabant,76,51.6100996,4.8236992,Adres + Postbus
1979,4849,Dorst,,Oosterhout,Noord-Brabant,161,51.5906836,4.8582707,Adres + Postbus
1980,4850,Ulvenhout,,Breda,Noord-Brabant,76,51.5613826,4.7920382,Postbus
1982,4854,Bavel,,Breda,Noord-Brabant,161,51.5668739,4.8308114,Adres
1983,4855,Galder,,Alphen-Chaam,Noord-Brabant,76,51.5142098,4.7741483,Adres
1984,4856,Strijbeek,STRYBEEK,Alphen-Chaam,Noord-Brabant,76,51.5015194,4.7971903,Adres
1987,4860,Chaam,,Alphen-Chaam,Noord-Brabant,161,51.4811391,4.6154253,Postbus
1989,4870,Etten-Leur,ETTEN LEUR,Etten-Leur,Noord-Brabant,76,51.5857936,4.6450701,Postbus
1999,4880,Zundert,,Zundert,Noord-Brabant,76,51.473146,4.6643297,Postbus
2002,4884,Wernhout,,Zundert,Noord-Brabant,76,51.4558841,4.6431964,Adres
2003,4885,Achtmaal,,Zundert,Noord-Brabant,76,51.4541025,4.5832867,Adres
2004,4890,Rijsbergen,RYSBERGEN,Zundert,Noord-Brabant,76,51.5864096,4.9773537,Postbus
2006,4900,Oosterhout,Oosterhout Nb,Oosterhout,Noord-Brabant,162,51.6394246,4.8618289,Postbus
2015,4909,Oosteind,,Oosterhout,Noord-Brabant,162,51.6460883,4.9036273,Adres
2016,4911,Den Hout,,Oosterhout,Noord-Brabant,162,51.6586088,4.8120397,Adres
2017,4920,Made,,Drimmelen,Noord-Brabant,162,51.5817618,4.5283895,Postbus
2019,4924,Drimmelen,,Drimmelen,Noord-Brabant,162,51.7085524,4.8034905,Adres
2020,4926,Lage Zwaluwe,,Drimmelen,Noord-Brabant,168,51.7102543,4.7042699,Adres + Postbus
2021,4927,Hooge Zwaluwe,,Drimmelen,Noord-Brabant,168,51.6883234,4.7426213,Adres
2022,4930,Geertruidenberg,,Geertruidenberg,Noord-Brabant,162,51.7008149,4.8596086,Postbus
2024,4940,Raamsdonksveer,,Geertruidenberg,Noord-Brabant,162,51.6891589,4.8760318,Postbus
2027,4944,Raamsdonk,,Geertruidenberg,Noord-Brabant,162,51.6898836,4.9043163,Adres
2028,5000,Tilburg,,Tilburg,Noord-Brabant,13,51.59113,5.09348,Postbus
2057,5050,Goirle,,Goirle,Noord-Brabant,13,51.5588664,5.0800386,Postbus
2061,5056,Berkel-Enschot,BERKEL ENSCHOT,Tilburg,Noord-Brabant,13,51.5878583,5.1465219,Adres + Postbus
2062,5059,Heukelom,,Oisterwijk,Noord-Brabant,13,51.5758107,5.154778,Adres
2063,5060,Oisterwijk,OISTERWYK,Oisterwijk,Noord-Brabant,13,51.5809909,5.1980271,Postbus
2067,5066,Moergestel,,Oisterwijk,Noord-Brabant,13,51.5462872,5.1709311,Adres + Postbus
2068,5070,Udenhout,,Tilburg,Noord-Brabant,13,51.6348382,5.2090164,Postbus
2070,5074,Biezenmortel,,Haaren,Noord-Brabant,13,51.6243382,5.1777074,Adres
2071,5076,Haaren,,Haaren,Noord-Brabant,411,51.6021331,5.2267124,Adres + Postbus
2072,5080,Hilvarenbeek,,Hilvarenbeek,Noord-Brabant,13,51.5588664,5.0800386,Postbus
2074,5084,Biest-Houtakker,Biest Houtakker;Biest,Hilvarenbeek,Noord-Brabant,13,51.5081801,5.1591711,Adres
2075,5085,Esbeek,,Hilvarenbeek,Noord-Brabant,13,51.4622478,5.1370682,Adres
2076,5087,Diessen,,Hilvarenbeek,Noord-Brabant,13,51.4757206,5.175417,Adres + Postbus
2077,5089,Haghorst,,Hilvarenbeek,Noord-Brabant,13,51.4959221,5.2069552,Adres
2078,5091,Oost- West- en Middelbeers,Oost West en Middelbeers,Oirschot,Noord-Brabant,13,51.471631,5.2430774,Adres
2079,5094,Lage Mierde,,Reusel-De Mierden,Noord-Brabant,13,51.4059976,5.150455,Adres
2080,5095,Hooge Mierde,,Reusel-De Mierden,Noord-Brabant,13,51.3894095,5.1287338,Adres
2081,5096,Hulsel,,Reusel-De Mierden,Noord-Brabant,13,51.3879936,5.1789361,Adres
2082,5100,Dongen,,Dongen,Noord-Brabant,162,51.6304849,4.9362777,Postbus
2090,5109,'s-Gravenmoer,S GRAVENMOER,Dongen,Noord-Brabant,162,51.6588074,4.942094,Adres + Postbus
2091,5110,Baarle-Nassau,BAARLE NASSAU;Baarle-Hertog-Nassau;Baarle-Nassau-Hertog,Baarle-Nassau,Noord-Brabant,13,51.4435,4.92869,Postbus
2093,5113,Ulicoten,,Baarle-Nassau,Noord-Brabant,13,51.4578947,4.8566909,Adres
2094,5114,Castelr,CASTELRE,Baarle-Nassau,Noord-Brabant,13,51.4333333,4.7833333,Adres
2095,5120,Rijen,,Gilze en Rijen,Noord-Brabant,161,51.5675967,4.937517,Postbus
2098,5124,Molenschot,,Gilze en Rijen,Noord-Brabant,161,51.5728921,4.8820195,Adres
2099,5125,Hulten,,Gilze en Rijen,Noord-Brabant,161,51.5722857,4.9549864,Adres
2100,5126,Gilze,,Gilze en Rijen,Noord-Brabant,161,51.5442814,4.9413872,Adres + Postbus
2101,5130,Alphen,,Alphen-Chaam,Noord-Brabant,13,51.7863327,5.5227297,Postbus
2103,5133,Riel,,Goirle,Noord-Brabant,13,51.5259901,5.0252716,Adres
2104,5140,Waalwijk,WAALWYK,Waalwijk,Noord-Brabant,416,51.6901729,5.0531762,Adres + Postbus
2111,5150,Drunen,,Heusden,Noord-Brabant,416,51.5766966,5.0142747,Adres + Postbus
2114,5154,Elshout,,Heusden,Noord-Brabant,416,51.70193,5.1421528,Adres
2115,5160,Sprang-Capelle,SPRANG CAPELLE,Waalwijk,Noord-Brabant,416,51.6901729,5.0531762,Postbus
2117,5165,Waspik,,Waalwijk,Noord-Brabant,416,51.685585,4.9495377,Adres + Postbus
2118,5170,Kaatsheuvel,,Loon op Zand,Noord-Brabant,416,51.6901729,5.0531762,Postbus
2121,5175,Loon op Zand,,Loon op Zand,Noord-Brabant,416,51.6270137,5.0720086,Adres + Postbus
2122,5176,De Moer,,Loon op Zand,Noord-Brabant,13,51.6255918,5.0134146,Adres
2123,5200,'s-Hertogenbosch,S HERTOGENBOSCH;Den Bosch,'s-Hertogenbosch,Noord-Brabant,73,51.677923,5.3295242,Postbus
2143,5240,Rosmalen,,'s-Hertogenbosch,Noord-Brabant,73,51.7184144,5.363585,Postbus
2153,5250,Vlijmen,VLYMEN,Heusden,Noord-Brabant,73,51.57523,4.9720774,Postbus
2156,5253,Nieuwkuijk,NIEUWKUYK,Heusden,Noord-Brabant,73,51.6903595,5.1780672,Adres
2157,5254,Haarsteeg,ww,Heusden,Noord-Brabant,73,51.7102766,5.1984482,Adres
2158,5256,Heusden,,Heusden,Noord-Brabant,416,51.733889,5.138333,Adres + Postbus
2159,5258,Berlicum,,Sint-Michielsgestel,Noord-Brabant,73,51.6788511,5.4012001,Adres + Postbus
2160,5260,Vught,,Vught,Noord-Brabant,73,51.6574409,5.2994167,Postbus
2165,5266,Cromvoirt,,Vught,Noord-Brabant,411,51.6612638,5.2298416,Adres
2166,5268,Helvoirt,,Haaren,Noord-Brabant,411,51.630874,5.2301204,Adres + Postbus
2167,5270,Sint-Michielsgestel,ST MICHIELSGESTEL,Sint-Michielsgestel,Noord-Brabant,73,51.6411669,5.3438558,Postbus
2170,5275,Den Dungen,,Sint-Michielsgestel,Noord-Brabant,73,51.6653323,5.3717239,Adres + Postbus
2171,5280,Boxtel,,Boxtel,Noord-Brabant,411,51.5922927,5.3162236,Postbus
2175,5291,Gemonde,,Sint-Michielsgestel,Noord-Brabant,73,51.6117629,5.3511555,Adres
2179,5296,Esch,,Haaren,Noord-Brabant,411,51.611461,5.2901588,Adres
2180,5298,Liempde,,Boxtel,Noord-Brabant,411,51.569362,5.3723188,Adres + Postbus
2181,5300,Zaltbommel,,Zaltbommel,Gelderland,418,51.8113393,5.2495298,Postbus
2184,5305,Zuilichem,,Zaltbommel,Gelderland,418,51.8080071,5.1358349,Adres
2185,5306,Brakel,,Zaltbommel,Gelderland,418,51.8186409,5.0934983,Adres + Postbus
2186,5307,Poederoijen,POEDEROYEN,Zaltbommel,Gelderland,418,51.7846183,5.0788795,Adres
2187,5308,Aalst,,Zaltbommel,Gelderland,418,51.7822878,5.1260223,Adres + Postbus
2188,5310,Gameren,,Zaltbommel,Gelderland,418,51.8833486,5.1529531,Postbus
2190,5313,Nieuwaal,,Zaltbommel,Gelderland,418,51.8098893,5.1790214,Adres
2191,5314,Bruchem,,Zaltbommel,Gelderland,418,51.7867535,5.2383323,Adres
2192,5315,Kerkwijk,KERKWYK,Zaltbommel,Gelderland,418,51.7750073,5.2195059,Adres
2193,5316,Delwijnen,DELWYNEN,Zaltbommel,Gelderland,418,51.770395,5.1879073,Adres
2194,5317,Nederhemert,,Zaltbommel,Gelderland,418,51.762778,5.161667,Adres
2195,5318,Bern,,Zaltbommel,Gelderland,418,51.7483122,5.1656063,Adres
2196,5320,Hedel,,Maasdriel,Gelderland,73,51.7435935,5.2627663,Postbus
2198,5324,Ammerzoden,,Maasdriel,Gelderland,73,51.7481635,5.2227623,Adres + Postbus
2199,5325,Well,,,Gelderland,73,51.7444609,5.204966,Adres
2200,5327,Hurwenen,,Maasdriel,Gelderland,418,51.8114711,5.3139749,Adres
2201,5328,Rossum,,Maasdriel,Gelderland,418,51.8018021,5.3354909,Adres + Postbus
2202,5330,Kerkdriel,,Maasdriel,Gelderland,418,51.7714743,5.3382611,Postbus
2204,5333,Hoenzadriel,,Maasdriel,Gelderland,418,51.7541878,5.3293322,Adres
2205,5334,Velddriel,,Maasdriel,Gelderland,418,51.7693183,5.3043655,Adres
2206,5335,Alem,,Maasdriel,Gelderland,418,51.7875937,5.3408986,Adres
2207,5340,Oss,,Oss,Noord-Brabant,412,51.786643,5.5215572,Postbus
2217,5351,Berghem,,Oss,Noord-Brabant,412,51.7709329,5.5684345,Adres
2218,5360,Grave,,Grave,Noord-Brabant,486,51.7632906,5.7331862,Postbus
2220,5363,Velp,,Grave,Noord-Brabant,486,51.7492525,5.716923,Adres
2221,5364,Escharen,,Grave,Noord-Brabant,486,51.7411436,5.7536682,Adres
2222,5366,Megen,,Oss,Noord-Brabant,412,51.8213739,5.5636481,Adres
2223,5367,Macharen,,Oss,Noord-Brabant,412,51.8043581,5.5453565,Adres
2224,5368,Haren,,Oss,Noord-Brabant,412,51.8014577,5.5849108,Adres
2225,5370,Ravenstein,,Oss,Noord-Brabant,486,51.8321163,5.5718883,Postbus
2227,5373,Herpen,,Oss,Noord-Brabant,486,51.7719286,5.6419812,Adres
2228,5374,Schaijk,SCHAYK,Landerd,Noord-Brabant,486,51.7484858,5.6297284,Adres + Postbus
2229,5375,Reek,,Landerd,Noord-Brabant,486,51.7449838,5.6829659,Adres + Postbus
2230,5381,Vinkel,,Maasdonk,Noord-Brabant,73,51.7175457,5.4634582,Adres
2233,5384,Heesch,,Bernheze,Noord-Brabant,412,51.7317098,5.5278266,Adres + Postbus
2234,5386,Geffen,,Maasdonk,Noord-Brabant,73,51.7377855,5.4582737,Adres + Postbus
2235,5388,Nistelrode,,Bernheze,Noord-Brabant,412,51.7043949,5.5612692,Adres + Postbus
2236,5390,Nuland,,Maasdonk,Noord-Brabant,73,51.7287354,5.433115,Postbus
2239,5394,Oijen,,Lith,Noord-Brabant,412,51.825144,5.5027547,Adres
2240,5395,Teeffelen,,Lith,Noord-Brabant,412,51.7980878,5.4946541,Adres
2241,5396,Lithoijen,LITHOYEN,Lith,Noord-Brabant,412,51.8009283,5.4591853,Adres
2242,5397,Lith,,Lith,Noord-Brabant,412,51.8065563,5.4399971,Adres + Postbus
2243,5398,Maren-Kessel,MAREN KESSEL,Lith,Noord-Brabant,412,51.7957011,5.3946991,Adres
2244,5400,Uden,,Uden,Noord-Brabant,413,51.6566022,5.6171875,Postbus
2251,5408,Volkel,,Uden,Noord-Brabant,413,51.6428528,5.6546035,Adres
2252,5409,Odiliapeel,,Uden,Noord-Brabant,413,51.6439997,5.7029224,Adres
2253,5410,Zeeland,,Landerd,Noord-Brabant,486,51.6410753,5.7690201,Postbus
2255,5420,Gemert,,Gemert-Bakel,Noord-Brabant,492,51.5540689,5.6810997,Postbus
2258,5423,Handel,,Gemert-Bakel,Noord-Brabant,492,51.579495,5.7137118,Adres
2259,5424,Elsendorp,,Gemert-Bakel,Noord-Brabant,492,51.5807827,5.7692663,Adres
2260,5425,Mortel,,Gemert-Bakel,Noord-Brabant,492,51.5389606,5.7197279,Adres
2261,5427,Boekel,,Boekel,Noord-Brabant,492,51.6028789,5.6743158,Adres + Postbus
2262,5428,Venhorst,,Boekel,Noord-Brabant,492,51.6083485,5.7384754,Adres
2263,5430,Cuijk,,Cuijk,Noord-Brabant,485,51.7289292,5.878605,Postbus
2268,5435,Sint Agatha,ST AGATHA,Cuijk,Noord-Brabant,485,51.7133941,5.9103669,Adres
2269,5437,Beers,,Cuijk,Noord-Brabant,485,51.7262186,5.8254961,Adres
2270,5438,Gassel,,Grave,Noord-Brabant,486,51.7404991,5.7805781,Adres
2271,5439,Linden,,Cuijk,Noord-Brabant,485,51.7492987,5.8333084,Adres
2272,5441,Oeffelt,,Boxmeer,Noord-Brabant,485,51.6928062,5.9386646,Adres
2273,5443,Haps,,Cuijk,Noord-Brabant,485,51.6896523,5.8625696,Adres + Postbus
2274,5445,Landhorst,,Sint Anthonis,Noord-Brabant,485,51.618252,5.7918908,Adres
2275,5446,Wanroij,WANROY,Sint Anthonis,Noord-Brabant,485,51.6565966,5.8221627,Adres + Postbus
2276,5447,Rijkevoort,RYKEVOORT,Boxmeer,Noord-Brabant,485,51.6577927,5.8851558,Adres
2277,5449,Rijkevoort-De Walsert,,Sint Anthonis,Noord-Brabant,485,51.646667,5.861111,Adres
2278,5450,Mill,,Mill en Sint Hubert,Noord-Brabant,485,51.6531351,5.8069413,Postbus
2280,5453,Langenboom,,Mill en Sint Hubert,Noord-Brabant,486,51.7022167,5.7291508,Adres + Postbus
2281,5454,Sint Hubert,ST HUBERT,Mill en Sint Hubert,Noord-Brabant,485,51.6781424,5.8098778,Adres
2282,5455,Wilbertoord,,Mill en Sint Hubert,Noord-Brabant,485,51.655076,5.7739829,Adres
2283,5460,Veghel,,Veghel,Noord-Brabant,413,51.607583,5.5362367,Postbus
2291,5469,Erp,,Veghel,Noord-Brabant,413,51.6015073,5.6062082,Adres + Postbus
2292,5471,Loosbroek,,Bernheze,Noord-Brabant,413,51.6836819,5.5093219,Adres
2294,5473,Heeswijk-Dinther,HEESWYK DINTHER,Bernheze,Noord-Brabant,413,51.650278,5.475,Adres + Postbus
2295,5476,Vorstenbosch,,Bernheze,Noord-Brabant,413,51.6534974,5.5510569,Adres
2296,5480,Schijndel,SCHYNDEL,Schijndel,Noord-Brabant,73,51.6191143,5.435366,Postbus
2299,5490,Sint-Oedenrode,ST OEDENRODE,Sint-Oedenrode,Noord-Brabant,413,51.5625482,5.4595334,Postbus
2302,5500,Veldhoven,Zeelst;Oerle;Meerveldhoven,Veldhoven,Noord-Brabant,40,51.4209328,5.4045443,Postbus
2312,5511,Knegsel,,Eersel,Noord-Brabant,40,51.3996231,5.344687,Adres
2313,5512,Vessem,,Eersel,Noord-Brabant,497,51.4196789,5.2884532,Adres + Postbus
2314,5513,Wintelre,,Eersel,Noord-Brabant,40,51.4436419,5.340608,Adres
2315,5520,Eersel,,Eersel,Noord-Brabant,497,51.3569604,5.3115562,Postbus
2317,5524,Steensel,,Eersel,Noord-Brabant,497,51.3781787,5.352071,Adres
2318,5525,Duizel,,Eersel,Noord-Brabant,497,51.3689175,5.2966333,Adres
2319,5527,Hapert,,Bladel,Noord-Brabant,497,51.3685373,5.2558944,Adres + Postbus
2320,5528,Hoogeloon,,Bladel,Noord-Brabant,497,51.396699,5.2684294,Adres
2321,5529,Casteren,,Bladel,Noord-Brabant,497,51.3964385,5.2383109,Adres
2322,5530,Bladel,,Bladel,Noord-Brabant,497,51.3619505,5.2184932,Postbus
2324,5534,Netersel,,Bladel,Noord-Brabant,497,51.4045925,5.2096153,Adres
2325,5540,Reusel,,Reusel-De Mierden,Noord-Brabant,497,51.3677473,5.171578,Postbus
2327,5550,Valkenswaard,,Valkenswaard,Noord-Brabant,40,51.3501477,5.4608605,Postbus
2334,5561,Riethoven,,Bergeijk,Noord-Brabant,40,51.3525213,5.3865427,Adres
2335,5563,Westerhoven,,Bergeijk,Noord-Brabant,40,51.3314776,5.403675,Adres
2336,5570,Bergeijk,BERGEYK,Bergeijk,Noord-Brabant,497,51.3208087,5.3571702,Postbus
2338,5575,Luyksgestel,,Bergeijk,Noord-Brabant,497,51.2893698,5.3258872,Adres + Postbus
2339,5580,Waalre,,Waalre,Noord-Brabant,40,51.4319167,5.4175198,Postbus
2343,5590,Heeze,,Heeze-Leende,Noord-Brabant,40,51.3812802,5.587193,Postbus
2345,5595,Leende,,Heeze-Leende,Noord-Brabant,40,51.3494735,5.5525049,Adres + Postbus
2346,5600,Eindhoven,,Eindhoven,Noord-Brabant,40,51.473798,5.452834,Postbus
2385,5660,Geldrop,,Geldrop-Mierlo,Noord-Brabant,40,51.4478557,5.490054,Postbus
2393,5670,Nuenen,,"Nuenen, Gerwen en Nederwetten",Noord-Brabant,40,51.4478557,5.490054,Postbus
2398,5680,Best,,Best,Noord-Brabant,499,51.4362766,5.4245307,Postbus
2404,5688,Oirschot,,Oirschot,Noord-Brabant,499,51.5320155,5.306528,Adres + Postbus
2406,5690,Son,,Son en Breugel,Noord-Brabant,499,51.5244947,5.4824473,Postbus
2409,5694,Breugel,,Son en Breugel,Noord-Brabant,499,51.5184209,5.5117846,Adres
2410,5700,Helmond,,Helmond,Noord-Brabant,492,51.4961325,5.667027,Postbus
2420,5710,Someren,,Someren,Noord-Brabant,493,51.3913081,5.7093737,Postbus
2423,5715,Lierop,,Someren,Noord-Brabant,492,51.4191765,5.6821138,Adres + Postbus
2424,5720,Asten,,Asten,Noord-Brabant,493,51.3913081,5.7093737,Postbus
2426,5724,Ommel,,Asten,Noord-Brabant,493,51.4231409,5.7476111,Adres
2428,5730,Mierlo,,Geldrop-Mierlo,Noord-Brabant,492,51.4275926,5.5681558,Postbus
2430,5735,Aarle-Rixtel,AARLE RIXTEL,Laarbeek,Noord-Brabant,492,51.5096192,5.6364183,Adres + Postbus
2431,5737,Lieshout,,Laarbeek,Noord-Brabant,499,51.5197504,5.5945613,Adres + Postbus
2432,5738,Mariahout,,Laarbeek,Noord-Brabant,499,51.5397618,5.5714891,Adres
2433,5740,Beek en Donk,,Laarbeek,Noord-Brabant,492,51.538654,5.628708,Postbus
2435,5750,Deurne,,Deurne,Noord-Brabant,493,51.4638061,5.7945788,Postbus
2440,5756,Vlierden,,Deurne,Noord-Brabant,493,51.4445635,5.7596074,Adres
2441,5757,Liessel,,Deurne,Noord-Brabant,493,51.4141759,5.821055,Adres + Postbus
2442,5758,Neerkant,,Deurne,Noord-Brabant,77,51.3684598,5.8667024,Adres
2443,5759,Helenaveen,,Deurne,Noord-Brabant,493,51.3907101,5.917854,Adres
2444,5760,Bakel,,Gemert-Bakel,Noord-Brabant,492,51.5540985,5.6828569,Postbus
2446,5763,Milheeze,,Gemert-Bakel,Noord-Brabant,492,51.5038039,5.7800695,Adres
2447,5764,Rips,,Gemert-Bakel,Noord-Brabant,493,51.5504737,5.807514,Adres
2448,5766,Griendtsveen,,Horst aan de Maas,Limburg,493,51.4421994,5.8912113,Adres
2449,5768,Meijel,MEYEL,Peel en Maas,Limburg,77,51.3440883,5.8908029,Adres + Postbus
2450,5800,Venray,,Venray,Limburg,478,51.524712,5.9748704,Postbus
2455,5807,Oostrum,,Venray,Limburg,478,51.528588,6.0161961,Adres
2456,5808,Oirlo,,Venray,Limburg,478,51.5148307,6.0331578,Adres
2457,5809,Leunen,,Venray,Limburg,478,51.508274,5.9796526,Adres
2458,5811,Castenray,,Venray,Limburg,478,51.4891704,6.0358747,Adres
2459,5812,Heide,,Venray,Limburg,478,51.5049224,5.9503411,Adres
2460,5813,Ysselsteyn,,Venray,Limburg,478,51.4898334,5.8968362,Adres
2461,5814,Veulen,,Venray,Limburg,478,51.4828482,5.9554233,Adres
2462,5815,Merselo,,Venray,Limburg,478,51.5297637,5.9283115,Adres
2463,5816,Vredepeel,,Venray,Limburg,478,51.541458,5.8691665,Adres
2464,5817,Smakt,,Venray,Limburg,478,51.5681813,6.0045218,Adres
2465,5821,Vierlingsbeek,,Boxmeer,Noord-Brabant,478,51.5964371,6.0071434,Adres
2466,5823,Maashees,,Boxmeer,Noord-Brabant,478,51.5701118,6.03481,Adres
2467,5824,Holthees,,Boxmeer,Noord-Brabant,478,51.5740303,6.0084241,Adres
2468,5825,Overloon,,Boxmeer,Noord-Brabant,478,51.5715151,5.9476477,Adres
2469,5826,Groeningen,,Boxmeer,Noord-Brabant,478,51.6096284,5.9968846,Adres
2470,5827,Vortum-Mullem,VORTUM MULLEM,Boxmeer,Noord-Brabant,485,51.6209888,5.9787141,Adres
2471,5830,Boxmeer,,Boxmeer,Noord-Brabant,485,51.6480194,5.9442034,Postbus
2473,5835,Beugen,,Boxmeer,Noord-Brabant,485,51.6729024,5.9373811,Adres
2474,5836,Sambeek,,Boxmeer,Noord-Brabant,485,51.6356817,5.9650533,Adres
2475,5840,Oploo,,Sint Anthonis,Noord-Brabant,485,51.6423026,5.7721034,Postbus
2477,5843,Westerbeek,,Sint Anthonis,Noord-Brabant,485,51.5824394,5.8639128,Adres
2478,5844,Stevensbeek,,Sint Anthonis,Noord-Brabant,485,51.6034193,5.9160981,Adres
2479,5845,Sint Anthonis,ST ANTHONIS,Sint Anthonis,Noord-Brabant,485,51.6271613,5.8851934,Adres + Postbus
2480,5846,Ledeacker,,Sint Anthonis,Noord-Brabant,485,51.6362282,5.8746627,Adres
2481,5851,Afferden,,Bergen,Flevoland,485,52.5279781,5.5953508,Adres
2482,5853,Siebengewald,,Bergen,Limburg,485,51.6499329,6.1054976,Adres
2485,5856,Wellerlooi,,Bergen,Limburg,478,51.5348134,6.1368845,Adres
2486,5861,Wanssum,,Venray,Limburg,478,51.5363948,6.0756528,Adres
2487,5862,Geysteren,,Horst aan de Maas,Limburg,478,51.550566,6.0499585,Adres
2488,5863,Blitterswijck,BLITTERSWYCK,Venray,Limburg,478,51.5317535,6.1089177,Adres
2489,5864,Meerlo,,Horst aan de Maas,Limburg,478,51.5135768,6.0854637,Adres
2490,5865,Tienray,,Horst aan de Maas,Limburg,478,51.4953398,6.0926863,Adres
2491,5866,Swolgen,,Horst aan de Maas,Limburg,478,51.4920154,6.1173012,Adres
2492,5871,Broekhuizenvorst,,Horst aan de Maas,Limburg,77,51.4950867,6.1569232,Adres
2493,5872,Broekhuizen,,Horst aan de Maas,Limburg,77,51.4861249,6.1636824,Adres
2494,5900,Venlo,,Venlo,Limburg,77,51.3669066,6.1680878,Postbus
2510,5930,Tegelen,,Venlo,Limburg,77,51.3441241,6.1377539,Postbus
2513,5935,Steijl,STEYL,Venlo,Limburg,77,51.3332053,6.1219083,Adres
2514,5940,Velden,,Venlo,Limburg,77,51.4029637,6.1784563,Postbus
2516,5943,Lomm,,Venlo,Limburg,77,51.4482863,6.1696691,Adres
2517,5944,Arcen,,Venlo,Limburg,77,51.4763636,6.1809478,Adres + Postbus
2518,5950,Belfeld,,Venlo,Limburg,77,51.3105598,6.1153726,Postbus
2520,5953,Reuver,,Beesel,Limburg,77,51.2862173,6.0828226,Adres + Postbus
2521,5954,Beesel,,Beesel,Limburg,77,51.2696984,6.0468338,Adres
2522,5960,Horst,,Horst aan de Maas,Limburg,77,51.4647397,6.0484978,Postbus
2524,5962,Melderslo,,Horst aan de Maas,Limburg,77,51.4615797,6.084853,Adres
2525,5963,Hegelsom,,Horst aan de Maas,Limburg,77,51.4342209,6.0229257,Adres
2526,5964,Meterik,,Horst aan de Maas,Limburg,77,51.4552708,6.0249317,Adres
2527,5966,America,,Horst aan de Maas,Limburg,77,51.4362036,5.9792472,Adres
2528,5970,Grubbenvorst,,Horst aan de Maas,Limburg,77,51.4195163,6.1569655,Postbus
2530,5973,Lottum,,Horst aan de Maas,Limburg,77,51.4608598,6.1605462,Adres
2531,5975,Sevenum,,Horst aan de Maas,Limburg,77,51.410634,6.0262189,Adres + Postbus
2532,5976,Kronenberg,,Horst aan de Maas,Limburg,77,51.4152483,6.0005521,Adres
2533,5977,Evertsoord,,Horst aan de Maas,Limburg,77,51.4035422,5.9583872,Adres
2534,5980,Panningen,,Peel en Maas,Limburg,77,51.3211923,5.9772619,Postbus
2536,5984,Koningslust,,Peel en Maas,Limburg,77,51.3564059,5.993904,Adres
2537,5985,Grashoek,,Helden,Limburg,77,51.3599859,5.9416989,Adres
2538,5986,Beringe,,Peel en Maas,Limburg,77,51.3368412,5.9482681,Adres
2539,5987,Egchel,,Peel en Maas,Limburg,77,51.3134105,5.9713597,Adres
2540,5988,Helden,,Peel en Maas,Limburg,77,51.319895,6.0003768,Adres
2541,5990,Baarlo,,Peel en Maas,Limburg,77,51.3569579,6.1321366,Postbus
2543,5993,Maasbree,,Peel en Maas,Limburg,77,51.3584896,6.0503002,Adres + Postbus
2544,5995,Kessel,,Peel en Maas,Limburg,77,51.2926693,6.0540036,Adres + Postbus
2545,6000,Weert,,Weert,Limburg,495,51.253197,5.7200076,Postbus
2552,6011,Ell,,Leudal,Limburg,495,51.2201477,5.7950699,Adres
2553,6012,Haler,,Leudal,Limburg,495,51.1880645,5.7800231,Adres
2554,6013,Hunsel,,Leudal,Limburg,475,51.1881543,5.8131944,Adres
2555,6014,Ittervoort,,Leudal,Limburg,475,51.1698532,5.8180288,Adres + Postbus
2556,6015,Neeritter,,Leudal,Limburg,475,51.1645144,5.8030819,Adres
2557,6017,Thorn,,Maasgouw,Limburg,475,51.1626128,5.8427213,Adres + Postbus
2558,6019,Wessem,,Maasgouw,Limburg,475,51.160396,5.8814392,Adres + Postbus
2559,6020,Budel,,Cranendonck,Noord-Brabant,495,51.2568254,5.6004011,Postbus
2561,6023,Budel-Schoot,Schoot,Cranendonck,Noord-Brabant,495,51.250289,5.5666271,Adres
2562,6024,Budel-Dorplein,DORPLEIN,Cranendonck,Noord-Brabant,495,51.2363484,5.5880076,Adres
2563,6026,Maarheeze,,Cranendonck,Noord-Brabant,495,51.3103841,5.6148653,Adres + Postbus
2564,6027,Soerendonk,,Cranendonck,Noord-Brabant,495,51.3018545,5.5741425,Adres
2565,6028,Gastel,,Cranendonck,Noord-Brabant,495,51.2850098,5.5564143,Adres
2566,6029,Sterksel,,Heeze-Leende,Noord-Brabant,40,51.3506055,5.6118505,Adres
2567,6030,Nederweert,,Nederweert,Limburg,495,51.2836176,5.7475885,Postbus
2569,6034,Nederweert-Eind,Nederweert Eind;Eind,Nederweert,Limburg,495,51.276111,5.779722,Adres
2570,6035,Ospel,,Nederweert,Limburg,495,51.2995048,5.7861993,Adres + Postbus
2571,6037,Kelpen-Oler,Kelpen;Oler,Leudal,Limburg,495,51.2180484,5.8284007,Adres
2572,6039,Stramproy,,Weert,Limburg,495,51.1943225,5.722053,Adres + Postbus
2573,6040,Roermond,,Roermond,Limburg,475,51.1958494,5.9858348,Postbus
2579,6049,Herten,,Roermond,Limburg,475,51.181315,5.9624494,Adres + Postbus
2580,6050,Maasbracht,,Maasgouw,Limburg,475,51.1458591,5.891771,Postbus
2582,6060,Posterholt,,Roerdalen,Limburg,475,51.0690108,5.8510078,Postbus
2584,6063,Vlodrop,,Roerdalen,Limburg,475,51.1331277,6.0757908,Adres + Postbus
2585,6065,Montfort,,Roerdalen,Limburg,475,51.1260454,5.9476358,Adres
2586,6067,Linne,,Maasgouw,Limburg,475,51.155428,5.9405902,Adres + Postbus
2587,6070,Swalmen,,Roermond,Limburg,475,51.2382609,6.0507425,Postbus
2589,6074,Melick,,Roerdalen,Limburg,475,51.1572306,6.033625,Adres
2590,6075,Herkenbosch,,Roerdalen,Limburg,475,51.1564244,6.0584854,Adres
2591,6077,Sint Odilienberg,ST ODILIENBERG,Roerdalen,Limburg,475,51.15,6,Adres + Postbus
2592,6080,Haelen,,Leudal,Limburg,475,51.2385905,5.9533793,Postbus
2594,6082,Buggenum,,Leudal,Limburg,475,51.2323713,5.981036,Adres
2595,6083,Nunhem,,Leudal,Limburg,475,51.2453624,5.9609248,Adres
2596,6085,Horn,,Leudal,Limburg,475,51.2100669,5.9472027,Adres + Postbus
2597,6086,Neer,,Leudal,Limburg,475,51.259826,5.9893002,Adres
2598,6088,Roggel,,Leudal,Limburg,475,51.2625256,5.9225139,Adres
2599,6089,Heibloem,,Leudal,Limburg,475,51.3007315,5.8957599,Adres
2600,6091,Leveroy,LEVEROIJ,Nederweert,Limburg,495,51.2547991,5.8242896,Adres
2602,6093,Heythuysen,,Leudal,Limburg,475,51.2474835,5.9014274,Adres + Postbus
2603,6095,Baexem,,Leudal,Limburg,475,51.2246814,5.8800423,Adres
2604,6096,Grathem,,Leudal,Limburg,475,51.1941673,5.8575731,Adres
2605,6097,Heel,,Maasgouw,Limburg,475,51.1773069,5.8974233,Adres + Postbus
2606,6099,Beegden,,Maasgouw,Limburg,475,51.1896078,5.9178131,Adres + Postbus
2607,6100,Echt,,Echt-Susteren,Limburg,475,51.0989899,5.8807662,Postbus
2610,6104,Koningsbosch,,Echt-Susteren,Limburg,475,51.0512859,5.9583775,Adres
2611,6105,Maria Hoop,Mariahoop,Echt-Susteren,Limburg,475,51.091389,5.969444,Adres
2612,6107,Stevensweert,,Maasgouw,Limburg,475,51.13123,5.8456817,Adres
2613,6109,Oh en Laak,OHE EN LAAK,Maasgouw,Limburg,475,51.1166667,5.85,Adres
2614,6111,Sint Joost,ST JOOST,Echt-Susteren,Limburg,475,51.1063504,5.9068971,Adres
2616,6114,Susteren,,Echt-Susteren,Limburg,46,51.0640999,5.8527448,Adres + Postbus
2617,6116,Roosteren,,Echt-Susteren,Limburg,46,51.0827501,5.8159001,Adres
2618,6118,Nieuwstadt,,Echt-Susteren,Limburg,46,51.0368359,5.8618076,Adres
2619,6120,Born,,Sittard-Geleen,Limburg,46,50.7308383,5.8779229,Postbus
2621,6122,Buchten,,Sittard-Geleen,Limburg,46,51.0404326,5.8104448,Adres
2622,6123,Holtum,,Sittard-Geleen,Limburg,46,51.0484812,5.8240233,Adres
2623,6124,Papenhoven,,Sittard-Geleen,Limburg,46,51.040833,5.780556,Adres
2624,6125,Obbicht,,Sittard-Geleen,Limburg,46,51.0280231,5.7812383,Adres
2625,6127,Grevenbicht,,Sittard-Geleen,Limburg,46,51.0378003,5.774008,Adres + Postbus
2626,6129,Urmond,,Stein,Limburg,46,50.9904464,5.7769151,Adres
2627,6130,Sittard,,Sittard-Geleen,Limburg,46,50.99619,5.86902,Postbus
2635,6141,Limbricht,,Sittard-Geleen,Limburg,46,51.0127729,5.8369369,Adres
2636,6142,Einighausen,,Sittard-Geleen,Limburg,46,51.0022236,5.8266196,Adres
2637,6143,Guttecoven,,Sittard-Geleen,Limburg,46,51.0135741,5.8177077,Adres
2638,6151,Munstergeleen,,Sittard-Geleen,Limburg,46,50.9741745,5.8639537,Adres
2639,6153,Windraak,WINTRAAK,Sittard-Geleen,Limburg,46,50.9723785,5.8890634,Adres
2640,6155,Puth,,Schinnen,Limburg,46,50.9554323,5.8705487,Adres
2641,6160,Geleen,,Sittard-Geleen,Limburg,46,50.9504076,5.8324062,Postbus
2649,6170,Stein,,Stein,Limburg,46,50.9679065,5.768199,Postbus
2651,6174,Sweikhuizen,,Schinnen,Limburg,46,50.9533396,5.8458946,Adres
2652,6176,Spaubeek,,Beek,Limburg,46,50.9348612,5.8428501,Adres
2653,6181,Elsloo,,Stein,Limburg,46,50.9484656,5.7696738,Adres
2654,6190,Beek,Beek Lb,Beek,Limburg,46,50.9394539,5.7937326,Postbus
2657,6199,Maastricht-Airport,,Beek,Limburg,43,50.924444,5.781111,Adres + Postbus
2658,6200,Maastricht,,Maastricht,Limburg,43,50.8402418,5.7015598,Postbus
2680,6230,Meerssen,,Meerssen,Limburg,43,50.8849502,5.7536005,Postbus
2682,6235,Ulestraten,,Meerssen,Limburg,43,50.9052194,5.7806749,Adres
2683,6237,Moorveld,,Meerssen,Limburg,43,50.9192879,5.764185,Adres
2684,6240,Bunde,,Meerssen,Limburg,43,50.8608905,5.6902461,Postbus
2686,6243,Geulle,,Meerssen,Limburg,43,50.9219779,5.7493883,Adres
2687,6245,Eijsden,EYSDEN,Eijsden,Limburg,43,50.7773424,5.7077516,Adres + Postbus
2688,6247,Gronsveld,,Eijsden,Limburg,43,50.8093304,5.7316401,Adres
2689,6251,Eckelrade,,Margraten,Limburg,43,50.8081935,5.7783674,Adres
2691,6255,Noorbeek,,Margraten,Limburg,43,50.768969,5.8126918,Adres
2692,6261,Mheer,,Margraten,Limburg,43,50.7785433,5.7927004,Adres
2693,6262,Banholt,,Margraten,Limburg,43,50.7923877,5.8073292,Adres
2694,6265,Sint Geertruid,ST GEERTRUID,Margraten,Limburg,43,50.7956698,5.7653784,Adres
2695,6267,Cadier en Keer,,Margraten,Limburg,43,50.8283686,5.7661277,Adres + Postbus
2696,6268,Bemelen,,Margraten,Limburg,43,50.846974,5.7638236,Adres
2697,6269,Margraten,,Margraten,Limburg,43,50.8204632,5.8209934,Adres + Postbus
2698,6270,Gulpen,,Gulpen-Wittem,Limburg,43,50.8100161,5.8888138,Postbus
2700,6273,Ingber,,Gulpen-Wittem,Limburg,43,50.8182441,5.8596677,Adres
2701,6274,Reijmerstok,REYMERSTOK,Gulpen-Wittem,Limburg,43,50.8010119,5.8396199,Adres
2702,6276,Heijenrath,HEYENRATH,Gulpen-Wittem,Limburg,43,50.7761248,5.8742237,Adres
2703,6277,Slenaken,,Gulpen-Wittem,Limburg,43,50.7686548,5.8613458,Adres
2704,6278,Beutenaken,,Gulpen-Wittem,Limburg,43,50.7814337,5.8555215,Adres
2705,6281,Mechelen,,Gulpen-Wittem,Limburg,43,50.7953616,5.9247456,Adres
2706,6285,Epen,,Gulpen-Wittem,Limburg,43,50.7748368,5.9137339,Adres
2707,6286,Wittem,,Gulpen-Wittem,Limburg,43,50.8137818,5.9121234,Adres
2708,6287,Eys,,Gulpen-Wittem,Limburg,43,50.8257683,5.9349048,Adres
2709,6289,Elkenrade,,Gulpen-Wittem,Limburg,43,50.8410995,5.9183908,Adres
2710,6290,Vaals,,Vaals,Limburg,43,50.7707927,6.0187953,Postbus
2712,6294,Vijlen,VYLEN,Vaals,Limburg,43,50.7887847,5.9632976,Adres
2713,6295,Lemiers,,Vaals,Limburg,43,50.7854894,5.9924527,Adres
2716,6305,Schin op Geul,,Valkenburg aan de Geul,Limburg,43,50.8537836,5.873265,Adres
2717,6307,Scheulder,,Margraten,Limburg,43,50.8294318,5.8426081,Adres
2718,6311,Ransdaal,,Voerendaal,Limburg,43,50.8578128,5.8819227,Adres
2720,6321,Wijlre,WYLRE,Gulpen-Wittem,Limburg,43,50.8328661,5.89428,Adres
2721,6325,Berg en Terblijt,BERG EN TERBLYT,Valkenburg aan de Geul,Limburg,43,50.86112,5.78447,Adres
2722,6333,Schimmert,,Nuth,Limburg,45,50.9064579,5.8261927,Adres
2723,6336,Hulsberg,,Nuth,Limburg,45,50.889875,5.8578124,Adres
2724,6341,Walem,Walem (ged.),Valkenburg aan de Geul,Limburg,43,50.8642273,5.8711971,Adres
2726,6343,Klimmen,,Voerendaal,Limburg,45,50.8716769,5.8846898,Adres
2727,6351,Bocholtz,,Simpelveld,Limburg,45,50.8180412,6.0088551,Adres
2728,6353,Baneheide,,Simpelveld,Limburg,45,50.8183424,5.9753571,Adres
2729,6360,Nuth,,Nuth,Limburg,45,50.919009,5.8871214,Postbus
2731,6363,Wijnandsrade,WYNANDSRADE,Nuth,Limburg,45,50.9053628,5.8836304,Adres
2732,6365,Schinnen,,Schinnen,Limburg,46,50.9436467,5.8793607,Adres + Postbus
2733,6367,Voerendaal,,Voerendaal,Limburg,45,50.8725871,5.9253165,Adres + Postbus
2734,6369,Simpelveld,,Simpelveld,Limburg,45,50.8340269,5.9826108,Adres + Postbus
2735,6370,Landgraaf,,Landgraaf,Limburg,45,50.9052835,6.024469,Postbus
2740,6400,Heerlen,,Heerlen,Limburg,45,50.8853317,5.9764042,Postbus
2753,6430,Hoensbroek,,Heerlen,Limburg,45,50.9383579,5.9787478,Postbus
2757,6436,Amstenrade,,Schinnen,Limburg,46,50.9394805,5.9247853,Adres
2758,6438,Oirsbeek,,Schinnen,Limburg,46,50.9501105,5.9079467,Adres
2759,6439,Doenrade,,Schinnen,Limburg,46,50.9677447,5.9064088,Adres
2760,6440,Brunssum,,Brunssum,Limburg,45,50.9443284,5.9695188,Postbus
2767,6447,Merkelbeek,,Onderbanken,Limburg,46,50.9539439,5.9400246,Adres
2768,6450,Schinveld,,Onderbanken,Limburg,45,50.9822602,6.0045724,Postbus
2770,6454,Jabeek,,Onderbanken,Limburg,46,50.9812482,5.9408642,Adres
2771,6456,Bingelrade,,Onderbanken,Limburg,46,50.9762479,5.9261389,Adres
2772,6460,Kerkrade,,Kerkrade,Limburg,45,50.8647494,6.0652729,Postbus
2782,6471,Eygelshoven,,Kerkrade,Limburg,45,50.8920268,6.0591374,Adres
2783,6500,Nijmegen,NYMEGEN,Nijmegen,Gelderland,24,51.8469018,5.8659734,Postbus
2809,6550,Weurt,,Beuningen,Gelderland,24,51.8601965,5.8094841,Postbus
2811,6560,Groesbeek,,Groesbeek,Gelderland,24,51.7776679,5.9323548,Postbus
2814,6564,Heilig Landstichting,H LANDSTICHTING,Groesbeek,Gelderland,24,51.8144753,5.8893539,Adres
2815,6566,Millingen aan de Rijn,MILLINGEN AD RYN,Millingen aan de Rijn,Gelderland,481,51.8633,6.0475,Adres + Postbus
2816,6571,Berg en Dal,,Ubbergen,Gelderland,24,51.8115994,5.9254694,Adres
2818,6573,Beek-Ubbergen,,Ubbergen,Gelderland,24,51.8325697,5.9299505,Adres + Postbus
2819,6574,Ubbergen,,Ubbergen,Gelderland,24,51.8368067,5.9022384,Adres
2820,6575,Persingen,,Ubbergen,Gelderland,24,51.8410511,5.9181207,Adres
2821,6576,Ooij,,Ubbergen,Gelderland,24,51.8546481,5.9391535,Adres + Postbus
2822,6577,Erlecom,,Ubbergen,Gelderland,24,51.8480833,5.9612034,Adres
2823,6578,Leuth,,Ubbergen,Gelderland,24,51.8376223,5.9930785,Adres
2824,6579,Kekerdom,,Ubbergen,Gelderland,481,51.8646192,6.0094122,Adres
2825,6580,Malden,,Heumen,Gelderland,24,51.7961234,5.8257646,Postbus
2827,6582,Heumen,,Heumen,Gelderland,24,51.7645323,5.8431502,Adres
2828,6584,Molenhoek,,Mook en Middelaar,Limburg,24,51.7650181,5.8699691,Adres + Postbus
2829,6585,Mook,,Mook en Middelaar,Limburg,24,51.7514159,5.8834801,Adres + Postbus
2830,6586,Plasmolen,,Mook en Middelaar,Limburg,24,51.7358346,5.9251617,Adres
2831,6587,Middelaar,,Mook en Middelaar,Limburg,24,51.7247379,5.9156076,Adres
2832,6590,Gennep,,Gennep,Limburg,485,51.701983,5.9680414,Postbus
2834,6595,Ottersum,,Gennep,Limburg,485,51.7024505,5.9845826,Adres
2835,6596,Milsbeek,,Gennep,Limburg,485,51.7265999,5.9507431,Adres
2836,6598,Heijen,HEYEN,Gennep,Limburg,485,51.674561,5.9788072,Adres
2837,6599,Ven-Zelderheide,,Gennep,Limburg,485,51.7119985,6.0234434,Adres
2838,6600,Wijchen,WYCHEN,Wijchen,Gelderland,24,51.8084742,5.7276577,Postbus
2844,6606,Niftrik,,Wijchen,Gelderland,486,51.7964381,5.6712102,Adres
2845,6610,Overasselt,,Heumen,Gelderland,24,51.7615399,5.7856131,Postbus
2847,6612,Nederasselt,,Heumen,Gelderland,24,51.7721853,5.7434596,Adres
2848,6613,Balgoij,BALGOY,Wijchen,Gelderland,24,51.780278,5.713889,Adres
2849,6615,Leur,,Wijchen,Gelderland,24,51.8184636,5.6936586,Adres
2850,6616,Hernen,,Wijchen,Gelderland,487,51.8339481,5.6805759,Adres
2851,6617,Bergharen,,Wijchen,Gelderland,487,51.8504049,5.6661841,Adres + Postbus
2852,6620,Dreumel,,West Maas en Waal,Gelderland,487,51.8362556,5.486937,Postbus
2854,6624,Heerewaarden,,Maasdriel,Gelderland,487,51.8173181,5.3930495,Adres + Postbus
2856,6627,Maasbommel,,West Maas en Waal,Gelderland,487,51.8216389,5.534452,Adres
2857,6628,Altforst,,West Maas en Waal,Gelderland,487,51.8492801,5.565354,Adres
2858,6629,Appeltern,,West Maas en Waal,Gelderland,487,51.8321175,5.5846537,Adres
2859,6631,Horssen,,Druten,Gelderland,487,51.8551824,5.609271,Adres
2860,6634,Batenburg,,Wijchen,Gelderland,487,51.8224967,5.6295322,Adres
2861,6640,Beuningen,,Beuningen,Gelderland,24,51.8635875,5.7798237,Postbus
2864,6644,Ewijk,,Beuningen,Gelderland,487,51.869987,5.7374579,Adres
2865,6645,Winssen,,Beuningen,Gelderland,487,51.8817876,5.7067548,Adres
2866,6650,Druten,,Druten,Gelderland,487,51.888554,5.6046552,Postbus
2869,6653,Deest,,Druten,Gelderland,487,51.8892306,5.6660108,Adres
2871,6655,Puiflijk,PUIFLYK,Druten,Gelderland,487,51.8784055,5.5909275,Adres + Postbus
2872,6657,Boven-Leeuwen,BOVEN LEEUWEN,West Maas en Waal,Gelderland,487,51.885586,5.551554,Adres + Postbus
2873,6658,Beneden-Leeuwen,BENEDEN LEEUWEN,West Maas en Waal,Gelderland,487,51.8823027,5.5178903,Adres + Postbus
2874,6659,Wamel,,West Maas en Waal,Gelderland,487,51.8775456,5.4576816,Adres + Postbus
2878,6663,Lent,,Nijmegen,Gelderland,24,51.8620511,5.8671918,Adres + Postbus
2879,6665,Driel,,Overbetuwe,Gelderland,26,51.9621243,5.8119397,Adres + Postbus
2880,6666,Heteren,,Overbetuwe,Gelderland,26,51.9599741,5.7509005,Adres + Postbus
2881,6668,Randwijk,RANDWYK,Overbetuwe,Gelderland,488,51.9529593,5.709109,Adres
2882,6669,Dodewaard,,Neder-Betuwe,Gelderland,488,51.9105136,5.6568202,Adres + Postbus
2883,6670,Zetten,,Overbetuwe,Gelderland,488,51.9275855,5.7133445,Postbus
2885,6672,Hemmen,,Overbetuwe,Gelderland,488,51.9342706,5.6999306,Adres
2886,6673,Andelst,,Overbetuwe,Gelderland,488,51.9074859,5.7288373,Adres
2887,6674,Herveld,,Overbetuwe,Gelderland,488,51.9030519,5.7536219,Adres + Postbus
2888,6675,Valburg,,Overbetuwe,Gelderland,488,51.9108668,5.7881438,Adres + Postbus
2889,6676,Homoet,,Overbetuwe,Gelderland,481,51.933841,5.79026,Adres
2890,6677,Slijk-Ewijk,,Overbetuwe,Gelderland,481,51.8849709,5.7882905,Adres
2893,6680,Bemmel,,Lingewaard,Gelderland,481,51.8924102,5.8907121,Postbus
2895,6683,Ressen,,Nijmegen,Gelderland,481,51.8899741,5.8681436,Adres
2897,6685,Haalderen,,Lingewaard,Gelderland,481,51.8860922,5.92783,Adres
2898,6686,Doornenburg,,Lingewaard,Gelderland,481,51.8899909,5.9996818,Adres
2899,6687,Angeren,,Lingewaard,Gelderland,26,51.9163268,5.9568715,Adres
2900,6690,Gendt,,Lingewaard,Gelderland,481,51.8781292,5.9702398,Postbus
2902,6700,Wageningen,,Wageningen,Gelderland,317,51.9647622,5.6629452,Postbus
2912,6710,Ede,,Ede,Gelderland,318,52.0431065,5.6682725,Postbus
2921,6720,Bennekom,,Ede,Gelderland,318,52.0289479,5.559304,Postbus
2923,6731,Otterlo,,Ede,Gelderland,318,52.0996367,5.773453,Adres
2924,6732,Harskamp,,Ede,Gelderland,318,52.1348693,5.7495058,Adres
2925,6733,Wekerom,,Ede,Gelderland,318,52.1123738,5.7152647,Adres
2926,6740,Lunteren,,Ede,Gelderland,318,52.083613,5.6199265,Postbus
2928,6744,Ederveen,,Ede,Gelderland,318,52.0628171,5.5789161,Adres + Postbus
2929,6745,De Klomp,,Ede,Gelderland,318,52.0476361,5.5740299,Adres
2930,6800,Arnhem,,Arnhem,Gelderland,26,52.0099492,5.9066406,Adres + Postbus
2960,6850,Huissen,,Lingewaard,Gelderland,26,51.936359,5.9426836,Postbus
2963,6860,Oosterbeek,,Renkum,Gelderland,26,51.9863321,5.844909,Postbus
2966,6865,Doorwerth,,Renkum,Gelderland,26,51.9799552,5.7998237,Adres
2967,6866,Heelsum,,Renkum,Gelderland,317,51.9821438,5.752274,Adres + Postbus
2968,6870,Renkum,,Renkum,Gelderland,317,51.9759774,5.7931349,Postbus
2970,6874,Wolfheze,,Renkum,Gelderland,26,52.0024191,5.7861376,Adres
2971,6877,Deelen,,Ede,Gelderland,26,52.0667189,5.8940333,Adres
2976,6891,Rozendaal,,Rozendaal,Gelderland,26,52.0097855,5.9665074,Adres
2977,6900,Zevenaar,,Zevenaar,Gelderland,316,51.9285355,6.0753605,Postbus
2983,6909,Babberich,,Zevenaar,Gelderland,316,51.9067702,6.1121712,Adres + Postbus
2984,6911,Pannerden,,Rijnwaarden,Gelderland,316,51.8880305,6.0447439,Adres
2985,6913,Aerdt,,Rijnwaarden,Gelderland,316,51.8939934,6.083127,Adres
2986,6914,Herwen,,Rijnwaarden,Gelderland,316,51.8871911,6.1022394,Adres
2987,6915,Lobith,,Rijnwaarden,Gelderland,316,51.861895,6.1185933,Adres
2988,6916,Tolkamer,,Rijnwaarden,Gelderland,316,51.852073,6.1032046,Adres + Postbus
2990,6920,Duiven,,Duiven,Gelderland,316,51.948974,6.0245889,Postbus
2993,6923,Groessen,,Duiven,Gelderland,316,51.9319086,6.0291449,Adres
2994,6924,Loo,,Duiven,Gelderland,316,51.930351,5.9871029,Adres
2995,6930,Westervoort,,Westervoort,Gelderland,26,51.9622027,5.9677696,Postbus
2998,6940,Didam,,Montferland,Gelderland,316,51.9411214,6.1288097,Postbus
3001,6950,Dieren,,Rheden,Gelderland,313,52.0509992,6.1011131,Postbus
3005,6955,Ellecom,,Rheden,Gelderland,313,52.0317786,6.0874534,Adres
3006,6956,Spankeren,,Rheden,Gelderland,313,52.0580435,6.1125359,Adres
3007,6957,Laag-Soeren,Laag-Soeren (ged.);Laag Soeren,Rheden,Gelderland,313,52.0835588,6.0739664,Adres
3008,6960,Eerbeek,,Brummen,Gelderland,313,52.5329042,6.1127693,Postbus
3010,6964,Hall,,Brummen,Gelderland,313,52.1119999,6.1016524,Adres
3011,6970,Brummen,,Brummen,Gelderland,575,52.0886365,6.1470846,Postbus
3013,6974,Leuvenheim,,Brummen,Gelderland,575,52.0745753,6.1393956,Adres
3014,6975,Tonden,,Brummen,Gelderland,575,52.1379608,6.1323271,Adres
3015,6980,Doesburg,,Doesburg,Gelderland,313,52.015169,6.1336114,Postbus
3020,6986,Angerlo,,Zevenaar,Gelderland,313,51.9956681,6.1334407,Adres
3021,6987,Giesbeek,,Zevenaar,Gelderland,313,51.9937389,6.0707844,Adres
3022,6988,Lathum,,Zevenaar,Gelderland,313,51.9877312,6.0199814,Adres
3023,6990,Rheden,,Rheden,Gelderland,26,52.015792,6.024913,Postbus
3025,6994,De Steeg,,Rheden,Gelderland,26,52.0190867,6.0597786,Adres + Postbus
3026,6996,Drempt,,Bronckhorst,Gelderland,313,52.007799,6.1740024,Adres
3027,6997,Hoog-Keppel,HOOG KEPPEL,Bronckhorst,Gelderland,314,52.005582,6.2038641,Adres + Postbus
3028,6998,Laag-Keppel,LAAG KEPPEL,Bronckhorst,Gelderland,314,51.9969999,6.2240648,Adres
3029,6999,Hummelo,,Bronckhorst,Gelderland,314,52.0054488,6.2341555,Adres
3030,7000,Doetinchem,,Doetinchem,Gelderland,314,51.9663828,6.2886137,Postbus
3040,7011,Gaanderen,,Doetinchem,Gelderland,315,51.9302044,6.3477531,Adres
3041,7020,Zelhem,,Bronckhorst,Gelderland,314,51.9987779,6.3454761,Postbus
3043,7025,Halle,,Bronckhorst,Gelderland,314,51.9904752,6.4288122,Adres
3044,7030,Wehl,,Doetinchem,Gelderland,314,51.9614684,6.2098276,Postbus
3046,7035,Kilder,,Montferland,Gelderland,314,51.9375549,6.2321038,Adres
3047,7036,Loerbeek,,Montferland,Gelderland,316,51.9202429,6.1989397,Adres
3049,7038,Zeddam,,Montferland,Gelderland,314,51.9033324,6.2583142,Adres + Postbus
3050,7039,Stokkum,,Montferland,Gelderland,314,51.8774173,6.2225361,Adres
3051,7040,'s-Heerenberg,S HEERENBERG,Montferland,Gelderland,314,51.8746606,6.2455904,Postbus
3053,7044,Lengel,,Montferland,Gelderland,314,51.8861452,6.2667255,Adres
3054,7045,Azewijn,AZEWYN,Montferland,Gelderland,314,51.8869632,6.3056136,Adres
3055,7046,Vethuizen,,Montferland,Gelderland,314,51.9131842,6.300888,Adres
3056,7047,Braamt,,Montferland,Gelderland,314,51.9226581,6.2643586,Adres
3057,7048,Wijnbergen,WYNBERGEN,Montferland,Gelderland,314,51.9331305,6.2743088,Adres
3058,7050,Varsseveld,,Oude IJsselstreek,Gelderland,315,51.9791259,6.4392719,Postbus
3060,7054,Westendorp,,Oude IJsselstreek,Gelderland,315,51.9502975,6.4132311,Adres
3061,7055,Heelweg,,Oude IJsselstreek,Gelderland,315,51.971667,6.465556,Adres
3062,7060,Terborg,,Oude IJsselstreek,Gelderland,315,51.9198625,6.3604636,Postbus
3064,7064,Silvolde,,Oude IJsselstreek,Gelderland,315,51.9094896,6.3849034,Adres + Postbus
3065,7065,Sinderen,,Oude IJsselstreek,Gelderland,315,51.9045837,6.4611313,Adres
3066,7070,Ulft,,Oude IJsselstreek,Gelderland,315,51.89014,6.38044,Postbus
3068,7075,Etten,,Oude IJsselstreek,Gelderland,315,51.9158139,6.3387627,Adres
3069,7076,Varsselder-Veldhunten,VARSSELDER VELDH;Varsselder,Oude IJsselstreek,Gelderland,315,51.8835365,6.3441366,Adres
3070,7077,Netterden,,Oude IJsselstreek,Gelderland,315,51.8560488,6.3138811,Adres
3071,7078,Megchelen,,Oude IJsselstreek,Gelderland,315,51.8386731,6.3935931,Adres
3072,7080,Gendringen,,Oude IJsselstreek,Gelderland,315,51.8734055,6.374097,Postbus
3074,7083,Voorst,Voorst Gendringen,Oude IJsselstreek,Gelderland,315,51.8764719,6.4163392,Adres
3075,7084,Breedenbroek,,Oude IJsselstreek,Gelderland,315,51.8757895,6.4692446,Adres
3076,7090,Dinxperlo,,Aalten,Gelderland,315,51.8614859,6.487853,Postbus
3078,7095,De Heurne,,Aalten,Gelderland,315,51.8894094,6.4912905,Adres
3079,7100,Winterswijk,WINTERSWYK,Winterswijk,Gelderland,543,51.9725966,6.7182648,Postbus
3083,7104,Winterswijk Meddo,Winterswyk Meddo;Meddo,Winterswijk,Gelderland,543,52.0126958,6.7049291,Adres
3084,7105,Winterswijk Huppel,Huppel,Winterswijk,Gelderland,543,52.002875,6.7585034,Adres
3085,7106,Winterswijk Ratum,Ratum,Winterswijk,Gelderland,543,51.9769898,6.8099513,Adres
3086,7107,Winterswijk Kotten,Kotten,Winterswijk,Gelderland,543,51.9384239,6.7698806,Adres
3087,7108,Winterswijk Woold,Woold,Winterswijk,Gelderland,543,51.925388,6.7193026,Adres
3088,7109,Winterswijk Miste,Winterswyk Miste;Miste,Winterswijk,Gelderland,543,51.9444578,6.6601764,Adres
3089,7113,Winterswijk Henxel,Henxel,Winterswijk,Gelderland,543,51.9819552,6.7558951,Adres
3090,7115,Winterswijk Brinkheurne,Brinkheurne,Winterswijk,Gelderland,543,51.9504426,6.7457105,Adres
3091,7119,Winterswijk Corle,Corle,Winterswijk,Gelderland,543,51.9633551,6.6516469,Adres
3092,7120,Aalten,,Aalten,Gelderland,543,51.9273137,6.581382,Postbus
3096,7125,Heurne,,Aalten,Gelderland,543,52.014433,6.4405166,Adres
3097,7126,Bredevoort,,Aalten,Gelderland,543,51.9421422,6.6184985,Adres
3098,7130,Lichtenvoorde,,Oost Gelre,Gelderland,544,51.9941586,6.5880118,Postbus
3101,7134,Vragender,,Oost Gelre,Gelderland,544,51.986733,6.6117406,Adres
3102,7135,Harreveld,,Oost Gelre,Gelderland,544,51.9802834,6.5144451,Adres
3103,7136,Zieuwent,,Oost Gelre,Gelderland,544,52.0034671,6.5196681,Adres
3104,7137,Lievelde,,Oost Gelre,Gelderland,544,52.0095187,6.5947685,Adres
3105,7140,Groenlo,,Oost Gelre,Gelderland,544,52.04102,6.61924,Postbus
3108,7150,Eibergen,,Berkelland,Gelderland,545,52.10221,6.64713,Postbus
3111,7156,Beltrum,,Berkelland,Gelderland,544,52.0680567,6.5634316,Adres + Postbus
3112,7157,Rekken,,Berkelland,Gelderland,545,52.0941369,6.723281,Adres
3113,7160,Neede,,Berkelland,Gelderland,545,52.1168296,6.5307119,Postbus
3115,7165,Rietmolen,,Berkelland,Gelderland,545,52.1406755,6.6627635,Adres
3116,7200,Zutphen,,Zutphen,Gelderland,575,52.1580835,6.2064546,Postbus
3124,7211,Eefde,,Lochem,Gelderland,575,52.1640328,6.2314647,Adres
3125,7213,Gorssel,,Lochem,Gelderland,575,52.201424,6.2011394,Adres + Postbus
3126,7214,Epse,,Lochem,Gelderland,575,52.2250088,6.2020898,Adres
3127,7215,Joppe,,Lochem,Gelderland,575,52.208341,6.2307681,Adres
3128,7216,Kring van Dorth,,Lochem,Gelderland,573,52.2205894,6.2680259,Adres
3129,7217,Harfsen,,Lochem,Gelderland,573,52.2072171,6.2973588,Adres
3130,7218,Almen,,Lochem,Gelderland,575,52.1579224,6.3023448,Adres
3131,7220,Steenderen,,Bronckhorst,Gelderland,575,52.0633705,6.1877242,Postbus
3133,7223,Baak,,Bronckhorst,Gelderland,575,52.0762516,6.2252849,Adres
3134,7224,Rha,,Bronckhorst,Gelderland,575,52.0540092,6.1451152,Adres
3135,7225,Olburgen,,Bronckhorst,Gelderland,575,52.0456583,6.123997,Adres
3136,7226,Bronkhorst,,Bronckhorst,Gelderland,575,52.0757855,6.1809748,Adres
3137,7227,Toldijk,TOLDYK,Bronckhorst,Gelderland,575,52.053962,6.221237,Adres
3138,7230,Warnsveld,,Zutphen,Gelderland,575,52.1330792,6.2893337,Postbus
3141,7233,Vierakker,,Bronckhorst,Gelderland,575,52.1075872,6.2350546,Adres
3142,7234,Wichmond,,Bronckhorst,Gelderland,575,52.0900691,6.2596307,Adres
3143,7240,Lochem,,Lochem,Gelderland,573,52.1616213,6.4151762,Adres + Postbus
3146,7244,Barchem,,Lochem,Gelderland,573,52.1242208,6.4486221,Adres
3148,7250,Vorden,,Bronckhorst,Gelderland,575,52.1012912,6.3223282,Postbus
3150,7255,Hengelo,Hengelo Gld,Bronckhorst,Gelderland,575,52.0520215,6.3113901,Adres + Postbus
3151,7256,Keijenborg,KEYENBORG,Bronckhorst,Gelderland,575,52.0291979,6.2977603,Adres
3152,7260,Ruurlo,,Berkelland,Gelderland,573,52.0788928,6.4449674,Postbus
3154,7263,Marienvelde,MARIENVELDE,Oost Gelre,Gelderland,544,52.0166667,6.4666667,Adres
3155,7270,Borculo,,Berkelland,Gelderland,545,52.1146148,6.5243397,Postbus
3157,7273,Haarlo,,Berkelland,Gelderland,545,52.111698,6.5803627,Adres
3158,7274,Geesteren,,Berkelland,Gelderland,545,52.1388797,6.5258544,Adres
3159,7275,Gelselaar,,Berkelland,Gelderland,545,52.1701382,6.5244158,Adres
3160,7300,Apeldoorn,,Apeldoorn,Gelderland,55,52.2205307,5.988588,Postbus
3187,7339,Ugchelen,,Apeldoorn,Gelderland,55,52.1771238,5.8931714,Adres
3188,7341,Beemte Broekland,Beemte-Broekland;Beemte,Apeldoorn,Gelderland,55,52.255833,5.99,Adres
3189,7345,Wenum Wiesel,Wenum-Wiesel;Wenum,Apeldoorn,Gelderland,55,52.2446684,5.9278042,Adres
3190,7346,Hoog Soeren,,Apeldoorn,Gelderland,55,52.205141,5.8655143,Adres
3191,7348,Radio Kootwijk,,Apeldoorn,Gelderland,55,52.1745753,5.827017,Adres
3192,7350,Hoenderloo,,Ede,Gelderland,55,52.1182068,5.8777855,Postbus
3195,7360,Beekbergen,,Apeldoorn,Gelderland,55,52.1370377,6.0024405,Postbus
3197,7364,Lieren,,Apeldoorn,Gelderland,55,52.1622894,5.9887781,Adres
3198,7370,Loenen,,Apeldoorn,Gelderland,55,52.1291347,6.0315049,Postbus
3200,7380,Klarenbeek,,Voorst,Gelderland,55,52.1847318,6.072406,Postbus
3204,7384,Wilp,,Voorst,Gelderland,571,52.2192375,6.1515414,Adres
3205,7390,Twello,,Voorst,Gelderland,571,52.2505913,6.1032549,Postbus
3208,7395,Teuge,,Voorst,Gelderland,55,52.2354487,6.0489772,Adres
3209,7396,Terwolde,,Voorst,Gelderland,571,52.2836031,6.0990234,Adres + Postbus
3210,7397,Nijbroek,NYBROEK,Voorst,Gelderland,571,52.2917672,6.0617326,Adres
3211,7399,Empe,,Brummen,Gelderland,575,52.1552704,6.1410918,Adres
3212,7400,Deventer,,Deventer,Overijssel,570,52.2515782,6.1556741,Postbus
3232,7429,Colmschate,,Deventer,Overijssel,570,52.248611,6.218333,Adres
3233,7430,Diepenveen,,Deventer,Overijssel,570,52.3163556,6.1224717,Postbus
3235,7433,Schalkhaar,,Deventer,Overijssel,570,52.268486,6.1940083,Adres
3236,7434,Lettele,,Deventer,Overijssel,570,52.2765024,6.2719909,Adres
3237,7435,Okkenbroek,,Deventer,Overijssel,570,52.2983662,6.320483,Adres
3238,7437,Bathmen,,Deventer,Overijssel,570,52.2503032,6.2860997,Adres + Postbus
3239,7439,Steenenkamer,,Voorst,Gelderland,570,52.2440677,6.1489797,Adres
3240,7440,Nijverdal,NYVERDAL,Hellendoorn,Overijssel,548,52.36435,6.4605672,Postbus
3244,7447,Hellendoorn,,Hellendoorn,Overijssel,548,52.3870446,6.4542947,Adres
3245,7448,Haarle,,Tubbergen,Overijssel,548,52.359722,6.380278,Adres
3246,7450,Holten,,Rijssen-Holten,Overijssel,548,52.2824387,6.4210583,Postbus
3248,7460,Rijssen,RYSSEN,Rijssen-Holten,Overijssel,548,52.2824387,6.4210583,Adres + Postbus
3252,7466,Zuna,,Wierden,Overijssel,548,52.3296389,6.5084591,Adres
3253,7467,Notter,,Wierden,Overijssel,548,52.333679,6.5193307,Adres
3254,7468,Enter,,Wierden,Overijssel,547,52.294847,6.5780796,Adres + Postbus
3255,7470,Goor,,Hof van Twente,Overijssel,547,52.3560394,6.9546341,Postbus
3258,7475,Markelo,,Hof van Twente,Overijssel,547,52.2318971,6.5000676,Adres + Postbus
3259,7478,Diepenheim,,Hof van Twente,Overijssel,547,52.200578,6.5579901,Adres
3260,7480,Haaksbergen,,Haaksbergen,Overijssel,53,52.1683937,6.7169852,Postbus
3264,7490,Delden,,Hof van Twente,Overijssel,74,52.26275,6.71243,Postbus
3266,7495,Ambt Delden,,Hof van Twente,Overijssel,74,52.2707575,6.6395438,Adres
3267,7496,Hengevelde,,Hof van Twente,Overijssel,547,52.1973319,6.6395278,Adres
3268,7497,Bentelo,,Hof van Twente,Overijssel,547,52.2253675,6.6836861,Adres
3269,7500,Enschede,,Enschede,Overijssel,53,52.204661,6.8812288,Postbus
3305,7561,Deurningen,,Dinkelland,Overijssel,74,52.3000363,6.8369416,Adres
3307,7570,Oldenzaal,,Oldenzaal,Overijssel,541,52.312599,6.930282,Postbus
3315,7580,Losser,,Losser,Overijssel,53,52.2630065,7.0054757,Postbus
3318,7585,Glane,,Losser,Overijssel,53,52.233839,7.0033132,Adres
3319,7586,Overdinkel,,Losser,Overijssel,53,52.2402256,7.0335926,Adres + Postbus
3320,7587,De Lutte,,Losser,Overijssel,541,52.3149047,6.9874149,Adres
3322,7590,Denekamp,,Dinkelland,Overijssel,541,52.3744014,7.0061041,Postbus
3324,7595,Weerselo,,Dinkelland,Overijssel,541,52.3514479,6.8540934,Adres + Postbus
3326,7597,Saasveld,,Dinkelland,Overijssel,74,52.331452,6.8074325,Adres
3327,7600,Almelo,,Almelo,Overijssel,546,52.3578423,6.6624587,Adres + Postbus
3338,7611,Aadorp,,Almelo,Overijssel,546,52.37416,6.6289088,Adres
3339,7614,Mariaparochie,MARIA PAROCHIE,Tubbergen,Overijssel,546,52.3802348,6.7069399,Adres
3340,7615,Harbrinkhoek,,Tubbergen,Overijssel,546,52.3850724,6.7205855,Adres
3341,7620,Borne,,Borne,Overijssel,74,52.3002495,6.7572774,Postbus
3345,7625,Zenderen,,Borne,Overijssel,74,52.3231896,6.7258119,Adres
3346,7626,Hertme,,Borne,Overijssel,74,52.3201799,6.7601777,Adres
3347,7627,Bornerbroek,,Almelo,Overijssel,74,52.3085181,6.655053,Adres
3348,7630,Ootmarsum,,Dinkelland,Overijssel,541,52.4080602,6.8974551,Postbus
3350,7634,Tilligte,,Dinkelland,Overijssel,541,52.4046707,6.9503282,Adres
3351,7635,Lattrop-Breklenkamp,Lattrop,Dinkelland,Overijssel,541,52.426667,6.975833,Adres
3352,7636,Agelo,,Dinkelland,Overijssel,541,52.3925,6.886111,Adres
3353,7637,Oud-Ootmarsum,OUD OOTMARSUM,Dinkelland,Overijssel,541,52.4180102,6.9089293,Adres
3354,7638,Nutter,,Dinkelland,Overijssel,541,52.4229625,6.8807226,Adres
3355,7640,Wierden,,Wierden,Overijssel,546,52.3557835,6.5928269,Postbus
3358,7645,Hoge Hexel,HOOGE HEXEL,Wierden,Overijssel,546,52.3963222,6.5641148,Adres
3359,7650,Tubbergen,,Tubbergen,Overijssel,546,52.4081486,6.7805151,Postbus
3361,7661,Vasse,,Tubbergen,Overijssel,541,52.4347951,6.831258,Adres
3362,7662,Hezingen,,Tubbergen,Overijssel,541,52.44141,6.8567959,Adres
3363,7663,Mander,,Tubbergen,Overijssel,541,52.4451854,6.8260297,Adres
3364,7664,Manderveen,,Tubbergen,Overijssel,541,52.4453261,6.7781231,Adres
3365,7665,Albergen,,Tubbergen,Overijssel,546,52.3732628,6.7636425,Adres
3366,7666,Fleringen,,Tubbergen,Overijssel,546,52.3806059,6.8048226,Adres
3367,7667,Reutum,,Tubbergen,Overijssel,541,52.3910739,6.8458257,Adres
3369,7670,Vriezenveen,,Twenterand,Overijssel,546,52.412255,6.6253198,Postbus
3372,7675,Bruinehaar,,Twenterand,Overijssel,546,52.4700667,6.7053984,Adres
3373,7676,Westerhaar-Vriezenveensewijk,Westerhaar Vriezenveensewijk;Westerhaar,Twenterand,Overijssel,546,52.4474666,6.6340956,Adres
3375,7679,Langeveen,,Tubbergen,Overijssel,546,52.4688342,6.7122981,Adres
3376,7680,Vroomshoop,,Twenterand,Overijssel,546,52.4634837,6.5272757,Postbus
3378,7683,Den Ham,,Twenterand,Overijssel,546,52.4643982,6.4942602,Adres + Postbus
3379,7685,Beerzerveld,,Ommen,Overijssel,523,52.4931864,6.5751177,Adres
3380,7686,Geerdijk,,,Overijssel,546,52.473871,6.5361971,Onbekend
3381,7687,Daarlerveen,,Hellendoorn,Overijssel,546,52.4427788,6.5770881,Adres
3382,7688,Daarle,,Hellendoorn,Overijssel,546,52.4351093,6.536381,Adres
3383,7691,Bergentheim,,Hardenberg,Overijssel,523,52.5267308,6.6147783,Adres
3384,7692,Marienberg,MARIENBERG,Hardenberg,Overijssel,523,52.5166667,6.5666667,Adres
3385,7693,Sibculo,,Hardenberg,Overijssel,523,52.4819795,6.6370606,Adres
3386,7694,Kloosterhaar,,Hardenberg,Overijssel,523,52.4952797,6.6701002,Adres
3387,7695,Bruchterveld,,Hardenberg,Overijssel,523,52.5300436,6.6628427,Adres
3388,7696,Brucht,,Hardenberg,Overijssel,523,52.5517272,6.6095023,Adres
3389,7700,Dedemsvaart,,Hardenberg,Overijssel,523,52.6045875,6.4518059,Postbus
3392,7705,Drogteropslagen,,De Wolden,Drenthe,523,52.6224364,6.4977465,Adres
3393,7707,Balkbrug,,Hardenberg,Overijssel,523,52.6005467,6.391224,Adres
3394,7710,Nieuwleusen,,Dalfsen,Overijssel,529,52.5921271,6.2820886,Postbus
3396,7715,Punthorst,,Staphorst,Overijssel,529,52.613889,6.263333,Adres
3397,7720,Dalfsen,,Dalfsen,Overijssel,529,52.5030365,6.2577077,Postbus
3400,7730,Ommen,,Ommen,Overijssel,529,52.5258675,6.4237139,Adres + Postbus
3402,7734,Vilsteren,,Ommen,Overijssel,529,52.5109849,6.3520644,Adres
3403,7735,Arrien,ARRIEN,Ommen,Overijssel,529,52.5333333,6.45,Adres
3404,7736,Beerze,,Ommen,Overijssel,523,52.5136479,6.5279649,Adres
3405,7737,Stegeren,,Ommen,Overijssel,529,52.5236417,6.508687,Adres
3406,7738,Witharen,,Ommen,Overijssel,523,52.5580135,6.3958443,Adres
3407,7739,Vinkenbuurt,,Ommen,Overijssel,523,52.5786768,6.3358125,Adres
3408,7740,Coevorden,,Coevorden,Drenthe,524,52.6668238,6.7438055,Postbus
3411,7751,Dalen,,Coevorden,Drenthe,524,52.6994032,6.7567822,Adres
3412,7753,Dalerpeel,,Coevorden,Drenthe,524,52.6795361,6.6596398,Adres
3413,7754,Wachtum,,Coevorden,Drenthe,524,52.7236641,6.7495309,Adres
3414,7755,Dalerveen,,Coevorden,Drenthe,524,52.6950496,6.8099187,Adres
3415,7756,Stieltjeskanaal,,Coevorden,Drenthe,524,52.6748679,6.8258857,Adres
3416,7760,Schoonebeek,,Emmen,Drenthe,524,52.6621731,6.8828506,Postbus
3418,7764,Zandpol,,Emmen,Drenthe,591,52.6942061,6.8665361,Adres
3419,7765,Weiteveen,,Emmen,Drenthe,524,52.6714283,6.9988843,Adres
3420,7766,Nieuw-Schoonebeek,NIEUW SCHOONEBEEK,Emmen,Drenthe,524,52.646371,6.9859122,Adres
3421,7770,Hardenberg,,Hardenberg,Overijssel,523,52.5734115,6.6195476,Postbus
3425,7775,Lutten,,Hardenberg,Overijssel,523,52.6111248,6.5735742,Adres
3426,7776,Slagharen,,Hardenberg,Overijssel,523,52.6268548,6.5571307,Adres
3427,7777,Schuinesloot,,Hardenberg,Overijssel,523,52.6447125,6.5526705,Adres
3428,7778,Loozen,,Hardenberg,Overijssel,524,52.5936784,6.6654677,Adres
3429,7779,Holthone,,Hardenberg,Overijssel,524,52.6412029,6.6841063,Adres
3430,7780,De Krim,,Hardenberg,Overijssel,524,52.633175,6.6427718,Postbus
3433,7783,Gramsbergen,,Hardenberg,Overijssel,524,52.6112646,6.674114,Adres + Postbus
3434,7784,Ane,,Hardenberg,Overijssel,524,52.613657,6.6530537,Adres
3435,7785,Anevelde,,Hardenberg,Overijssel,524,52.5975062,6.6496078,Adres
3436,7786,Den Velde,,Hardenberg,Overijssel,524,52.6003485,6.6914457,Adres
3437,7787,Holtheme,,Hardenberg,Overijssel,524,52.6132395,6.6916399,Adres
3438,7788,Anerveen,,Hardenberg,Overijssel,524,52.6314083,6.6572574,Adres
3439,7791,Radewijk,RADEWYK,Hardenberg,Overijssel,523,52.570246,6.7106212,Adres
3440,7792,Venebrugge,,Hardenberg,Overijssel,523,52.5605572,6.6737839,Adres
3441,7793,Hoogenweg,,Hardenberg,Overijssel,523,52.5667895,6.6617967,Adres
3442,7794,Rheeze,,Hardenberg,Overijssel,523,52.5468903,6.581385,Adres
3443,7795,Diffelen,,Hardenberg,Overijssel,523,52.5238919,6.5586442,Adres
3444,7796,Heemserveen,,Hardenberg,Overijssel,523,52.586265,6.5806667,Adres
3445,7797,Rheezerveen,,Hardenberg,Overijssel,523,52.569017,6.5311769,Adres
3446,7798,Collendoorn,,Hardenberg,Overijssel,523,52.5942909,6.5958059,Adres
3447,7800,Emmen,,Emmen,Drenthe,591,52.7845481,6.8930276,Postbus
3462,7831,Nieuw-Weerdinge,NIEUW WEERDINGE,Emmen,Drenthe,591,52.8567203,6.9875144,Adres
3463,7833,Nieuw-Amsterdam,NIEUW AMSTERDAM,Emmen,Drenthe,591,52.7145064,6.863239,Adres + Postbus
3464,7841,Sleen,,Coevorden,Drenthe,591,52.7756717,6.8023989,Adres
3465,7842,Diphoorn,,Coevorden,Drenthe,591,52.7700627,6.8197339,Adres
3466,7843,Erm,,Coevorden,Drenthe,591,52.75,6.816667,Adres
3467,7844,Veenoord,,Emmen,Drenthe,591,52.7145189,6.845464,Adres
3468,7845,Holsloot,,Coevorden,Drenthe,591,52.7282157,6.8023629,Adres
3469,7846,Noord-Sleen,NOORD SLEEN,Coevorden,Drenthe,591,52.7918785,6.8022555,Adres
3470,7847,'t Haantje,T HAANTJE,Coevorden,Drenthe,591,52.8143455,6.8220143,Adres
3471,7848,Schoonoord,,Coevorden,Drenthe,591,52.8463259,6.756837,Adres + Postbus
3472,7849,De Kiel,,Coevorden,Drenthe,591,52.8633699,6.7316824,Adres
3473,7851,Zweeloo,,Coevorden,Drenthe,591,52.7943878,6.7306765,Adres
3474,7852,Wezup,,Coevorden,Drenthe,591,52.8120962,6.719235,Adres
3475,7853,Wezuperbrug,,Coevorden,Drenthe,591,52.8404098,6.7206171,Adres
3476,7854,Aalden,,Coevorden,Drenthe,591,52.7918073,6.7175711,Adres + Postbus
3477,7855,Meppen,,Coevorden,Drenthe,591,52.7822588,6.6948796,Adres
3478,7856,Benneveld,,Coevorden,Drenthe,591,52.776578,6.7461816,Adres
3479,7858,Eeserveen,EESERVEEN BORGER,Borger-Odoorn,Drenthe,599,52.8724234,6.761826,Adres
3481,7861,Oosterhesselen,,Coevorden,Drenthe,524,52.757589,6.7173263,Adres
3482,7863,Gees,,Coevorden,Drenthe,524,52.7495746,6.6910798,Adres
3483,7864,Zwinderen,,Coevorden,Drenthe,524,52.7266049,6.6765411,Adres
3484,7871,Klijndijk,,Borger-Odoorn,Drenthe,591,52.8304724,6.857936,Adres
3485,7872,Valthe,,Borger-Odoorn,Drenthe,591,52.8454306,6.8941775,Adres
3486,7873,Odoorn,,Borger-Odoorn,Drenthe,591,52.8505215,6.8470359,Adres
3487,7874,Odoornerveen,,Borger-Odoorn,Drenthe,591,52.843806,6.7865982,Adres
3488,7875,Exloo,,Borger-Odoorn,Drenthe,591,52.8826954,6.8648949,Adres
3489,7876,Valthermond,,Borger-Odoorn,Drenthe,599,52.8751593,6.948558,Adres + Postbus
3490,7877,Tweede Valthermond,,Borger-Odoorn,Drenthe,599,52.8902525,7.0254193,Adres
3491,7881,Emmer-Compascuum,EMMER COMPASCUUM;EMMER COMPAS,Emmen,Drenthe,591,52.8117839,7.0457254,Adres
3492,7884,Barger-Compascuum,BARGER COMPASCUUM,Emmen,Drenthe,591,52.7548724,7.0416603,Adres
3493,7885,Nieuw-Dordrecht,NIEUW DORDRECHT,Emmen,Drenthe,591,52.7485136,6.9678617,Adres
3494,7887,Erica,,Emmen,Drenthe,591,52.7103574,6.9281865,Adres
3495,7889,Klazienaveen-Noord,,Emmen,Drenthe,592,52.7719191,7.0020222,Adres
3496,7890,Klazienaveen,,Emmen,Drenthe,591,52.7151892,6.969668,Postbus
3499,7894,Zwartemeer,,Emmen,Drenthe,591,52.7201947,7.0416848,Adres + Postbus
3500,7895,Roswinkel,,Emmen,Drenthe,591,52.8375134,7.0388792,Adres
3501,7900,Hoogeveen,,Hoogeveen,Drenthe,528,52.7259869,6.4749354,Postbus
3511,7911,Nieuweroord,,Hoogeveen,Drenthe,528,52.7213458,6.5791028,Adres
3513,7913,Hollandscheveld,,Hoogeveen,Drenthe,528,52.7051845,6.5394136,Adres + Postbus
3514,7914,Noordscheschut,,Hoogeveen,Drenthe,528,52.7237546,6.5356,Adres + Postbus
3515,7915,Alteveer,Alteveer Dr,Hoogeveen,Drenthe,528,52.6827085,6.5007462,Adres
3516,7916,Elim,,Hoogeveen,Drenthe,528,52.6813088,6.5800537,Adres
3517,7917,Geesbrug,,Coevorden,Drenthe,524,52.727147,6.6343282,Adres
3518,7918,Nieuwlande,,Hoogeveen,Drenthe,528,52.6951862,6.6101208,Adres
3519,7920,Zuidwolde,,De Wolden,Drenthe,528,52.6648766,6.4396004,Postbus
3521,7924,Veeningen,,De Wolden,Drenthe,528,52.6694862,6.3713321,Adres
3522,7925,Linde,,De Wolden,Drenthe,528,52.6394212,6.4477951,Adres
3523,7926,Kerkenveld,,De Wolden,Drenthe,528,52.6674899,6.5046801,Adres
3525,7929,Nieuwlande Coevorden,,Coevorden,Drenthe,528,52.7044659,6.6408586,Adres
3526,7931,Fluitenberg,,Hoogeveen,Drenthe,528,52.7360087,6.4520253,Adres
3527,7932,Echten,,De Wolden,Drenthe,528,52.7120531,6.3989238,Adres
3528,7933,Pesse,,Hoogeveen,Drenthe,528,52.7722444,6.4501941,Adres
3529,7934,Stuifzand,,Hoogeveen,Drenthe,528,52.7474721,6.49875,Adres
3530,7935,Eursinge,,De Wolden,Drenthe,528,52.7770085,6.4440406,Adres
3531,7936,Tiendeveen,,Hoogeveen,Drenthe,528,52.74672,6.5437401,Adres
3532,7938,Nieuw Balinge,NIEUW-BALINGE,Midden-Drenthe,Drenthe,528,52.7673402,6.6056588,Adres
3533,7940,Meppel,,Meppel,Drenthe,522,52.6980793,6.1903523,Postbus
3538,7946,Wanneperveen,,Steenwijkerland,Overijssel,522,52.7038368,6.1235013,Adres
3539,7948,Nijeveen,NYEVEEN,Meppel,Drenthe,522,52.7316875,6.1636226,Adres
3540,7949,Rogat,,Meppel,Drenthe,522,52.6881001,6.2656138,Adres
3541,7950,Staphorst,,Staphorst,Overijssel,522,52.6440543,6.2108429,Postbus
3543,7954,Rouveen,,Staphorst,Overijssel,522,52.6158208,6.1790162,Adres
3544,7955,IJhorst,YHORST,Staphorst,Overijssel,522,52.6593004,6.2925301,Adres
3545,7957,De Wijk,DE WYK,De Wolden,Drenthe,522,52.6742848,6.2922178,Adres + Postbus
3546,7958,Koekange,,De Wolden,Drenthe,522,52.7000927,6.3184641,Adres
3547,7961,Ruinerwold,,De Wolden,Drenthe,522,52.7224272,6.2477691,Adres
3548,7963,Ruinen,,De Wolden,Drenthe,522,52.763737,6.3599286,Adres + Postbus
3549,7964,Ansen,,De Wolden,Drenthe,522,52.7824535,6.3341311,Adres
3551,7966,De Schiphorst,,Meppel,Drenthe,522,52.6819564,6.2454234,Adres
3552,7970,Havelte,,Westerveld,Drenthe,521,52.769872,6.2327874,Postbus
3554,7973,Darp,,Westerveld,Drenthe,521,52.7748364,6.2036734,Adres
3555,7974,Havelterberg,,Westerveld,Drenthe,521,52.7730409,6.176729,Adres
3556,7975,Uffelte,,Westerveld,Drenthe,521,52.7905962,6.2781653,Adres
3557,7981,Diever,,Westerveld,Drenthe,521,52.8547376,6.3177419,Adres
3558,7983,Wapse,,Westerveld,Drenthe,521,52.8576344,6.2655306,Adres
3559,7984,Dieverbrug,,Westerveld,Drenthe,521,52.846944,6.340833,Adres
3560,7985,Geeuwenbrug,,Westerveld,Drenthe,521,52.872778,6.370278,Adres
3561,7986,Wittelte,,Westerveld,Drenthe,521,52.8294057,6.3073113,Adres
3562,7990,Dwingeloo,,Westerveld,Drenthe,521,52.8357516,6.3634012,Postbus
3564,8000,Zwolle,,Zwolle,Overijssel,38,52.5177547,6.1002817,Postbus
3593,8050,Hattem,,Hattem,Gelderland,38,52.4743729,6.0695368,Postbus
3596,8055,Laag Zuthem,,Raalte,Overijssel,529,52.4588197,6.1741547,Adres
3597,8060,Hasselt,,Zwartewaterland,Overijssel,38,52.5951263,6.0931171,Postbus
3599,8064,Zwartsluis,,Zwartewaterland,Overijssel,38,52.6408691,6.0703159,Adres
3600,8066,Belt-Schutsloot,Belt,Steenwijkerland,Overijssel,38,52.6710661,6.0640437,Adres
3601,8070,Nunspeet,,Nunspeet,Gelderland,341,52.376673,5.7840898,Adres + Postbus
3604,8075,Elspeet,,Nunspeet,Gelderland,577,52.2924294,5.7876983,Adres + Postbus
3605,8076,Vierhouten,,Nunspeet,Gelderland,577,52.332086,5.8297801,Adres
3606,8077,Hulshorst,,Nunspeet,Gelderland,341,52.3624138,5.7252759,Adres
3608,8080,Elburg,,Elburg,Gelderland,525,52.4481735,5.8365337,Postbus
3611,8084,'t Harde,T HARDE,Elburg,Gelderland,525,52.4154103,5.8839833,Adres + Postbus
3612,8085,Doornspijk,DOORNSPYK,Elburg,Gelderland,525,52.4182772,5.8176767,Adres + Postbus
3613,8090,Wezep,,Oldebroek,Gelderland,38,52.4620967,5.9985569,Postbus
3615,8094,Hattemerbroek,,Oldebroek,Gelderland,38,52.4740221,6.0225654,Adres
3616,8095,'t Loo Oldebroek,'t Loo,Oldebroek,Gelderland,525,52.4458724,5.9535445,Adres
3617,8096,Oldebroek,,Oldebroek,Gelderland,525,52.4474448,5.8983168,Adres + Postbus
3618,8097,Oosterwolde,,Oldebroek,Gelderland,525,52.4650841,5.89463,Adres
3619,8100,Raalte,,Raalte,Overijssel,572,52.3875279,6.2768222,Postbus
3623,8105,Luttenberg,,Raalte,Overijssel,572,52.4048721,6.3675484,Adres
3624,8106,Marienheem,MARIENHEEM,Raalte,Overijssel,572,52.3833333,6.3166667,Adres
3625,8107,Broekland,,Raalte,Overijssel,570,52.361667,6.2,Adres
3626,8111,Heeten,,Raalte,Overijssel,572,52.3326062,6.2815599,Adres
3627,8112,Nieuw Heeten,NIEUW-HEETEN,Raalte,Overijssel,572,52.3194906,6.3515673,Adres
3628,8120,Olst,,Olst-Wijhe,Overijssel,570,52.3367369,6.1111839,Postbus
3630,8124,Wesepe,,Olst-Wijhe,Overijssel,570,52.3310595,6.213719,Adres
3631,8131,Wijhe,,Olst-Wijhe,Overijssel,570,52.387959,6.1350152,Adres
3632,8140,Heino,,Raalte,Overijssel,572,52.3875279,6.2768222,Postbus
3634,8144,Lierderholthuis,,Raalte,Overijssel,572,52.4357007,6.192276,Adres
3635,8146,Dalmsholte,,Ommen,Overijssel,572,52.4775637,6.3602991,Adres
3636,8147,Giethmen,,Ommen,Overijssel,529,52.488687,6.4107738,Adres
3637,8148,Lemele,,Ommen,Overijssel,572,52.4541351,6.4163371,Adres
3638,8151,Lemelerveld,,Dalfsen,Overijssel,572,52.4412282,6.3584704,Adres
3642,8160,Epe,,Epe,Gelderland,578,52.3490175,5.9857336,Postbus
3645,8166,Emst,,Epe,Gelderland,578,52.3142226,5.9752263,Adres + Postbus
3646,8167,Oene,,Epe,Gelderland,578,52.3441039,6.0473687,Adres
3647,8170,Vaassen,,Epe,Gelderland,578,52.2832367,6.0681238,Postbus
3650,8180,Heerde,,Heerde,Gelderland,578,52.3880172,6.0427787,Postbus
3652,8190,Wapenveld,,Heerde,Gelderland,38,52.4318059,6.0744092,Postbus
3654,8193,Vorchten,,Heerde,Gelderland,578,52.3985828,6.1068357,Adres
3655,8194,Veessen,,Heerde,Gelderland,578,52.3773778,6.0893526,Adres
3656,8196,Welsum,,Olst-Wijhe,Overijssel,570,52.3361006,6.0901814,Adres
3657,8198,Marle,,Olst-Wijhe,Overijssel,578,52.4132581,6.1260936,Adres
3658,8200,Lelystad,,Lelystad,Flevoland,320,52.5069018,5.4711006,Postbus
3680,8250,Dronten,,Dronten,Flevoland,321,52.523599,5.7176977,Postbus
3685,8255,Swifterbant,,Dronten,Flevoland,321,52.5673148,5.6410931,Adres
3686,8256,Biddinghuizen,,Dronten,Flevoland,321,52.4552356,5.692693,Adres + Postbus
3687,8260,Kampen,,Kampen,Overijssel,38,52.559358,5.916223,Adres + Postbus
3695,8271,IJsselmuiden,YSSELMUIDEN,Kampen,Overijssel,38,52.5653152,5.9325723,Adres
3696,8274,Wilsum,,Kampen,Overijssel,38,52.5293995,5.9634435,Adres
3697,8275,'s-Heerenbroek,S HEERENBROEK,Kampen,Overijssel,38,52.5384188,6.0121874,Adres
3698,8276,Zalk,,Kampen,Overijssel,38,52.5206144,6.0088264,Adres
3699,8277,Grafhorst,,Kampen,Overijssel,38,52.5806421,5.9337653,Adres
3700,8278,Kamperveen,,Kampen,Overijssel,38,52.5092678,5.9151615,Adres
3701,8280,Genemuiden,,Zwartewaterland,Overijssel,38,52.6255389,6.0424139,Postbus
3703,8291,Mastenbroek,,Zwartewaterland,Overijssel,38,52.5913292,6.0360363,Adres
3707,8300,Emmeloord,,Noordoostpolder,Flevoland,527,52.714596,5.7507377,Adres + Postbus
3713,8307,Ens,,Noordoostpolder,Flevoland,527,52.636582,5.8271288,Adres
3714,8308,Nagele,,Noordoostpolder,Flevoland,527,52.6441699,5.7242342,Adres
3715,8309,Tollebeek,,Noordoostpolder,Flevoland,527,52.6785436,5.6771077,Adres
3716,8311,Espel,,Noordoostpolder,Flevoland,527,52.724601,5.6419913,Adres
3717,8312,Creil,,Noordoostpolder,Flevoland,527,52.7632436,5.6585421,Adres
3718,8313,Rutten,,Noordoostpolder,Flevoland,527,52.8063117,5.6972857,Adres
3719,8314,Bant,,Noordoostpolder,Flevoland,527,52.7668017,5.7499054,Adres
3720,8315,Luttelgeest,,Noordoostpolder,Flevoland,527,52.7452418,5.8533301,Adres
3721,8316,Marknesse,,Noordoostpolder,Flevoland,527,52.7115592,5.8645588,Adres + Postbus
3722,8317,Kraggenburg,,Noordoostpolder,Flevoland,527,52.662505,5.899955,Adres
3723,8319,Schokland,,Noordoostpolder,Flevoland,527,52.6439531,5.7736587,Adres
3724,8320,Urk,,Urk,Flevoland,527,52.6636333,5.6020369,Postbus
3727,8325,Vollenhove,,Steenwijkerland,Overijssel,527,52.6734759,5.9625154,Adres + Postbus
3728,8326,Sint Jansklooster,ST JANSKLOOSTER,Steenwijkerland,Overijssel,527,52.6781926,6.0081125,Adres
3729,8330,Steenwijk,Steenwyk,Steenwijkerland,Overijssel,521,52.7886096,6.1118291,Postbus
3732,8334,Tuk,,Steenwijkerland,Overijssel,521,52.796389,6.094722,Adres
3733,8335,Witte Paarden,WITTEPAARDEN,Steenwijkerland,Overijssel,521,52.8094237,6.0777804,Adres
3734,8336,Baars,,Steenwijkerland,Overijssel,521,52.8133461,6.0909096,Adres
3735,8337,De Pol,,Steenwijkerland,Overijssel,521,52.824016,6.0781888,Adres
3736,8338,Willemsoord,,Steenwijkerland,Overijssel,521,52.8252656,6.0624376,Adres
3737,8339,Marijenkampen,MARYENKAMPEN,Steenwijkerland,Overijssel,521,52.8154534,6.0589933,Adres
3738,8341,Steenwijkerwold,STEENWYKERWOLD,Steenwijkerland,Overijssel,521,52.8045827,6.0647433,Adres
3739,8342,Basse,,Steenwijkerland,Overijssel,521,52.8046033,6.031882,Adres
3740,8343,Zuidveen,,Steenwijkerland,Overijssel,521,52.7779722,6.1061692,Adres
3741,8344,Onna,,Steenwijkerland,Overijssel,521,52.7731967,6.1598236,Adres
3742,8345,Kallenkote,,Steenwijkerland,Overijssel,521,52.7953581,6.1722833,Adres
3743,8346,De Bult,,Steenwijkerland,Overijssel,521,52.814115,6.1242803,Adres
3744,8347,Eesveen,,Steenwijkerland,Overijssel,521,52.8243647,6.142197,Adres
3745,8351,Wapserveen,,Westerveld,Drenthe,521,52.8274572,6.2330688,Adres
3746,8355,Giethoorn,,Steenwijkerland,Overijssel,521,52.7401779,6.0779779,Adres + Postbus
3747,8356,Blokzijl,BLOKZYL,Steenwijkerland,Overijssel,527,52.7260165,5.9621294,Adres
3748,8361,IJsselham,YSSELHAM,Steenwijkerland,Overijssel,561,52.8081866,5.9574952,Adres
3749,8362,Nederland,,Steenwijkerland,Overijssel,527,52.7549781,5.9652516,Adres
3750,8363,Wetering,,Steenwijkerland,Overijssel,521,52.7611021,5.9933761,Adres
3751,8371,Scheerwolde,,Steenwijkerland,Overijssel,521,52.7568944,6.014545,Adres
3753,8373,Blankenham,,Steenwijkerland,Overijssel,527,52.7653927,5.8987326,Adres
3754,8374,Kuinre,,Steenwijkerland,Overijssel,527,52.7876615,5.8412115,Adres
3755,8375,Oldemarkt,,Steenwijkerland,Overijssel,561,52.8201219,5.9748349,Adres + Postbus
3756,8376,Ossenzijl,OSSENZYL,Steenwijkerland,Overijssel,561,52.8087816,5.9211295,Adres
3757,8377,Kalenberg,,Steenwijkerland,Overijssel,561,52.7762674,5.9560481,Adres
3758,8378,Paasloo,,Steenwijkerland,Overijssel,561,52.8133756,6.013115,Adres
3759,8381,Vledder,,Westerveld,Drenthe,521,52.8574253,6.2104423,Adres
3760,8382,Frederiksoord,,Westerveld,Drenthe,521,52.8434333,6.1838777,Adres
3761,8383,Nijensleek,NYENSLEEK,Westerveld,Drenthe,521,52.833003,6.1601381,Adres
3762,8384,Wilhelminaoord,,Westerveld,Drenthe,521,52.8572074,6.1666239,Adres
3763,8385,Vledderveen,,Westerveld,Drenthe,521,52.8763431,6.187924,Adres
3764,8386,Doldersum,,Westerveld,Drenthe,521,52.886922,6.2458838,Adres
3765,8387,Boschoord,,Westerveld,Drenthe,561,52.883333,6.216667,Adres
3766,8388,Oosterstreek,,Weststellingwerf,Friesland,561,52.899167,6.169167,Adres
3767,8389,Zandhuizen,,Weststellingwerf,Friesland,561,52.9117216,6.1526872,Adres
3768,8390,Noordwolde,,Weststellingwerf,Friesland,561,52.9306298,6.1361115,Postbus
3770,8392,Boijl,,Weststellingwerf,Friesland,561,52.9101278,6.2007187,Adres
3771,8393,Vinkega,,Weststellingwerf,Friesland,561,52.872999,6.1151444,Adres
3772,8394,De Hoeve,,Weststellingwerf,Friesland,561,52.8868001,6.0884871,Adres
3773,8395,Steggerda,,Weststellingwerf,Friesland,561,52.8566917,6.0751422,Adres
3774,8396,Peperga,,Weststellingwerf,Friesland,561,52.8484746,6.0507283,Adres
3775,8397,De Blesse,,Weststellingwerf,Friesland,561,52.8428329,6.041826,Adres
3776,8398,Blesdijke,BLESDYKE,Weststellingwerf,Friesland,561,52.8296248,6.0146236,Adres
3777,8400,Gorredijk,GORREDYK,Opsterland,Friesland,513,53.0034544,6.064626,Postbus
3779,8403,Jonkersln,Jonkersland,Opsterland,Friesland,513,52.97564,6.04255,Adres
3780,8404,Langezwaag,,Opsterland,Friesland,513,52.9824148,6.0025602,Adres
3781,8405,Luxwoude,,Opsterland,Friesland,513,52.9964646,5.9822194,Adres
3782,8406,Tijnje,TYNJE,Opsterland,Friesland,513,53.031338,5.9934442,Adres
3783,8407,Terwispel,,Opsterland,Friesland,513,53.0192697,6.0493237,Adres
3784,8408,Lippenhuizen,,Opsterland,Friesland,513,53.0174444,6.0919597,Adres
3785,8409,Hemrik,,Opsterland,Friesland,516,53.0316772,6.1379988,Adres
3786,8410,Jubbega,,Heerenveen,Friesland,516,52.9748154,6.0950066,Postbus
3788,8412,Hoornsterzwaag,,Heerenveen,Friesland,516,52.9983239,6.1723081,Adres
3789,8413,Oudehorne,,Heerenveen,Friesland,513,52.9609287,6.0765496,Adres
3790,8414,Nieuwehorne,,Heerenveen,Friesland,513,52.9483417,6.0570387,Adres + Postbus
3791,8415,Bontebok,,Heerenveen,Friesland,513,52.9632199,6.0281857,Adres
3792,8420,Oldeberkoop,,Ooststellingwerf,Friesland,516,52.9390541,6.1277258,Postbus
3794,8422,Nijeberkoop,NYEBERKOOP,Ooststellingwerf,Friesland,516,52.9586587,6.191014,Adres
3795,8423,Makkinga,,Ooststellingwerf,Friesland,516,52.980487,6.2173244,Adres
3797,8425,Langedijke,LANGEDYKE,Ooststellingwerf,Friesland,516,52.9616811,6.2816475,Adres
3798,8426,Appelscha,,Ooststellingwerf,Friesland,516,52.9523997,6.3563031,Adres + Postbus
3799,8427,Ravenswoud,,Ooststellingwerf,Friesland,516,52.9651208,6.3808774,Adres
3800,8428,Fochteloo,,Ooststellingwerf,Friesland,516,52.985614,6.3385027,Adres
3803,8432,Haule,,Ooststellingwerf,Friesland,516,53.0365305,6.3046863,Adres
3804,8433,Haulerwijk,HAULERWYK,Ooststellingwerf,Friesland,516,53.0653054,6.3319233,Adres + Postbus
3805,8434,Waskemeer,,Ooststellingwerf,Friesland,516,53.0563837,6.2813745,Adres + Postbus
3806,8435,Donkerbroek,,Ooststellingwerf,Friesland,516,53.0173249,6.2349711,Adres
3807,8437,Zorgvlied,,Westerveld,Drenthe,521,52.9216165,6.2538379,Adres
3808,8438,Wateren,,Westerveld,Drenthe,521,52.9104343,6.2814045,Adres
3809,8439,Oude Willem,,Westerveld,Drenthe,521,52.9068106,6.3291884,Adres
3810,8440,Heerenveen,,Heerenveen,Friesland,513,52.9614637,5.9210856,Postbus
3819,8449,Terband,,Heerenveen,Friesland,513,53.0060142,5.897299,Adres
3820,8451,Oudeschoot,,Heerenveen,Friesland,513,52.933158,5.9798679,Adres
3821,8452,Nieuweschoot,,Heerenveen,Friesland,513,52.9309449,5.9332436,Adres
3822,8453,Oranjewoud,,Heerenveen,Friesland,513,52.9504028,5.9633787,Adres
3823,8454,Mildam,,Heerenveen,Friesland,513,52.9349101,6.0030051,Adres
3824,8455,Katlijk,KATLYK,Heerenveen,Friesland,513,52.9473703,6.0124351,Adres
3825,8456,De Knipe,,Heerenveen,Friesland,513,52.9685087,5.9674586,Adres
3826,8457,Gersloot,,Heerenveen,Friesland,513,53.0046927,5.96085,Adres
3827,8458,Tjalleberd,,Heerenveen,Friesland,513,52.9978296,5.9432282,Adres
3828,8459,Luinjeberd,,Heerenveen,Friesland,513,52.9918842,5.9247596,Adres
3829,8461,Rottum,,Skarsterln,Friesland,513,52.9356565,5.8917903,Adres
3830,8462,Rotstergaast,,Skarsterln,Friesland,513,52.9004303,5.8937014,Adres
3831,8463,Rotsterhaule,,Skarsterln,Friesland,513,52.9227609,5.8449816,Adres
3832,8464,Sintjohannesga,SINT JOHANNESGA,Skarsterln,Friesland,513,52.9363021,5.8659471,Adres
3833,8465,Oudehaske,,Skarsterln,Friesland,513,52.9568858,5.8714262,Adres
3834,8466,Nijehaske,NYEHASKE,Skarsterln,Friesland,513,52.9613501,5.8935762,Adres
3835,8467,Vegelinsoord,,Skarsterln,Friesland,513,52.9993439,5.8636397,Adres
3836,8468,Haskerdijken,HASKERDYKEN,Skarsterln,Friesland,513,52.9927516,5.8820568,Adres
3837,8469,Nieuwebrug,,Skarsterln,Friesland,513,52.9907088,5.8849227,Adres
3838,8470,Wolvega,,Weststellingwerf,Friesland,561,52.8781093,5.9887014,Postbus
3841,8474,Oldeholtpade,,Weststellingwerf,Friesland,561,52.8927613,6.047896,Adres
3842,8475,Nijeholtpade,NYEHOLTPADE,Weststellingwerf,Friesland,561,52.9124446,6.0783552,Adres
3843,8476,Ter Idzard,,Weststellingwerf,Friesland,561,52.9050559,6.0370666,Adres
3844,8477,Oldeholtwolde,,Weststellingwerf,Friesland,561,52.9064184,6.0107631,Adres
3845,8478,Sonnega,,Weststellingwerf,Friesland,561,52.8697601,5.9684037,Adres
3846,8479,Oldetrijne,OLDETRYNE,Weststellingwerf,Friesland,561,52.8619047,5.946056,Adres
3847,8481,Nijetrijne,,Weststellingwerf,Friesland,561,52.8429864,5.9086643,Adres
3848,8482,Spanga,,Weststellingwerf,Friesland,561,52.8188502,5.8850429,Adres
3850,8484,Langelille,,Weststellingwerf,Friesland,561,52.8423439,5.8440204,Adres
3851,8485,Munnekeburen,,Weststellingwerf,Friesland,561,52.8508842,5.8880353,Adres
3852,8486,Oldelamer,,Weststellingwerf,Friesland,561,52.8712795,5.9320965,Adres
3853,8487,Nijelamer,NYELAMER,Weststellingwerf,Friesland,561,52.8862115,5.9582476,Adres
3854,8488,Nijeholtwolde,NYEHOLTWOLDE,Weststellingwerf,Friesland,561,52.8959354,5.9871194,Adres
3855,8489,Slijkenburg,SLYKENBURG,Weststellingwerf,Friesland,527,52.8065575,5.8442817,Adres
3856,8490,Akkrum,,Boarnsterhim,Friesland,566,53.0381781,5.8488052,Postbus
3858,8493,Terherne,TERHORNE,Boarnsterhim,Friesland,566,53.0410043,5.7814,Adres + Postbus
3859,8494,Nes,,Boarnsterhim,Friesland,566,53.0683281,5.8652353,Adres
3860,8495,Aldeboarn,OLDEBOORN,Boarnsterhim,Friesland,566,53.0481093,5.8924892,Adres
3861,8497,Goengahuizen,GOENGAHUIZEN,Smallingerland,Friesland,566,53.0833333,5.8833333,Adres
3862,8500,Joure,,Skarsterln,Friesland,513,52.967918,5.796805,Postbus
3866,8505,Snikzwaag,,Skarsterln,Friesland,513,52.9853496,5.7877901,Adres
3867,8506,Haskerhorne,,Skarsterln,Friesland,513,52.9533826,5.8293375,Adres
3868,8507,Rohel,,Skarsterln,Friesland,513,52.9174277,5.8318126,Adres
3869,8508,Delfstrahuizen,,Lemsterland,Friesland,514,52.8741795,5.8249106,Adres
3870,8511,Goingarijp,GOINGARYP,Skarsterln,Friesland,566,53.0101991,5.7705574,Adres
3871,8512,Broek,,Skarsterln,Friesland,513,52.983056,5.777222,Adres
3872,8513,Ouwsterhaule,,Skarsterln,Friesland,513,52.9389359,5.8135725,Adres
3873,8514,Ouwster-Nijega,OUWSTER NYEGA,Skarsterln,Friesland,513,52.9296763,5.8044253,Adres
3874,8515,Oldeouwer,,Skarsterln,Friesland,513,52.9181233,5.7982042,Adres
3875,8516,Doniaga,,Skarsterln,Friesland,513,52.9056497,5.747647,Adres
3876,8517,Scharsterbrug,,Skarsterln,Friesland,513,52.9430397,5.7776424,Adres
3877,8520,Sint Nicolaasga,ST NICOLAASGA,Skarsterln,Friesland,513,52.9254962,5.7409619,Postbus
3879,8522,Tjerkgaast,,Skarsterln,Friesland,514,52.9035576,5.6783033,Adres
3880,8523,Idskenhuizen,,Skarsterln,Friesland,513,52.9283231,5.7137736,Adres
3881,8524,Teroele,,Skarsterln,Friesland,513,52.9350628,5.6934478,Adres
3882,8525,Langweer,,Skarsterln,Friesland,513,52.9583718,5.723091,Adres
3883,8526,Boornzwaag,,Skarsterln,Friesland,513,52.958372,5.7456541,Adres
3884,8527,Legemeer,,Skarsterln,Friesland,513,52.9394865,5.7289998,Adres
3885,8528,Dijken,DYKEN,Skarsterln,Friesland,513,52.9511305,5.710463,Adres
3886,8529,Koufurderrige,,Wymbritseradiel,Friesland,514,52.9543965,5.6542861,Adres
3887,8530,Lemmer,,Lemsterland,Friesland,514,52.8460331,5.6949828,Postbus
3890,8534,Eesterga,,Lemsterland,Friesland,514,52.868055,5.7283961,Adres
3891,8535,Follega,,Lemsterland,Friesland,514,52.8862034,5.7361296,Adres
3892,8536,Oosterzee,,Lemsterland,Friesland,514,52.8699773,5.7529451,Adres
3894,8538,Bantega,,Lemsterland,Friesland,514,52.8416244,5.7972027,Adres
3895,8539,Echtenerbrug,,Lemsterland,Friesland,514,52.8733749,5.822319,Adres
3896,8541,Akmarijp,AKMARYP,Skarsterln,Friesland,566,53.0056557,5.7886028,Adres
3897,8542,Terkaple,,Skarsterln,Friesland,566,53.0136865,5.7894517,Adres
3898,8551,Woudsend,,Wymbritseradiel,Friesland,514,52.9427599,5.6287027,Adres
3899,8552,Smallebrugge,,Wymbritseradiel,Friesland,514,52.9580538,5.6377756,Adres
3900,8553,Indijk,INDYK,Wymbritseradiel,Friesland,514,52.9467921,5.6018568,Adres
3901,8554,IJpecolsga,YPECOLSGA,Wymbritseradiel,Friesland,514,53.1641642,5.7817542,Adres
3902,8556,Sloten,,Gaasterln-Sleat,Friesland,514,52.8945213,5.6457171,Adres
3903,8560,Balk,,Gaasterln-Sleat,Friesland,514,53.0011262,6.2311672,Postbus
3905,8563,Wijckel,WYCKEL,Gaasterln-Sleat,Friesland,514,52.8889663,5.6247945,Adres
3906,8564,Ruigahuizen,,Gaasterln-Sleat,Friesland,514,52.8815405,5.5704592,Adres
3907,8565,Sondel,,Gaasterln-Sleat,Friesland,514,52.8711433,5.5976085,Adres
3908,8566,Nijemirdum,NYEMIRDUM,Gaasterln-Sleat,Friesland,514,52.8557002,5.5673222,Adres
3909,8567,Oudemirdum,,Gaasterln-Sleat,Friesland,514,52.8494203,5.5332441,Adres
3910,8571,Harich,,Gaasterln-Sleat,Friesland,514,52.9024442,5.5636659,Adres
3911,8572,Rijs,,Gaasterln-Sleat,Friesland,514,52.8632514,5.4992868,Adres
3912,8573,Mirns,,Gaasterln-Sleat,Friesland,514,52.8567456,5.4649598,Adres
3913,8574,Bakhuizen,,Gaasterln-Sleat,Friesland,514,52.8686496,5.45515,Adres
3914,8581,Elahuizen,,Gaasterln-Sleat,Friesland,514,52.9255427,5.5416776,Adres
3915,8582,Oudega,Oudega G.S.,Gaasterln-Sleat,Friesland,514,52.9044748,5.5226678,Adres
3916,8583,Kolderwolde,,Gaasterln-Sleat,Friesland,514,52.897222,5.51,Adres
3917,8584,Hemelum,,Nijefurd,Friesland,514,52.880709,5.4560155,Adres
3918,8600,Sneek,,Sneek,Friesland,515,53.0307872,5.6696146,Postbus
3927,8611,Gaastmeer,,Wymbritseradiel,Friesland,515,52.9645319,5.5433936,Adres
3928,8612,Idzega,,Wymbritseradiel,Friesland,515,52.9799028,5.5533645,Adres
3929,8613,Sandfirden,,Wymbritseradiel,Friesland,515,52.9881299,5.5209776,Adres
3931,8615,Blauwhuis,,Wymbritseradiel,Friesland,515,53.0225,5.532222,Adres
3932,8616,Westhem,,Wymbritseradiel,Friesland,515,53.0156183,5.5500441,Adres
3933,8617,Abbega,,Wymbritseradiel,Friesland,515,53.0192891,5.5716955,Adres
3934,8618,Oosthem,,Wymbritseradiel,Friesland,515,53.0165259,5.6012921,Adres
3935,8621,Heeg,,Wymbritseradiel,Friesland,515,52.9715521,5.605224,Adres
3936,8622,Hommerts,,Wymbritseradiel,Friesland,515,52.981679,5.6501505,Adres
3937,8623,Jutrijp,JUTRYP,Wymbritseradiel,Friesland,515,52.994763,5.6500956,Adres
3938,8624,Uitwellingerga,,Wymbritseradiel,Friesland,515,53.0033721,5.7053841,Adres
3939,8625,Oppenhuizen,,Wymbritseradiel,Friesland,515,53.0125795,5.6964222,Adres
3940,8626,Offingawier,,Sneek,Friesland,515,53.030926,5.6941529,Adres
3941,8627,Gauw,,Wymbritseradiel,Friesland,515,53.0585683,5.7140367,Adres
3942,8628,Goenga,GOENGA,Wymbritseradiel,Friesland,515,53.05,5.7,Adres
3943,8629,Scharnegoutum,,Wymbritseradiel,Friesland,515,53.0643261,5.6802174,Adres
3944,8631,Loenga,LOENGA,Sneek,Friesland,515,53.05,5.6833333,Adres
3945,8632,Tirns,,Wymbritseradiel,Friesland,515,53.05892,5.6261417,Adres
3946,8633,IJsbrechtum,YSBRECHTUM,Sneek,Friesland,515,53.0419773,5.6325566,Adres
3947,8635,Boazum,BOZUM,Littenseradiel,Friesland,515,53.0884393,5.6965448,Adres
3948,8636,Britswert,BRITSWERD,Littenseradiel,Friesland,58,53.1122141,5.6756875,Adres
3949,8637,Wieuwerd,,Littenseradiel,Friesland,58,53.1097084,5.6897079,Adres
3950,8641,Rien,,Littenseradiel,Friesland,515,53.0959643,5.6578893,Adres
3951,8642,Lutkewierum,,Littenseradiel,Friesland,515,53.0886961,5.663273,Adres
3952,8644,Dearsum,DEERSUM,Boarnsterhim,Friesland,515,53.086491,5.7161575,Adres
3953,8647,Sibrandabuorren,SYBRANDABUREN,Boarnsterhim,Friesland,515,53.0683264,5.7208088,Adres
3954,8650,IJlst,,Wymbritseradiel,Friesland,515,52.9680597,5.604922,Postbus
3956,8658,Greonterp,,Wymbritseradiel,Friesland,515,53.0155037,5.5190502,Adres
3957,8700,Bolsward,,Bolsward,Friesland,515,53.0569848,5.5356553,Postbus
3960,8710,Workum,,Nijefurd,Friesland,515,52.9601858,5.4131901,Postbus
3962,8713,Hindeloopen,,Nijefurd,Friesland,514,52.9426846,5.4012542,Adres
3963,8715,Stavoren,,Nijefurd,Friesland,514,52.8829456,5.3607068,Adres
3964,8721,Warns,,Nijefurd,Friesland,514,52.8743192,5.4107648,Adres
3965,8722,Molkwerum,,Nijefurd,Friesland,514,52.9003905,5.39941,Adres
3966,8723,Koudum,,Nijefurd,Friesland,514,52.914484,5.4482493,Adres + Postbus
3967,8724,It Heidenskip,,Nijefurd,Friesland,514,52.9488351,5.5018875,Adres
3968,8730,Wommels,,Littenseradiel,Friesland,515,53.1079328,5.590158,Postbus
3970,8732,Kbaard,KUBAARD,Littenseradiel,Friesland,515,53.1166667,5.5666667,Adres
3971,8733,Iens,,Littenseradiel,Friesland,515,53.1220978,5.6133302,Adres
3972,8734,Easterein,,Littenseradiel,Friesland,515,53.0972592,5.6189034,Adres
3973,8735,Itens,,Littenseradiel,Friesland,515,53.1014059,5.6432917,Adres
3974,8736,Reahs,Reahus,Littenseradiel,Friesland,515,53.08372,5.63195,Adres
3975,8737,Hidaard,,Littenseradiel,Friesland,515,53.0794605,5.6032291,Adres
3976,8741,Hartwerd,,Wnseradiel,Friesland,515,53.0681155,5.5682032,Adres
3977,8742,Burgwerd,,Wnseradiel,Friesland,515,53.086119,5.5458909,Adres
3978,8743,Hichtum,,Wnseradiel,Friesland,515,53.0813543,5.525951,Adres
3979,8744,Schettens,,Wnseradiel,Friesland,517,53.0829415,5.4836023,Adres
3980,8745,Longerhouw,,Wnseradiel,Friesland,517,53.0692241,5.4784098,Adres
3981,8746,Schraard,,Wnseradiel,Friesland,517,53.0807887,5.4512145,Adres
3982,8747,Wons,,Wnseradiel,Friesland,517,53.0839813,5.423212,Adres
3983,8748,Witmarsum,,Wnseradiel,Friesland,517,53.1023274,5.4667442,Adres + Postbus
3984,8749,Pingjum,,Wnseradiel,Friesland,517,53.1158288,5.4392565,Adres
3985,8751,Zurich,,Wnseradiel,Friesland,517,53.1111778,5.3947511,Adres
3986,8752,Kornwerderzand,,Wnseradiel,Friesland,517,53.0726456,5.337913,Adres
3987,8753,Cornwerd,,Wnseradiel,Friesland,515,53.0832949,5.3907465,Adres
3988,8754,Makkum,,Wnseradiel,Friesland,515,53.0561114,5.4032128,Adres + Postbus
3989,8755,Idsegahuizum,,Wnseradiel,Friesland,515,53.0430986,5.4180548,Adres
3990,8756,Piaam,,Wnseradiel,Friesland,515,53.0385612,5.406829,Adres
3991,8757,Gaast,,Wnseradiel,Friesland,515,53.0163297,5.409823,Adres
3992,8758,Allingawier,,Wnseradiel,Friesland,515,53.0476961,5.4459764,Adres
3993,8759,Exmorra,,Wnseradiel,Friesland,515,53.055539,5.464973,Adres
3994,8761,Ferwoude,,Wnseradiel,Friesland,515,53.0057009,5.4332717,Adres
3995,8762,Hieslum,,Wnseradiel,Friesland,515,53.0083208,5.4885496,Adres
3996,8763,Parrega,,Wnseradiel,Friesland,515,53.0187592,5.4776928,Adres
3997,8764,Dedgum,,Wnseradiel,Friesland,515,53.0233306,5.4918158,Adres
3998,8765,Tjerkwerd,,Wnseradiel,Friesland,515,53.0423532,5.5025371,Adres
3999,8766,Breezanddijk,BREEZANDDYK,Wnseradiel,Friesland,517,53.02,5.206944,Adres
4000,8771,Nijland,NYLAND,Wymbritseradiel,Friesland,515,53.0509933,5.5765426,Adres
4001,8772,Tjalhuizum,,Wymbritseradiel,Friesland,515,53.0468753,5.6140568,Adres
4002,8773,Folsgare,,Wymbritseradiel,Friesland,515,53.0377002,5.6045421,Adres
4003,8774,Wolsum,,Wymbritseradiel,Friesland,515,53.0364094,5.545277,Adres
4004,8775,Nijhuizum,NYHUIZUM,Nijefurd,Friesland,515,52.9801037,5.485533,Adres
4005,8800,Franeker,,Franekeradeel,Friesland,517,53.1855183,5.5381637,Postbus
4008,8804,Tzum,,Franekeradeel,Friesland,517,53.1588616,5.5633501,Adres + Postbus
4009,8805,Hitzum,,Franekeradeel,Friesland,517,53.1661334,5.5195989,Adres
4010,8806,Achlum,,Franekeradeel,Friesland,517,53.1480338,5.4847188,Adres
4011,8807,Herbaijum,HERBAYUM,Franekeradeel,Friesland,517,53.1848118,5.4954675,Adres
4012,8808,Dongjum,,Franekeradeel,Friesland,517,53.2084093,5.5431818,Adres
4013,8809,Boer,,Franekeradeel,Friesland,517,53.2154852,5.5658264,Adres
4014,8811,Ried,,Franekeradeel,Friesland,517,53.2237365,5.5923017,Adres
4015,8812,Peins,,Franekeradeel,Friesland,517,53.206274,5.5944189,Adres
4016,8813,Schalsum,,Franekeradeel,Friesland,517,53.1981155,5.572159,Adres
4017,8814,Zweins,,Franekeradeel,Friesland,517,53.1909074,5.605222,Adres
4018,8816,Skingen,Schingen,Menaldumadeel,Friesland,517,53.2015322,5.6175766,Adres
4019,8821,Kimswerd,,Wnseradiel,Friesland,517,53.141862,5.4394094,Adres
4020,8822,Arum,,Wnseradiel,Friesland,517,53.12943,5.4774311,Adres
4021,8823,Lollum,,Wnseradiel,Friesland,517,53.1258912,5.5309636,Adres
4022,8831,Winsum,,Littenseradiel,Friesland,517,53.1527192,5.6326533,Adres
4023,8832,Hns,Huns,Littenseradiel,Friesland,517,53.1673,5.66671,Adres
4024,8833,Leons,LIONS,Littenseradiel,Friesland,517,53.1521734,5.6796607,Adres
4025,8834,Baard,,Littenseradiel,Friesland,517,53.1422439,5.66849,Adres
4026,8835,Easterlittens,OOSTERLITTENS,Littenseradiel,Friesland,517,53.1353215,5.6501712,Adres
4027,8841,Baaium,BAYUM,Littenseradiel,Friesland,517,53.1648887,5.6222558,Adres
4028,8842,Wjelsryp,WELSRYP,Littenseradiel,Friesland,517,53.1666521,5.606909,Adres
4029,8843,Spannum,,Littenseradiel,Friesland,517,53.1428386,5.6076101,Adres
4030,8844,Hinnaard,HENNAARD,Littenseradiel,Friesland,515,53.1125561,5.6353678,Adres
4031,8845,Waaksens,,Littenseradiel,Friesland,517,53.1099958,5.5379145,Adres
4032,8851,Tzummarum,,Franekeradeel,Friesland,518,53.2374865,5.5498319,Adres
4033,8852,Firdgum,,Franekeradeel,Friesland,518,53.2485421,5.5601505,Adres
4034,8853,Klooster-Lidlum,KLOOSTER LIDLUM,Franekeradeel,Friesland,518,53.2300428,5.5240626,Adres
4035,8854,Oosterbierum,,Franekeradeel,Friesland,518,53.2345932,5.5123207,Adres
4036,8855,Sexbierum,,Franekeradeel,Friesland,517,53.2173164,5.4843741,Adres + Postbus
4037,8856,Pietersbierum,,Franekeradeel,Friesland,517,53.2157199,5.4764288,Adres
4038,8857,Wijnaldum,WYNALDUM,Harlingen,Friesland,517,53.1956574,5.4597788,Adres
4039,8860,Harlingen,,Harlingen,Friesland,517,53.1753413,5.4182838,Postbus
4042,8871,Midlum,,Harlingen,Friesland,517,53.1853369,5.476776,Adres
4044,8880,West-Terschelling,,Terschelling,Friesland,562,53.3642447,5.2168968,Postbus
4046,8882,Hee,TERSCHELLING HEE,Terschelling,Friesland,562,53.3755111,5.255395,Adres
4047,8883,Kaart,,Terschelling,Friesland,562,53.3766227,5.2703421,Adres
4048,8884,Baaiduinen,,Terschelling,Friesland,562,53.3773557,5.2868677,Adres
4049,8885,Kinnum,,Terschelling,Friesland,562,53.3753702,5.2761001,Adres
4050,8891,Midsland,Terschelling Midsland,Terschelling,Friesland,562,53.382631,5.2874422,Adres
4051,8892,Seerijp,ZEERYP;Seeryp,Terschelling,Friesland,562,53.3799642,5.2974874,Adres
4052,8893,Landerum,,Terschelling,Friesland,562,53.3866214,5.300388,Adres
4053,8894,Formerum,,Terschelling,Friesland,562,53.3898535,5.3098956,Adres
4054,8895,Lies,,Terschelling,Friesland,562,53.3938612,5.3262428,Adres
4057,8899,Vlieland,,Vlieland,Friesland,562,53.2501844,4.9514271,Adres + Postbus
4058,8900,Leeuwarden,,Leeuwarden,Friesland,58,53.223301,5.7516999,Adres + Postbus
4088,9000,Grou,GROUW,Boarnsterhim,Friesland,566,53.12021,5.8519,Postbus
4090,9003,Warten,WARTENA,Boarnsterhim,Friesland,58,53.1500391,5.8981573,Adres
4091,9004,Warstiens,,Boarnsterhim,Friesland,58,53.1613633,5.8627694,Adres
4092,9005,Wergea,WARGA,Boarnsterhim,Friesland,58,53.1519991,5.8468646,Adres
4093,9006,Eagum,AEGUM,Boarnsterhim,Friesland,58,53.1306799,5.8290237,Adres
4094,9007,Idaerd,IDAARD,Boarnsterhim,Friesland,566,53.1187878,5.8126966,Adres
4095,9008,Reduzum,,Boarnsterhim,Friesland,566,53.1169587,5.7853763,Adres
4096,9009,Friens,,Boarnsterhim,Friesland,566,53.0994661,5.800429,Adres
4097,9011,Jirnsum,IRNSUM,Boarnsterhim,Friesland,566,53.0806327,5.7936461,Adres
4098,9012,Raerd,RAUWERD,Boarnsterhim,Friesland,566,53.0983382,5.760811,Adres
4099,9013,Poppenwier,POPPINGAWIER,Boarnsterhim,Friesland,566,53.0845118,5.7484015,Adres
4100,9014,Tersoal,,Boarnsterhim,Friesland,515,53.0746615,5.7365693,Adres
4101,9021,Easterwierrum,OOSTERWIERUM;Easterwierum,Littenseradiel,Friesland,58,53.1100959,5.7324943,Adres
4102,9022,Mantgum,,Littenseradiel,Friesland,58,53.1291256,5.7206493,Adres
4103,9023,Jorwert,JORWERD,Littenseradiel,Friesland,58,53.144848,5.7118331,Adres
4104,9024,Weidum,,Littenseradiel,Friesland,58,53.1460597,5.7439155,Adres
4105,9025,Bears,,Littenseradiel,Friesland,58,53.1560181,5.7339966,Adres
4106,9026,Jellum,,Littenseradiel,Friesland,58,53.1686191,5.7402157,Adres
4107,9027,Hilaard,HYLAARD,Littenseradiel,Friesland,58,53.1649603,5.7117022,Adres
4108,9031,Boksum,,Menaldumadeel,Friesland,58,53.176945,5.7280173,Adres
4109,9032,Blessum,,Menaldumadeel,Friesland,58,53.180992,5.7105786,Adres
4110,9033,Deinum,,Menaldumadeel,Friesland,58,53.1918429,5.7249778,Adres
4111,9034,Marsum,Marssum,Menaldumadeel,Friesland,58,53.2107798,5.7266674,Adres
4112,9035,Dronryp,Dronrijp,Menaldumadeel,Friesland,517,53.1966063,5.6449476,Adres + Postbus
4113,9036,Menaam,Menaldum,Menaldumadeel,Friesland,518,53.2179186,5.6618266,Adres
4114,9037,Slappeterp,,Menaldumadeel,Friesland,518,53.2130255,5.6218291,Adres
4115,9038,Ingelum,Engelum,Menaldumadeel,Friesland,58,53.2248968,5.7134824,Adres
4116,9040,Berltsum,Berlikum Fr;Berlikum,Menaldumadeel,Friesland,518,53.1800259,5.5477143,Postbus
4118,9043,Wier,,Menaldumadeel,Friesland,518,53.2512191,5.6237296,Adres
4119,9044,Bitgum,Beetgum,Menaldumadeel,Friesland,58,53.2370427,5.6884188,Adres
4120,9045,Bitgummole,Beetgumermolen,Menaldumadeel,Friesland,58,53.2351562,5.7075843,Adres
4121,9047,Minnertsga,,het Bildt,Friesland,518,53.2509346,5.5980342,Adres
4122,9050,Stiens,,Leeuwarderadeel,Friesland,58,53.266452,5.745992,Postbus
4124,9053,Feinsum,Finkum,Leeuwarderadeel,Friesland,58,53.2782673,5.7549925,Adres
4125,9054,Hijum,,Leeuwarderadeel,Friesland,518,53.2905323,5.7665838,Adres
4126,9055,Britsum,,Leeuwarderadeel,Friesland,58,53.2531453,5.7855529,Adres
4127,9056,Koarnjum,Cornjum,Leeuwarderadeel,Friesland,58,53.2437894,5.7807181,Adres
4128,9057,Jelsum,,Leeuwarderadeel,Friesland,58,53.2346703,5.7830762,Adres
4129,9061,Gytsjerk,GIEKERK,Tytsjerksteradiel,Friesland,58,53.2410241,5.8907254,Adres
4130,9062,Oentsjerk,OENKERK,Tytsjerksteradiel,Friesland,58,53.2533813,5.8987505,Adres + Postbus
4131,9063,Mnein,Molenend;Munein,Tytsjerksteradiel,Friesland,58,53.25164,5.91874,Adres
4132,9064,Aldtsjerk,Oudkerk,Tytsjerksteradiel,Friesland,58,53.2643034,5.8891236,Adres
4133,9067,Readtsjerk,Roodkerk,Dantumadiel,Friesland,58,53.2600828,5.9218173,Adres
4134,9071,Alde Leie,OUDE LEYE;Oude Leije,Leeuwarderadeel,Friesland,518,53.2880323,5.7349336,Adres
4136,9073,Marrum,,Ferwerderadiel,Friesland,518,53.322673,5.8018778,Adres + Postbus
4137,9074,Hallum,,Ferwerderadiel,Friesland,518,53.3051209,5.784383,Adres + Postbus
4138,9075,Westhoek,,het Bildt,Friesland,518,53.2760097,5.5607068,Adres
4139,9076,Sint Annaparochie,ST ANNAPAROCHIE,het Bildt,Friesland,518,53.2764463,5.6570979,Adres + Postbus
4140,9077,Vrouwenparochie,,het Bildt,Friesland,518,53.2800146,5.7030451,Adres
4141,9078,Oude Bildtzijl,OUDE BILDTZYL,het Bildt,Friesland,518,53.3136219,5.708998,Adres
4142,9079,Sint Jacobiparochie,ST JACOBIPAROCHIE,het Bildt,Friesland,518,53.2728486,5.6087388,Adres
4143,9081,Lekkum,,Leeuwarden,Friesland,58,53.2256277,5.8203814,Adres
4144,9082,Miedum,,Leeuwarden,Friesland,58,53.2354527,5.8388712,Adres
4145,9083,Snakkerburen,,Leeuwarden,Friesland,58,53.220113,5.8096366,Adres
4146,9084,Goutum,,Leeuwarden,Friesland,58,53.17842,5.8069262,Adres
4147,9085,Teerns,,Leeuwarden,Friesland,58,53.1808429,5.8342596,Adres
4148,9086,Hempens,,Leeuwarden,Friesland,58,53.178766,5.8378606,Adres
4149,9087,Swichum,,Leeuwarden,Friesland,58,53.1539551,5.8186478,Adres
4150,9088,Wirdum,,Leeuwarden,Friesland,58,53.1500314,5.8050965,Adres
4151,9089,Wytgaard,,Leeuwarden,Friesland,58,53.140833,5.783889,Adres
4152,9091,Wyns,,Tytsjerksteradiel,Friesland,58,53.2514265,5.8323263,Adres
4153,9100,Dokkum,,Dongeradeel,Friesland,519,53.3109748,5.9948827,Postbus
4157,9104,Damwld,Damwoude,Dantumadiel,Friesland,511,53.283333,6,Adres + Postbus
4158,9105,Rinsumageast,Rinsumageest,Dantumadiel,Friesland,511,53.2973163,5.9498906,Adres
4159,9106,Sibrandahs,SYBRANDAHUIS;Sijbrandahuis,Dantumadiel,Friesland,519,53.316667,5.966667,Adres
4160,9107,Jannum,JANUM,Ferwerderadiel,Friesland,519,53.3124887,5.9027227,Adres
4161,9108,Broeksterwld,Broeksterwoude,Dantumadiel,Friesland,511,53.266667,6,Adres
4162,9109,De Falom,De Valom,Dantumadiel,Friesland,511,53.2634435,6.0077314,Adres
4163,9111,Burdaard,BIRDAARD,Ferwerderadiel,Friesland,519,53.2977219,5.8692403,Adres
4165,9113,Wlterswld,Wouterswoude,Dantumadiel,Friesland,511,53.3,6.033333,Adres
4166,9114,Driezum,Driesum,Dantumadiel,Friesland,511,53.2968837,6.045633,Adres
4167,9121,Aalsum,AALZUM,Dongeradeel,Friesland,519,53.3378209,6.0033683,Adres
4168,9122,Wetsens,WETZENS,Dongeradeel,Friesland,519,53.3474779,6.0332484,Adres
4169,9123,Metslawier,,Dongeradeel,Friesland,519,53.3606625,6.0665857,Adres
4170,9124,Jouswier,,Dongeradeel,Friesland,519,53.3499847,6.073475,Adres
4172,9131,Ee,,Dongeradeel,Friesland,519,53.3304259,6.1008417,Adres
4173,9132,Engwierum,,Dongeradeel,Friesland,511,53.3199914,6.1366541,Adres
4174,9133,Anjum,,Dongeradeel,Friesland,519,53.3743702,6.1266778,Adres + Postbus
4175,9134,Lioessens,,Dongeradeel,Friesland,519,53.3805168,6.0890796,Adres
4176,9135,Morra,,Dongeradeel,Friesland,519,53.3719241,6.0879929,Adres
4177,9136,Paesens,,Dongeradeel,Friesland,519,53.4015212,6.0849873,Adres
4178,9137,Oosternijkerk,OOSTERNYKERK,Dongeradeel,Friesland,519,53.3791579,6.0535304,Adres
4179,9138,Niawier,,Dongeradeel,Friesland,519,53.3636696,6.0477812,Adres
4180,9141,Wierum,,Dongeradeel,Friesland,519,53.4013718,6.0159007,Adres
4181,9142,Moddergat,,Dongeradeel,Friesland,519,53.4030752,6.0819604,Adres
4183,9144,Hantumhuizen,,Dongeradeel,Friesland,519,53.3723979,5.9977785,Adres
4184,9145,Ternaard,,Dongeradeel,Friesland,519,53.3807711,5.965258,Adres
4185,9146,Hantumeruitburen,,Dongeradeel,Friesland,519,53.3599912,6.0026793,Adres
4186,9147,Hantum,,Dongeradeel,Friesland,519,53.3625326,5.9649229,Adres
4187,9148,Hiaure,,Dongeradeel,Friesland,519,53.3472454,5.9730214,Adres
4188,9151,Holwerd,,Dongeradeel,Friesland,519,53.3683775,5.9005378,Adres
4189,9152,Waaxens,,Dongeradeel,Friesland,519,53.3563815,5.9213459,Adres
4190,9153,Brantgum,,Dongeradeel,Friesland,519,53.3521088,5.9301891,Adres
4191,9154,Foudgum,,Dongeradeel,Friesland,519,53.3451929,5.9416273,Adres
4192,9155,Raard,,Dongeradeel,Friesland,519,53.3255822,5.9445867,Adres
4193,9156,Bornwird,,Dongeradeel,Friesland,519,53.3340004,5.9544077,Adres
4194,9160,Hollum,,Ameland,Friesland,519,53.4410245,5.6359584,Postbus
4196,9162,Ballum,,Ameland,Friesland,519,53.4440723,5.6860721,Adres
4199,9166,Schiermonnikoog,,Schiermonnikoog,Friesland,519,53.4785962,6.1560311,Adres + Postbus
4200,9171,Blije,Blija,Ferwerderadiel,Friesland,519,53.3523013,5.8615714,Adres
4201,9172,Ferwert,FERWERD,Ferwerderadiel,Friesland,518,53.3377628,5.824424,Adres + Postbus
4202,9173,Hegebeintum,HOGEBEINTUM,Ferwerderadiel,Friesland,518,53.3368943,5.8503137,Adres
4203,9174,Ginnum,GENUM,Ferwerderadiel,Friesland,519,53.3225979,5.8745555,Adres
4204,9175,Reitsum,,Ferwerderadiel,Friesland,519,53.3210197,5.8912098,Adres
4205,9176,Lichtaard,,Ferwerderadiel,Friesland,519,53.3258678,5.9131033,Adres
4206,9177,Jislum,,Ferwerderadiel,Friesland,519,53.3124833,5.878267,Adres
4207,9178,Wnswert,WANSWERD,Ferwerderadiel,Friesland,519,53.3,5.85,Adres
4208,9200,Drachten,,Smallingerland,Friesland,512,53.119202,6.1297,Postbus
4216,9211,Kortehemmen,,Smallingerland,Friesland,512,53.0837231,6.0683656,Adres
4217,9212,Boornbergum,,Smallingerland,Friesland,512,53.0824994,6.0439752,Adres
4218,9213,De Wilgen,,Smallingerland,Friesland,512,53.0995009,6.034125,Adres
4219,9214,Smalle Ee,,Smallingerland,Friesland,512,53.1036621,6.0183321,Adres
4220,9215,De Veenhoop,,Smallingerland,Friesland,512,53.0980115,5.9500655,Adres
4222,9217,Nijega,NYEGA,Smallingerland,Friesland,512,53.1406092,6.0262654,Adres
4223,9218,Opeinde,,Smallingerland,Friesland,512,53.1347884,6.0555258,Adres
4224,9219,De Tike,,Smallingerland,Friesland,512,53.149723,6.0375953,Adres
4225,9221,Rottevalle,,Smallingerland,Friesland,512,53.1460571,6.1052008,Adres
4226,9222,Drachtstercompagnie,DRACHTSTERCOMPAGN,Smallingerland,Friesland,512,53.1340722,6.1399365,Adres
4227,9223,Houtigehage,,Smallingerland,Friesland,512,53.1532187,6.143244,Adres
4228,9230,Surhuisterveen,,Achtkarspelen,Friesland,512,53.1827153,6.1666215,Postbus
4230,9233,Boelenslaan,,Achtkarspelen,Friesland,512,53.1615492,6.1460059,Adres + Postbus
4231,9240,Wijnjewoude,WYNJEWOUDE,Opsterland,Friesland,516,53.0386219,6.2175855,Postbus
4233,9243,Bakkeveen,,Opsterland,Friesland,516,53.079226,6.2583855,Adres + Postbus
4234,9244,Beetsterzwaag,,Opsterland,Friesland,512,53.0594184,6.0782764,Adres + Postbus
4235,9245,Nij Beets,NY BEETS,Opsterland,Friesland,512,53.0702908,6.0032155,Adres
4236,9246,Olterterp,,Opsterland,Friesland,512,53.0665481,6.1006335,Adres
4237,9247,Ureterp,,Opsterland,Friesland,512,53.0956086,6.1684547,Adres + Postbus
4238,9248,Siegerswoude,,Opsterland,Friesland,512,53.0926189,6.2174536,Adres
4239,9249,Frieschepalen,,Opsterland,Friesland,512,53.1096648,6.2058479,Adres
4240,9250,Burgum,BERGUM,Tytsjerksteradiel,Friesland,511,53.20378,6.00045,Postbus
4242,9254,Hurdegaryp,HARDEGARYP,Tytsjerksteradiel,Friesland,511,53.21487,5.941003,Adres + Postbus
4243,9255,Tytsjerk,TIETJERK,Tytsjerksteradiel,Friesland,511,53.2143699,5.9117022,Adres
4244,9256,Ryptsjerk,,Tytsjerksteradiel,Friesland,511,53.2244179,5.9159708,Adres
4245,9257,Noardburgum,NOORDBERGUM,Tytsjerksteradiel,Friesland,511,53.2252228,6.0034093,Adres
4246,9258,Jistrum,,Tytsjerksteradiel,Friesland,512,53.2120483,6.0668986,Adres
4247,9260,Eastermar,Oostermeer,Tytsjerksteradiel,Friesland,512,53.174894,6.059576,Postbus
4249,9262,Sumar,,Tytsjerksteradiel,Friesland,511,53.1776214,6.0024829,Adres
4250,9263,Garyp,,Tytsjerksteradiel,Friesland,511,53.1673127,5.9703906,Adres
4251,9264,Earnewld,Eernewoude,Tytsjerksteradiel,Friesland,511,53.13121,5.94211,Adres
4252,9265,Suwld,Suwald;Suawoude,Tytsjerksteradiel,Friesland,511,53.18065,5.9228,Adres
4253,9269,Feanwlden,Veenwouden,Dantumadiel,Friesland,511,53.233333,6,Adres + Postbus
4254,9270,De Westereen,Zwaagwesteinde,Dantumadiel,Friesland,511,53.2538563,6.0388937,Postbus
4256,9280,Harkema,,Achtkarspelen,Friesland,512,53.1896377,6.1321923,Postbus
4258,9283,Surhuizum,,Achtkarspelen,Friesland,512,53.2048729,6.1790038,Adres
4259,9284,Augustinusga,,Achtkarspelen,Friesland,512,53.2182273,6.1608938,Adres
4260,9285,Buitenpost,,Achtkarspelen,Friesland,511,53.2524947,6.1503754,Adres + Postbus
4261,9286,Twijzel,TWYZEL,Achtkarspelen,Friesland,511,53.233302,6.0906307,Adres
4262,9287,Twijzelerheide,TWYZELERHEIDE,Achtkarspelen,Friesland,511,53.2409366,6.0436067,Adres
4263,9288,Kootstertille,,Achtkarspelen,Friesland,512,53.2118299,6.0922821,Adres + Postbus
4264,9289,Drogeham,,Achtkarspelen,Friesland,512,53.201959,6.1111271,Adres + Postbus
4265,9290,Kollum,,Kollumerland en Nieuwkruisland,Friesland,511,53.27954,6.151259,Postbus
4267,9292,Augsbuurt,,Kollumerland en Nieuwkruisland,Friesland,511,53.266667,6.163889,Adres
4268,9293,Kollumerpomp,,Kollumerland en Nieuwkruisland,Friesland,511,53.3040887,6.1902579,Adres
4269,9294,Oudwoude,,Kollumerland en Nieuwkruisland,Friesland,511,53.2833333,6.1166667,Adres
4270,9295,Westergeest,,Kollumerland en Nieuwkruisland,Friesland,511,53.2908134,6.0847402,Adres
4271,9296,Triemen,,Kollumerland en Nieuwkruisland,Friesland,511,53.2745312,6.0939959,Adres
4272,9297,Veenklooster,,Kollumerland en Nieuwkruisland,Friesland,511,53.2633242,6.1034188,Adres
4273,9298,Kollumerzwaag,,Kollumerland en Nieuwkruisland,Friesland,511,53.2624507,6.0760993,Adres + Postbus
4274,9299,Zwagerbosch,,Kollumerland en Nieuwkruisland,Friesland,511,53.246504,6.0467823,Adres
4275,9300,Roden,,Noordenveld,Drenthe,50,53.1458376,6.4557934,Postbus
4278,9304,Lieveren,,Noordenveld,Drenthe,50,53.1152374,6.4535439,Adres
4279,9305,Roderesch,,Noordenveld,Drenthe,50,53.1159237,6.4255404,Adres
4282,9311,Nieuw-Roden,NIEUW RODEN,Noordenveld,Drenthe,50,53.1282095,6.3793879,Adres
4283,9312,Nietap,,Noordenveld,Drenthe,594,53.1587848,6.4008223,Adres
4284,9313,Leutingewolde,,Noordenveld,Drenthe,50,53.1571216,6.4302357,Adres
4285,9314,Foxwolde,,Noordenveld,Drenthe,50,53.1522318,6.450822,Adres
4286,9315,Roderwolde,,Noordenveld,Drenthe,50,53.1685593,6.469976,Adres
4287,9320,Peize,,Noordenveld,Drenthe,50,53.1455424,6.5021714,Postbus
4289,9330,Norg,,Noordenveld,Drenthe,592,53.0655812,6.4610648,Postbus
4291,9333,Langelo,,Noordenveld,Drenthe,592,53.0931346,6.4449841,Adres
4292,9334,Peest,,Noordenveld,Drenthe,592,53.0601919,6.5011951,Adres
4293,9335,Zuidvelde,,Noordenveld,Drenthe,592,53.0448902,6.4577808,Adres
4295,9337,Westervelde,,Noordenveld,Drenthe,592,53.0541077,6.4437503,Adres
4296,9341,Veenhuizen,,Noordenveld,Drenthe,592,53.0306682,6.3939878,Adres
4297,9342,Een,,Noordenveld,Drenthe,592,53.0744772,6.393004,Adres
4298,9343,Een West,,Noordenveld,Drenthe,516,53.0844152,6.3392795,Adres
4299,9350,Leek,,Leek,Groningen,594,53.2137535,6.5711367,Postbus
4302,9355,Midwolde,,Leek,Groningen,594,53.1804874,6.392191,Adres
4303,9356,Tolbert,,Leek,Groningen,594,53.1714774,6.3590951,Adres + Postbus
4304,9359,Boerakker,,Marum,Groningen,594,53.1991307,6.3416175,Adres
4307,9363,Marum,,Marum,Groningen,594,53.1462522,6.2673259,Adres + Postbus
4308,9364,Nuis,,Marum,Groningen,594,53.1513902,6.3023941,Adres
4309,9365,Niebert,,Marum,Groningen,594,53.157657,6.3206015,Adres + Postbus
4310,9366,Jonkersvaart,,Marum,Groningen,594,53.128863,6.2998715,Adres
4311,9367,De Wilp,,Marum,Groningen,594,53.1174045,6.2527896,Adres + Postbus
4312,9400,Assen,,Assen,Drenthe,592,52.98296,6.56833,Postbus
4321,9409,Loon,,Assen,Drenthe,592,53.0128714,6.6119947,Adres
4322,9410,Beilen,,Midden-Drenthe,Drenthe,593,52.8576935,6.497991,Postbus
4326,9414,Hooghalen,,Midden-Drenthe,Drenthe,593,52.9210493,6.5398545,Adres
4327,9415,Hijken,HYKEN,Midden-Drenthe,Drenthe,593,52.8954729,6.4980439,Adres
4328,9416,Oranje,,Midden-Drenthe,Drenthe,592,52.9072505,6.4451127,Adres
4329,9417,Spier,,Midden-Drenthe,Drenthe,593,52.8201732,6.469235,Adres
4330,9418,Wijster,WYSTER,Midden-Drenthe,Drenthe,593,52.8157994,6.5144886,Adres
4331,9419,Drijber,DRYBER,Midden-Drenthe,Drenthe,593,52.7918146,6.5386597,Adres
4332,9420,Bovensmilde,,Midden-Drenthe,Drenthe,592,52.699443,6.1893769,Postbus
4334,9422,Smilde,,Midden-Drenthe,Drenthe,592,52.9491879,6.4466811,Adres + Postbus
4335,9423,Hoogersmilde,,Midden-Drenthe,Drenthe,592,52.9072524,6.3982293,Adres
4336,9430,Westerbork,,Midden-Drenthe,Drenthe,593,52.830682,6.6043242,Postbus
4338,9432,Zuidveld,,Midden-Drenthe,Drenthe,593,52.8661056,6.6358873,Adres
4339,9433,Zwiggelte,,Midden-Drenthe,Drenthe,593,52.8731378,6.587324,Adres
4341,9435,Bruntinge,,Midden-Drenthe,Drenthe,593,52.8173201,6.5825587,Adres
4342,9436,Mantinge,,Midden-Drenthe,Drenthe,593,52.8033399,6.613972,Adres
4343,9437,Balinge,,Midden-Drenthe,Drenthe,593,52.8110432,6.6294951,Adres
4344,9438,Garminge,,Midden-Drenthe,Drenthe,593,52.8196509,6.6236719,Adres
4345,9439,Witteveen,,Midden-Drenthe,Drenthe,593,52.8135919,6.66051,Adres
4346,9441,Orvelte,,Midden-Drenthe,Drenthe,593,52.8438688,6.6598629,Adres
4347,9442,Elp,,Midden-Drenthe,Drenthe,593,52.8813809,6.6456093,Adres
4348,9443,Schoonloo,,Aa en Hunze,Drenthe,592,52.9055688,6.7003997,Adres
4349,9444,Grolloo,,Aa en Hunze,Drenthe,592,52.9347299,6.6725846,Adres
4350,9445,Vredenheim,,Aa en Hunze,Drenthe,592,52.9470985,6.6561129,Adres
4351,9446,Amen,,Aa en Hunze,Drenthe,592,52.942347,6.6122589,Adres
4352,9447,Papenvoort,,Aa en Hunze,Drenthe,592,52.952215,6.7026832,Adres
4353,9448,Marwijksoord,MARWYKSOORD,Aa en Hunze,Drenthe,592,52.9630792,6.6596679,Adres
4354,9449,Nooitgedacht,,Aa en Hunze,Drenthe,592,52.9680301,6.6648143,Adres
4355,9451,Rolde,,Aa en Hunze,Drenthe,592,52.9871552,6.6469982,Adres
4356,9452,Nijlande,NYLANDE,Aa en Hunze,Drenthe,592,52.9739045,6.6267244,Adres
4357,9453,Eldersloo,,Aa en Hunze,Drenthe,592,52.9650281,6.6177493,Adres
4358,9454,Ekehaar,,Aa en Hunze,Drenthe,592,52.9530557,6.6027332,Adres
4359,9455,Geelbroek,,Aa en Hunze,Drenthe,592,52.9504715,6.572175,Onbekend
4360,9456,Eleveld,,Aa en Hunze,Drenthe,592,52.9576059,6.5822239,Adres
4361,9457,Deurze,,Aa en Hunze,Drenthe,592,52.9845549,6.6092025,Adres
4362,9458,Balloo,,Aa en Hunze,Drenthe,592,52.9960925,6.6311548,Adres
4363,9459,Balloerveld,BALLOERVELD,Aa en Hunze,Drenthe,592,53.02385,6.63893,Adres
4364,9460,Gieten,,Aa en Hunze,Drenthe,592,53.0017276,6.750652,Postbus
4366,9462,Gasselte,,Aa en Hunze,Drenthe,599,52.9712794,6.7878789,Adres
4367,9463,Eext,,Aa en Hunze,Drenthe,592,53.0177945,6.7357844,Adres
4368,9464,Eexterzandvoort,,Aa en Hunze,Drenthe,598,53.0324155,6.7867326,Adres
4369,9465,Anderen,,Aa en Hunze,Drenthe,592,53.001206,6.6852742,Adres
4370,9466,Gasteren,,Aa en Hunze,Drenthe,592,53.0359552,6.6630831,Adres
4371,9467,Anloo,,Aa en Hunze,Drenthe,592,53.0430181,6.6980796,Adres
4372,9468,Annen,,Aa en Hunze,Drenthe,592,53.0589104,6.7213678,Adres + Postbus
4373,9469,Schipborg,,Aa en Hunze,Drenthe,50,53.0720429,6.6685006,Adres
4374,9470,Zuidlaren,,Tynaarlo,Drenthe,50,53.092624,6.6845473,Adres + Postbus
4377,9473,De Groeve,,Tynaarlo,Drenthe,50,53.1110383,6.7113367,Adres
4378,9474,Zuidlaarderveen,,Tynaarlo,Drenthe,598,53.1044897,6.7495445,Adres
4379,9475,Midlaren,,Tynaarlo,Drenthe,50,53.1096514,6.6778555,Adres
4380,9479,Noordlaren,,Haren,Groningen,50,53.1209975,6.6655157,Adres
4381,9480,Vries,,Tynaarlo,Drenthe,592,53.0798822,6.6021718,Postbus
4383,9482,Tynaarlo,,Tynaarlo,Drenthe,592,53.0784318,6.6145455,Adres
4384,9483,Zeegse,,Tynaarlo,Drenthe,592,53.0687007,6.6455437,Adres
4386,9485,Taarlo,,Tynaarlo,Drenthe,592,53.0331236,6.6250169,Adres
4387,9486,Rhee,,Assen,Drenthe,592,53.0326451,6.5661433,Adres
4388,9487,Ter Aard,,Assen,Drenthe,592,53.0285059,6.549913,Adres
4389,9488,Zeijerveld,Zeyerveld,Assen,Drenthe,592,53.0358294,6.5227203,Adres
4390,9489,Zeijerveen,Zeyerveen,Assen,Drenthe,592,53.0154757,6.5171068,Adres
4391,9491,Zeijen,ZEYEN,Tynaarlo,Drenthe,592,53.0473498,6.5465287,Adres
4392,9492,Ubbena,,Assen,Drenthe,592,53.0450071,6.5729058,Adres
4393,9493,De Punt,,Tynaarlo,Drenthe,50,53.1169407,6.6039099,Adres
4394,9494,Yde,,Tynaarlo,Drenthe,50,53.1138301,6.5906939,Adres
4395,9495,Winde,,Tynaarlo,Drenthe,50,53.1268765,6.527232,Adres
4396,9496,Bunne,,Tynaarlo,Drenthe,50,53.1177942,6.5337887,Adres
4397,9497,Donderen,,Tynaarlo,Drenthe,592,53.0956393,6.5462217,Adres
4398,9500,Stadskanaal,,Stadskanaal,Groningen,599,52.9890052,6.9529762,Postbus
4402,9511,Gieterveen,,Aa en Hunze,Drenthe,599,53.0252696,6.8358863,Adres
4403,9512,Nieuwediep,,Aa en Hunze,Drenthe,598,53.0400171,6.8605341,Adres
4404,9514,Gasselternijveen,GASSELTERNYVEEN,Aa en Hunze,Drenthe,599,52.9863205,6.8460424,Adres
4405,9515,Gasselternijveenschemond,GASSELTERNYV MOND,Aa en Hunze,Drenthe,599,52.9950118,6.8973968,Adres
4406,9521,Nieuw-Buinen,NIEUW BUINEN,Borger-Odoorn,Drenthe,599,52.9546087,6.9293619,Adres
4407,9523,Drouwenermond,,Borger-Odoorn,Drenthe,599,52.9786094,6.9059109,Adres
4408,9524,Buinerveen,,Borger-Odoorn,Drenthe,599,52.9348639,6.8804671,Adres
4409,9525,Drouwenerveen,,Borger-Odoorn,Drenthe,599,52.9700625,6.8499816,Adres
4410,9526,Bronnegerveen,,Borger-Odoorn,Drenthe,599,52.9547586,6.8392262,Adres
4411,9527,Bronneger,,Borger-Odoorn,Drenthe,599,52.9470825,6.8161901,Adres
4412,9528,Buinen,,Borger-Odoorn,Drenthe,599,52.9318136,6.8355674,Adres
4413,9530,Borger,,Borger-Odoorn,Drenthe,599,52.9234797,6.786168,Postbus
4415,9533,Drouwen,,Borger-Odoorn,Drenthe,599,52.9509555,6.7973295,Adres
4416,9534,Westdorp,,Borger-Odoorn,Drenthe,599,52.9046028,6.7669194,Adres
4417,9535,Ellertshaar,,Borger-Odoorn,Drenthe,599,52.8930072,6.737203,Adres
4418,9536,Ees,,Borger-Odoorn,Drenthe,599,52.9082324,6.8061317,Adres
4419,9537,Eesergroen,,Borger-Odoorn,Drenthe,599,52.886185,6.7764114,Adres
4420,9540,Vlagtwedde,,Vlagtwedde,Groningen,599,52.9469803,7.1458159,Postbus
4422,9545,Bourtange,,Vlagtwedde,Groningen,599,53.0066519,7.1922626,Adres
4423,9550,Sellingen,,Vlagtwedde,Groningen,599,52.9452115,7.1485497,Postbus
4425,9560,Ter Apel,,Vlagtwedde,Groningen,599,52.8740037,7.0603333,Postbus
4427,9563,Ter Apelkanaal,,Vlagtwedde,Groningen,599,52.9030766,7.0489563,Adres
4428,9564,Zandberg,,Borger-Odoorn,Drenthe,599,52.9185419,7.025768,Adres
4429,9566,Veelerveen,,Bellingwedde,Groningen,597,53.0566004,7.1265808,Adres
4430,9571,Tweede Exloermond,TWEEDE EXLOERMOND,Borger-Odoorn,Drenthe,599,52.9166667,6.9666667,Adres
4431,9573,Eerste Exloermond,EERSTE EXLOERMOND,Borger-Odoorn,Drenthe,599,52.95,6.9666667,Adres
4432,9574,Exloerveen,EXLOERVEEN,Borger-Odoorn,Drenthe,599,52.9,6.9,Adres
4433,9580,Musselkanaal,,Stadskanaal,Groningen,599,52.9297355,7.0171346,Postbus
4435,9584,Mussel,,Stadskanaal,Groningen,599,52.9567772,7.0387702,Adres
4437,9591,Onstwedde,,Stadskanaal,Groningen,599,53.0329259,7.0404253,Adres
4438,9600,Hoogezand,,Hoogezand-Sappemeer,Groningen,598,53.1624164,6.7548238,Postbus
4442,9605,Kiel-Windeweer,KIEL WINDEWEER,Hoogezand-Sappemeer,Groningen,598,53.1159218,6.7769511,Adres
4443,9606,Kropswolde,,Hoogezand-Sappemeer,Groningen,598,53.1435452,6.7257669,Adres
4444,9607,Foxhol,,Hoogezand-Sappemeer,Groningen,598,53.1687067,6.7186336,Adres
4445,9608,Westerbroek,,Hoogezand-Sappemeer,Groningen,50,53.1841159,6.6867075,Adres
4446,9609,Waterhuizen,,Hoogezand-Sappemeer,Groningen,50,53.1865585,6.6518275,Adres
4447,9610,Sappemeer,,Hoogezand-Sappemeer,Groningen,598,53.1642721,6.787454,Postbus
4449,9615,Kolham,,Slochteren,Groningen,598,53.1822731,6.7446024,Adres
4450,9616,Scharmer,,Slochteren,Groningen,50,53.2045019,6.7063246,Adres
4451,9617,Harkstede,,Slochteren,Groningen,50,53.2138533,6.7004451,Adres + Postbus
4452,9618,Woudbloem,,Slochteren,Groningen,598,53.2171156,6.7381356,Adres
4453,9619,Froombosch,,Slochteren,Groningen,598,53.1940672,6.7802855,Adres
4454,9620,Slochteren,,Slochteren,Groningen,598,53.2193699,6.8070873,Postbus
4456,9623,Lageland,,Slochteren,Groningen,598,53.2410519,6.6873459,Adres
4457,9624,Luddeweer,,Slochteren,Groningen,50,53.252436,6.7402444,Adres
4458,9625,Overschild,,Slochteren,Groningen,596,53.2821234,6.7853193,Adres
4459,9626,Schildwolde,,Slochteren,Groningen,598,53.2317414,6.815061,Adres
4460,9627,Hellum,,Slochteren,Groningen,598,53.238146,6.8380764,Adres
4461,9628,Siddeburen,,Slochteren,Groningen,598,53.2475764,6.8643285,Adres
4462,9629,Steendam,,Slochteren,Groningen,598,53.2748765,6.8423697,Adres
4463,9631,Borgercompagnie,,Menterwolde,Groningen,598,53.1199229,6.8177796,Adres
4465,9633,Tripscompagnie,,Menterwolde,Groningen,598,53.138056,6.825,Adres
4466,9635,Noordbroek,,Menterwolde,Groningen,598,53.1982756,6.8729858,Adres + Postbus
4467,9636,Zuidbroek,,Menterwolde,Groningen,598,53.1704058,6.8621731,Adres + Postbus
4468,9640,Veendam,,Veendam,Groningen,598,53.1015179,6.8914903,Postbus
4474,9648,Wildervank,,Veendam,Groningen,598,53.073946,6.8586112,Adres
4475,9649,Muntendam,,Menterwolde,Groningen,598,53.1350842,6.8689358,Adres + Postbus
4476,9651,Meeden,,Menterwolde,Groningen,598,53.1387725,6.9284995,Adres
4477,9654,Annerveenschekanaal,ANNERVEENSCHE KAN,Aa en Hunze,Drenthe,598,53.0773086,6.8025962,Adres
4478,9655,Oud-Annerveen,OUD ANNERVEEN,Aa en Hunze,Drenthe,598,53.088611,6.760556,Adres
4480,9657,Nieuw-Annerveen,NIEUW ANNERVEEN,Aa en Hunze,Drenthe,598,53.0660183,6.7759541,Adres
4481,9658,Eexterveen,,Aa en Hunze,Drenthe,598,53.0523249,6.8040642,Adres
4482,9659,Eexterveensche kanaal,EEXTERVEENSCHE KAN,Aa en Hunze,Drenthe,598,53.0592081,6.831961,Adres
4485,9663,Nieuwe Pekela,,Pekela,Groningen,597,53.0646944,6.9462204,Adres + Postbus
4486,9665,Oude Pekela,,Pekela,Groningen,597,53.1032425,7.0064744,Adres + Postbus
4487,9670,Winschoten,,Oldambt,Groningen,597,53.1439677,7.0389833,Postbus
4493,9677,Heiligerlee,,Oldambt,Groningen,597,53.1549624,7.0118901,Adres + Postbus
4494,9678,Westerlee,,Oldambt,Groningen,597,53.1543038,6.9954192,Adres
4495,9679,Scheemda,,Oldambt,Groningen,597,53.1763506,6.9723944,Adres + Postbus
4496,9681,Midwolda,,Oldambt,Groningen,597,53.201251,7.0027091,Adres
4497,9682,Oostwold,,Oldambt,Groningen,597,53.2028627,7.0448525,Adres
4498,9684,Finsterwolde,,Oldambt,Groningen,597,53.1979816,7.0854038,Adres
4499,9685,Blauwestad,,Oldambt,Groningen,75,53.166944,7.035556,Adres
4500,9686,Beerta,,Oldambt,Groningen,597,53.1744661,7.0971058,Adres + Postbus
4501,9687,Nieuw-Beerta,NIEUW BEERTA,Oldambt,Groningen,597,53.1892256,7.1625112,Adres
4502,9688,Drieborg,,Oldambt,Groningen,597,53.2060039,7.1813281,Adres
4503,9691,Oudezijl,OUDEZYL,Oldambt,Groningen,597,53.1858798,7.1921148,Adres
4504,9693,Bad Nieuweschans,,Oldambt,Groningen,597,53.183333,7.2,Adres
4505,9695,Bellingwolde,,Bellingwedde,Groningen,597,53.110946,7.1786335,Adres
4506,9696,Oudeschans,,Bellingwedde,Groningen,597,53.1384698,7.1407322,Adres
4507,9697,Blijham,BLYHAM,Bellingwedde,Groningen,597,53.1069246,7.0749521,Adres
4508,9698,Wedde,,Bellingwedde,Groningen,597,53.0697175,7.0748337,Adres
4509,9699,Vriescheloo,,Bellingwedde,Groningen,597,53.0707014,7.1148494,Adres
4510,9700,Groningen,,Groningen,Groningen,50,53.214906,6.5597797,Postbus
4546,9749,Matsloot,,Noordenveld,Drenthe,50,53.2,6.466667,Adres
4551,9755,Onnen,,Haren,Groningen,50,53.1547795,6.6434991,Adres
4552,9756,Glimmen,,Haren,Groningen,50,53.1407193,6.62846,Adres
4553,9761,Eelde,,Tynaarlo,Drenthe,50,53.1331083,6.564273,Adres
4554,9765,Paterswolde,,Tynaarlo,Drenthe,50,53.1468755,6.5635713,Adres + Postbus
4555,9766,Eelderwolde,,Tynaarlo,Drenthe,50,53.1787103,6.5425821,Adres
4556,9771,Sauwerd,,Winsum,Groningen,50,53.294304,6.5328391,Adres
4557,9773,Wetsinge,,Winsum,Groningen,50,53.300556,6.530556,Adres
4558,9774,Adorp,,Winsum,Groningen,50,53.2746405,6.5339811,Adres
4559,9780,Bedum,,Bedum,Groningen,50,53.3008708,6.6008939,Postbus
4563,9790,Glas,,Glas,Groningen,50,52.9676555,6.965779,Postbus
4565,9792,Ten Post,,Glas,Groningen,50,53.2967087,6.7293486,Adres
4566,9793,Winneweer,,Glas,Groningen,50,53.3105523,6.744934,Adres
4567,9794,Lellens,,Glas,Groningen,50,53.3010629,6.7086477,Adres
4568,9795,Woltersum,,Glas,Groningen,50,53.2708216,6.7315116,Adres
4569,9796,Sint Annen,ST ANNEN,Glas,Groningen,50,53.2974996,6.6650544,Adres
4570,9797,Thesinge,,Glas,Groningen,50,53.2681438,6.6512343,Adres
4571,9798,Garmerwolde,,Glas,Groningen,50,53.2486932,6.6482078,Adres
4572,9800,Zuidhorn,,Zuidhorn,Groningen,594,53.2488754,6.4067984,Postbus
4574,9804,Noordhorn,,Zuidhorn,Groningen,594,53.2608598,6.3953353,Adres
4575,9805,Briltil,,Zuidhorn,Groningen,594,53.242432,6.3885837,Adres
4576,9811,Enumatil,,Leek,Groningen,594,53.2153515,6.4172697,Adres
4578,9821,Oldekerk,,Grootegast,Groningen,594,53.2192619,6.3393857,Adres
4579,9822,Niekerk,Niekerk De Marne,De Marne,Groningen,595,53.2256442,6.3537394,Adres + Postbus
4581,9825,Lucaswolde,,Marum,Groningen,594,53.1836312,6.3002186,Adres
4582,9827,Lettelbert,,Leek,Groningen,594,53.189028,6.4056003,Adres
4584,9831,Aduard,,Zuidhorn,Groningen,50,53.2567715,6.4596001,Adres
4585,9832,Den Horn,,Zuidhorn,Groningen,50,53.2271094,6.4463151,Adres
4587,9841,Niezijl,NIEZYL,Zuidhorn,Groningen,594,53.2667159,6.3468783,Adres
4589,9843,Grijpskerk,GRYPSKERK,Zuidhorn,Groningen,594,53.2636135,6.306376,Adres + Postbus
4590,9844,Pieterzijl,PIETERZYL,Zuidhorn,Groningen,594,53.280892,6.2693964,Adres
4591,9845,Visvliet,,Zuidhorn,Groningen,594,53.2663232,6.2507037,Adres
4592,9851,Burum,,Kollumerland en Nieuwkruisland,Friesland,594,53.2733128,6.2299369,Adres
4593,9852,Warfstermolen,,Kollumerland en Nieuwkruisland,Friesland,594,53.2955171,6.2329561,Adres
4594,9853,Munnekezijl,MUNNEKEZYL,Kollumerland en Nieuwkruisland,Friesland,594,53.3039412,6.2715022,Adres
4595,9860,Grootegast,,Grootegast,Groningen,594,53.2138154,6.278294,Postbus
4597,9862,Sebaldeburen,,Grootegast,Groningen,594,53.2206552,6.3094299,Adres
4598,9863,Doezum,,Grootegast,Groningen,594,53.1999099,6.2485292,Adres
4599,9864,Kornhorn,,Grootegast,Groningen,594,53.1811895,6.2425921,Adres
4600,9865,Opende,,Grootegast,Groningen,594,53.1743619,6.1983669,Adres
4601,9866,Lutjegast,,Grootegast,Groningen,594,53.234684,6.2574597,Adres
4602,9871,Stroobos,,Achtkarspelen,Friesland,512,53.2387472,6.2185404,Adres
4604,9873,Gerkesklooster,,Achtkarspelen,Friesland,512,53.2411194,6.2074842,Adres
4605,9881,Kommerzijl,KOMMERZYL,Zuidhorn,Groningen,594,53.2968455,6.309849,Adres
4607,9883,Oldehove,,Zuidhorn,Groningen,594,53.3037688,6.3962634,Adres
4608,9884,Niehove,,Zuidhorn,Groningen,594,53.2899865,6.3666981,Adres
4609,9885,Lauwerzijl,LAUWERZYL,Zuidhorn,Groningen,594,53.3112927,6.2968599,Adres
4610,9886,Saaksum,,Zuidhorn,Groningen,594,53.3135125,6.4181432,Adres
4611,9891,Ezinge,,Winsum,Groningen,594,53.3109973,6.4398085,Adres
4612,9892,Feerwerd,,Winsum,Groningen,594,53.306512,6.4660335,Adres
4613,9893,Garnwerd,,Winsum,Groningen,594,53.3041279,6.4927435,Adres
4614,9900,Appingedam,,Appingedam,Groningen,596,53.3204059,6.8574009,Postbus
4618,9904,Krewerd,,Delfzijl,Groningen,596,53.3546854,6.8483261,Adres
4619,9905,Holwierde,,Delfzijl,Groningen,596,53.3582111,6.8715636,Adres
4620,9906,Bierum,,Delfzijl,Groningen,596,53.3812415,6.8600041,Adres
4621,9907,Losdorp,,Delfzijl,Groningen,596,53.3753644,6.8355789,Adres
4622,9908,Godlinze,,Delfzijl,Groningen,596,53.372001,6.8132272,Adres
4624,9911,Oosterwijtwerd,OOSTERWYTWERD,Loppersum,Groningen,596,53.3375213,6.8146678,Adres
4625,9912,Leermens,,Loppersum,Groningen,596,53.3460884,6.7976523,Adres
4626,9913,Eenum,,Loppersum,Groningen,596,53.3394215,6.7798369,Adres
4627,9914,Zeerijp,,Loppersum,Groningen,596,53.3479644,6.7621522,Adres
4628,9915,'t Zandt,T ZANDT,Loppersum,Groningen,596,53.3661197,6.7744058,Adres
4630,9918,Garrelsweer,,Loppersum,Groningen,596,53.3110984,6.7695588,Adres
4631,9919,Loppersum,,Loppersum,Groningen,596,53.3321749,6.7479874,Adres + Postbus
4632,9921,Stedum,,Loppersum,Groningen,596,53.3223306,6.6932859,Adres
4633,9922,Westeremden,,Loppersum,Groningen,596,53.3433579,6.7114019,Adres
4634,9923,Garsthuizen,,Loppersum,Groningen,595,53.3685301,6.7128526,Adres
4635,9924,Startenhuizen,,Eemsmond,Groningen,595,53.3678436,6.7099167,Adres
4637,9930,Delfzijl,DELFZYL,Delfzijl,Groningen,596,53.3321461,6.9235065,Postbus
4642,9936,Farmsum,,Delfzijl,Groningen,596,53.3230048,6.92796,Adres
4643,9937,Meedhuizen,,Delfzijl,Groningen,596,53.287555,6.9113476,Adres
4644,9939,Tjuchem,,Slochteren,Groningen,596,53.2797996,6.8784014,Adres
4645,9942,'t Waar,T WAAR,Oldambt,Groningen,598,53.2238038,6.9411429,Adres
4646,9943,Nieuw-Scheemda,NIEUW SCHEEMDA,Oldambt,Groningen,598,53.209444,6.942778,Adres
4647,9944,Nieuwolda,,Oldambt,Groningen,596,53.2448575,6.9745486,Adres
4648,9945,Wagenborgen,,Delfzijl,Groningen,596,53.256161,6.9305903,Adres
4649,9946,Woldendorp,,Delfzijl,Groningen,596,53.273195,7.0297912,Adres
4650,9947,Termunten,,Delfzijl,Groningen,596,53.2969035,7.0461427,Adres
4651,9948,Termunterzijl,TERMUNTERZYL,Delfzijl,Groningen,596,53.3,7.033333,Adres
4652,9949,Borgsweer,,Delfzijl,Groningen,596,53.297626,7.0137074,Adres
4655,9953,Baflo,,Winsum,Groningen,595,53.3626014,6.514347,Adres
4656,9954,Tinallinge,,Winsum,Groningen,595,53.3572921,6.535116,Adres
4657,9955,Rasquert,,Winsum,Groningen,595,53.3683436,6.5172017,Adres
4658,9956,Den Andel,,Winsum,Groningen,595,53.3929082,6.5088277,Adres
4659,9957,Saaxumhuizen,,Winsum,Groningen,595,53.3803878,6.4828482,Adres
4660,9959,Onderdendam,,Bedum,Groningen,50,53.334958,6.5888657,Adres
4661,9961,Mensingeweer,,De Marne,Groningen,595,53.3516434,6.4648158,Adres
4662,9962,Schouwerzijl,SCHOUWERZYL,De Marne,Groningen,595,53.3320492,6.4502452,Adres
4663,9963,Warfhuizen,,De Marne,Groningen,595,53.3424905,6.4255934,Adres
4664,9964,Wehe-Den Hoorn,WEHE DEN HOORN,De Marne,Groningen,595,53.3606579,6.4174547,Adres
4665,9965,Leens,,De Marne,Groningen,595,53.3592831,6.3788203,Adres + Postbus
4666,9966,Zuurdijk,ZUURDYK,De Marne,Groningen,595,53.3376067,6.3770336,Adres
4667,9967,Eenrum,,De Marne,Groningen,595,53.3646973,6.4610716,Adres
4668,9968,Pieterburen,,De Marne,Groningen,595,53.4007222,6.4538674,Adres
4669,9969,Westernieland,,De Marne,Groningen,595,53.4012414,6.483094,Adres
4670,9970,Ulrum,,De Marne,Groningen,595,53.3598514,6.3285821,Postbus
4673,9973,Houwerzijl,HOUWERZYL,De Marne,Groningen,595,53.3358028,6.3412882,Adres
4674,9974,Zoutkamp,,De Marne,Groningen,595,53.3380226,6.3031143,Adres + Postbus
4675,9975,Vierhuizen,,De Marne,Groningen,595,53.3602891,6.2912261,Adres
4676,9976,Lauwersoog,,De Marne,Groningen,519,53.4053662,6.2120483,Adres
4677,9977,Kloosterburen,,De Marne,Groningen,595,53.3873598,6.3912951,Adres
4678,9978,Hornhuizen,,De Marne,Groningen,595,53.3883106,6.3597681,Adres
4679,9979,Eemshaven,,Eemsmond,Groningen,596,53.4475,6.801389,Adres
4680,9980,Uithuizen,,Eemsmond,Groningen,595,53.4084022,6.673905,Postbus
4682,9982,Uithuizermeeden,,Eemsmond,Groningen,595,53.4143783,6.7255617,Adres
4683,9983,Roodeschool,,Eemsmond,Groningen,595,53.4202348,6.7641787,Adres + Postbus
4684,9984,Oudeschip,,Eemsmond,Groningen,596,53.430506,6.8233997,Adres
4685,9985,Oosternieland,,Eemsmond,Groningen,595,53.4012414,6.7552403,Adres
4686,9986,Oldenzijl,OLDENZYL,Eemsmond,Groningen,595,53.3937428,6.7163208,Adres
4687,9987,Zijldijk,,Loppersum,Groningen,596,53.3939695,6.7570084,Adres
4688,9988,Usquert,,Eemsmond,Groningen,595,53.4034398,6.6120412,Adres
4689,9989,Warffum,,Eemsmond,Groningen,595,53.393408,6.5592591,Adres + Postbus
4690,9990,Middelstum,,Loppersum,Groningen,595,53.3354802,6.6692011,Postbus
4692,9992,Huizinge,,Loppersum,Groningen,595,53.3452057,6.6736326,Adres
4693,9993,Westerwijtwerd,WESTERWYTWERD,Loppersum,Groningen,595,53.3339842,6.6445489,Adres
4694,9994,Toornwerd,,Loppersum,Groningen,595,53.3538973,6.6359236,Adres
4695,9995,Kantens,,Eemsmond,Groningen,595,53.3654395,6.6337947,Adres
4696,9996,Eppenhuizen,,Eemsmond,Groningen,595,53.3812944,6.6968944,Adres
4697,9997,Zandeweer,,Eemsmond,Groningen,595,53.3875127,6.6811208,Adres
4699,9999,Stitswerd,,Eemsmond,Groningen,595,53.3608768,6.5992932,Adres
